,UNITID,INSTNM,CITY,STABBR,ZIP,INSTURL,UGDS,LATITUDE,LONGITUDE,ADM_RATE,HIGHDEG,CONTROL,CCBASIC,CCUGPROF,CCSIZSET,TRIBAL,NANTI,UGDS_AIAN,UG_AIANOLD,territories
1737,169983,Kettering University,Flint,MI,48504-6214,www.kettering.edu/,1802.0,43.013112,-83.71435600000001,0.701,4,2,19,14,10,0,0,0.0028,,"[""19ba19a676c868832ce6f5857d6009b9"", ""536f31a6e26dfcc840b99c4f49f10829"", ""7e30edf6ace00ddf13dd8e09947db500""]"
2937,206525,Wittenberg University,Springfield,OH,45504,www.wittenberg.edu,1805.0,39.937463,-83.814082,0.7686,4,2,21,14,11,0,0,0.0028,,"[""19ba19a676c868832ce6f5857d6009b9"", ""5c97aa2bdef5e8752104ee6c48fe0853""]"
1629,166391,Lasell College,Newton,MA,02466,www.lasell.edu/,1810.0,42.342712,-71.24373800000001,0.7815,4,2,22,12,11,0,0,0.0011,,"[""a77db6a813b8e6f32265756291b9302a"", ""ed1ad3408d7b10f52761a4fb57695ad4""]"
2155,183257,Granite State College,Concord,NH,03301-3471,www.granite.edu,1813.0,43.19291,-71.527241,,4,1,21,5,9,0,0,0.0028,,"[""2df165e09bd2d7c035936c3e6978724a"", ""d9508a2edf4f8abe6f02d454c3768838""]"
1542,163295,Maryland Institute College of Art,Baltimore,MD,21217-4134,www.mica.edu,1814.0,39.308792,-76.621033,0.4735,4,2,30,14,11,0,0,0.0017,,"[""343052679408b2c8ca3c9e5bbfc496d5""]"
2970,207306,Northwestern Oklahoma State University,Alva,OK,73717-2799,www.nwosu.edu,1815.0,36.796313,-98.667596,0.4814,4,1,20,7,10,0,0,0.0694,,"[""189cfaa20f0eb5e43d34b1972b9270ed"", ""2b138b83575305cdd623a27b405ee7e5"", ""4df4246b4504e9874a9d734070f2e278"", ""54fd1211f20900fb911ee8ce968d6304""]"
2977,207403,Oklahoma Baptist University,Shawnee,OK,74804,https://www.okbu.edu,1817.0,35.359949,-96.93433399999999,0.6103,4,2,22,14,11,0,0,0.0578,,"[""189cfaa20f0eb5e43d34b1972b9270ed"", ""9cfa50165033586c4e2b7e353fbd1318"", ""c8aed1a48aa35d0b15ff0381bff48dd6""]"
1357,156541,University of the Cumberlands,Williamsburg,KY,40769,www.ucumberlands.edu,1818.0,36.736489,-84.162375,0.6828,4,2,19,13,14,0,0,0.0033,,"[""1d5e456931db024b1c874a16dce0ce1b"", ""3db77b6e93bd15601dd8750b9eaa6add"", ""7639ca3ea97bd7b15f7b7ebb3d20b2ea"", ""c8210c4dc0690a308150ecbd7ad039c2""]"
3198,213826,Marywood University,Scranton,PA,18509-1598,www.marywood.edu/,1820.0,41.434978,-75.633996,0.7052,4,2,18,13,10,0,0,0.0011,,"[""19ba19a676c868832ce6f5857d6009b9""]"
3786,231581,Bridgewater College,Bridgewater,VA,22812-1599,https://www.bridgewater.edu/about-us,1823.0,38.378391,-78.969011,0.4927,3,2,21,12,11,0,0,0.0033,,"[""19ba19a676c868832ce6f5857d6009b9"", ""675c433934dbceb6bfc4a5fca05a6772""]"
3159,212984,Holy Family University,Philadelphia,PA,19114-2009,https://www.holyfamily.edu,1824.0,40.060414,-74.990365,0.7395,4,2,18,7,9,0,0,0.0011,,"[""4a9b0285e952687b405986f1951007f7""]"
1005,145646,Illinois Wesleyan University,Bloomington,IL,61702-2900,www.iwu.edu,1834.0,40.491521999999996,-88.990622,0.6191,3,2,21,14,11,0,0,0.0005,,"[""19ba19a676c868832ce6f5857d6009b9"", ""5c97aa2bdef5e8752104ee6c48fe0853""]"
1212,153278,University of Dubuque,Dubuque,IA,52001,www.dbq.edu,1834.0,42.498027,-90.693568,0.7742,4,2,20,11,11,0,0,0.0038,,"[""0491f976864a170c692ef2a166034c97""]"
3871,234207,Washington and Lee University,Lexington,VA,24450-2116,www.wlu.edu/,1844.0,37.787832,-79.445724,0.2388,4,2,21,14,11,0,0,0.0011,,"[""19ba19a676c868832ce6f5857d6009b9""]"
3363,217873,Claflin University,Orangeburg,SC,29115-4498,www.claflin.edu,1844.0,33.497367,-80.85436800000001,0.4133,4,2,21,11,11,0,0,0.0114,,"[""7639ca3ea97bd7b15f7b7ebb3d20b2ea""]"
1577,164632,Bay Path University,Longmeadow,MA,01106,www.baypath.edu,1849.0,42.055364000000004,-72.583974,0.7726,4,2,21,11,11,0,0,0.0011,,"[""92e0d6065757df7879cfa315280b82b6"", ""c9123ff8973d332a07ca807f63ed6551"", ""ddd44330b3abfeabf49632f0e4cb0e09""]"
1631,166452,Lesley University,Cambridge,MA,02138-2790,www.lesley.edu,1849.0,42.378429,-71.115601,0.6709999999999999,4,2,18,9,13,0,0,0.0011,,"[""a77db6a813b8e6f32265756291b9302a"", ""ed1ad3408d7b10f52761a4fb57695ad4""]"
4039,240107,Viterbo University,La Crosse,WI,54601-8804,www.viterbo.edu,1852.0,43.802291,-91.244095,0.6615,4,2,18,9,10,0,0,0.0022,,"[""0491f976864a170c692ef2a166034c97"", ""940c8b2796d69930a08670e10bb5c9a5"", ""e834ab3323064b2a18f47bb73c0086c4""]"
611,128902,Connecticut College,New London,CT,06320-4196,www.conncoll.edu,1854.0,41.379833000000005,-72.107321,0.3997,4,2,21,14,11,0,0,0.0005,,"[""5c600fd2cea0ead787b7bca645cdaf09""]"
505,123651,Vanguard University of Southern California,Costa Mesa,CA,92626,www.vanguard.edu,1856.0,33.662686,-117.90091100000001,0.6826,4,2,22,7,9,0,0,0.0005,,"[""acf3b3f37dbec4c43881eac7593ba2d2""]"
1483,161086,Colby College,Waterville,ME,04901-8840,www.colby.edu,1857.0,44.564211,-69.66337,0.2252,3,2,21,14,11,0,0,0.0027,,"[""2df165e09bd2d7c035936c3e6978724a"", ""d9508a2edf4f8abe6f02d454c3768838""]"
3170,213321,King's College,Wilkes-Barre,PA,18711-0801,www.kings.edu,1859.0,41.248118,-75.878603,0.7158,4,2,20,12,11,0,0,0.0022,,"[""19ba19a676c868832ce6f5857d6009b9""]"
2384,191515,Hamilton College,Clinton,NY,13323,www.hamilton.edu,1861.0,43.047809,-75.40885300000001,0.2481,3,2,21,14,11,0,0,0.0005,,"[""16afe121bade8b41bd8b9603cbece35c"", ""19ba19a676c868832ce6f5857d6009b9""]"
273,112075,Concordia University-Irvine,Irvine,CA,92612-3203,www.cui.edu,1863.0,33.6535,-117.81063,0.5917,4,2,18,13,13,0,0,0.0032,,"[""acf3b3f37dbec4c43881eac7593ba2d2""]"
1608,165671,Emmanuel College,Boston,MA,02115,www.emmanuel.edu,1865.0,42.341190999999995,-71.103038,0.7841,4,2,20,14,11,0,0,0.0027,,"[""a77db6a813b8e6f32265756291b9302a"", ""ed1ad3408d7b10f52761a4fb57695ad4""]"
2274,188304,Western New Mexico University,Silver City,NM,88061,www.wnmu.edu,1866.0,32.776962,-108.284768,,4,1,19,7,10,0,0,0.0322,,"[""0ffee384b44812ad7a25936466c14858""]"
1278,154712,Benedictine College,Atchison,KS,66002-1499,www.benedictine.edu,1868.0,39.572953000000005,-95.111424,0.9915,4,2,22,14,11,0,0,0.0032,,"[""189cfaa20f0eb5e43d34b1972b9270ed"", ""2fe6b23b2fbe281d0e79840b83c217e5""]"
35,101675,Miles College,Fairfield,AL,35064-2621,www.miles.edu,1869.0,33.481306,-86.90860500000001,,3,2,22,11,11,0,0,0.0,,"[""3db77b6e93bd15601dd8750b9eaa6add"", ""65e2b5937d3213af618235db3d0d0862""]"
1200,153001,Buena Vista University,Storm Lake,IA,50588,www.bvu.edu,1873.0,42.642528999999996,-95.208053,0.6808,4,2,22,13,11,0,0,0.0053,,"[""e834ab3323064b2a18f47bb73c0086c4""]"
1853,174075,University of Minnesota-Crookston,Crookston,MN,56716-5001,https://www.crk.umn.edu/,1874.0,47.802021,-96.609863,0.7676,3,1,22,9,10,0,0,0.0043,,"[""7e30edf6ace00ddf13dd8e09947db500"", ""821cf91c2f03ff2aaf63c73b7862d7ef""]"
2719,200217,University of Mary,Bismarck,ND,58504,www.umary.edu/,1875.0,46.724893,-100.752386,0.9567,4,2,18,13,10,0,0,0.0165,,"[""a4bc7c5d2586d2d0fc473ba771ae3b98"", ""e834ab3323064b2a18f47bb73c0086c4""]"
2423,192864,Marymount Manhattan College,New York,NY,10021-4597,www.mmm.edu,1875.0,40.769108,-73.959676,0.8381,3,2,21,12,10,0,0,0.008,,"[""4a9b0285e952687b405986f1951007f7""]"
3761,230834,Castleton University,Castleton,VT,05735,www.castleton.edu,1878.0,43.607982,-73.18148599999999,0.9677,4,1,21,13,11,0,0,0.0053,,"[""061864fdd6d72b417a8628ce465dec92"", ""2df165e09bd2d7c035936c3e6978724a"", ""d9508a2edf4f8abe6f02d454c3768838""]"
3044,209612,Pacific University,Forest Grove,OR,97116,www.pacificu.edu,1884.0,45.521394,-123.108777,0.7903,4,2,18,13,14,0,0,0.0064,,"[""e76f6f00880ecae07305d08ea7dedf8c""]"
2136,182980,New England College,Henniker,NH,03242,www.nec.edu/,1886.0,43.177005,-71.822928,0.9775,4,2,19,11,10,0,0,0.0101,,"[""2df165e09bd2d7c035936c3e6978724a"", ""d9508a2edf4f8abe6f02d454c3768838""]"
1191,152530,Taylor University,Upland,IN,46989-1001,https://www.taylor.edu,1887.0,40.458382,-85.49690600000001,0.8508,4,2,22,14,11,0,0,0.009000000000000001,,"[""19ba19a676c868832ce6f5857d6009b9"", ""5c97aa2bdef5e8752104ee6c48fe0853""]"
1219,153375,Grand View University,Des Moines,IA,50316,www.grandview.edu,1889.0,41.620909000000005,-93.605016,0.9821,4,2,22,11,10,0,0,0.0021,,"[""0491f976864a170c692ef2a166034c97"", ""406123f9f9771e5dcd50e5f0910fc808""]"
204,109651,Art Center College of Design,Pasadena,CA,91103,www.artcenter.edu,1890.0,34.170844,-118.186901,0.7951,4,2,30,11,9,0,0,0.0026,,"[""acf3b3f37dbec4c43881eac7593ba2d2""]"
3120,211981,Delaware Valley University,Doylestown,PA,18901-2697,www.delval.edu,1896.0,40.29757,-75.158202,0.687,4,2,22,13,11,0,0,0.0069,,"[""4a9b0285e952687b405986f1951007f7""]"
3077,210669,Allegheny College,Meadville,PA,16335-3902,www.allegheny.edu,1896.0,41.648068,-80.146922,0.6834,3,2,21,14,11,0,0,0.0011,,"[""19ba19a676c868832ce6f5857d6009b9"", ""f63ea15571b3debc934aafac25267799""]"
3416,219082,Dakota State University,Madison,SD,57042-1799,dsu.edu,1896.0,44.0127,-97.10960899999999,0.8125,4,1,20,9,10,0,0,0.009000000000000001,,"[""e834ab3323064b2a18f47bb73c0086c4""]"
4117,242699,Inter American University of Puerto Rico-Guayama,Guayama,PR,00785,guayama.inter.edu/,1898.0,17.98,-66.1101,0.4729,4,2,22,10,9,0,0,0.0005,,"[""c5e1bbd54f84c3f47c39e590a9eccfdd""]"
2068,180416,Montana Tech of the University of Montana,Butte,MT,59701-8997,www.mtech.edu,1898.0,46.012164,-112.557,0.8879,4,1,22,15,9,0,0,0.0158,,"[""02cc730ca35824944341d5e6d5747d50"", ""4ec97c812882a6d1a164ea2e32692988""]"
2153,183239,Saint Anselm College,Manchester,NH,03102-1310,www.anselm.edu,1908.0,42.985065999999996,-71.508177,0.7290000000000001,3,2,21,14,11,0,0,0.0016,,"[""2df165e09bd2d7c035936c3e6978724a"", ""d9508a2edf4f8abe6f02d454c3768838""]"
1740,170037,Cornerstone University,Grand Rapids,MI,49525-5897,www.cornerstone.edu,1912.0,42.979044,-85.595602,0.7298,4,2,18,9,10,0,0,0.0078,,"[""19ba19a676c868832ce6f5857d6009b9""]"
32,101587,University of West Alabama,Livingston,AL,35470,www.uwa.edu,1913.0,32.59244,-88.186077,0.7347,4,1,18,13,13,0,0,0.0016,,"[""3db77b6e93bd15601dd8750b9eaa6add""]"
3391,218654,University of South Carolina-Beaufort,Bluffton,SC,29909,www.uscb.edu,1917.0,32.303308,-80.97359499999999,0.6274,3,1,22,11,9,0,0,0.0042,,[]
3067,210401,Willamette University,Salem,OR,97301,www.willamette.edu,1925.0,44.935743,-123.030727,0.7794,4,2,21,14,11,0,0,0.0057,,"[""e31c3d18dae78ec0e51a1a3a5eca79e8""]"
3624,226231,LeTourneau University,Longview,TX,75602,www.letu.edu,1933.0,32.467658,-94.72726,0.4548,4,2,19,9,10,0,0,0.0026,,"[""889a46697fcb74fe7762130797f11df5""]"
3154,212832,Gwynedd Mercy University,Gwynedd Valley,PA,19437-0901,https://www.gmercyu.edu/,1935.0,40.197565999999995,-75.238052,0.685,4,2,19,11,9,0,0,0.0036,,"[""4a9b0285e952687b405986f1951007f7""]"
2163,183822,Bloomfield College,Bloomfield,NJ,07003,www.bloomfield.edu/,1937.0,40.794218,-74.19593,0.597,4,2,21,11,10,0,0,0.0041,,"[""4a9b0285e952687b405986f1951007f7""]"
3773,231059,Saint Michael's College,Colchester,VT,05439,www.smcvt.edu,1941.0,44.494212,-73.163136,0.7596,4,2,21,14,11,0,0,0.0005,,"[""2df165e09bd2d7c035936c3e6978724a"", ""d9508a2edf4f8abe6f02d454c3768838""]"
1878,174747,College of Saint Benedict,Saint Joseph,MN,56374,www.csbsju.edu,1943.0,45.558609000000004,-94.31902,0.7414,3,2,21,14,11,0,0,0.0072,,"[""7e30edf6ace00ddf13dd8e09947db500""]"
600,128391,Western State Colorado University,Gunnison,CO,81231,www.western.edu,1945.0,38.547421,-106.91971000000001,0.9761,4,1,21,13,10,0,0,0.0057,,"[""595617f81d7c04fe70726f9601b45f29""]"
2972,207324,Oklahoma Christian University,Edmond,OK,73013,www.oc.edu,1948.0,35.609041999999995,-97.468312,0.5911,4,2,19,15,11,0,0,0.018000000000000002,,"[""189cfaa20f0eb5e43d34b1972b9270ed"", ""54fd1211f20900fb911ee8ce968d6304""]"
2523,196112,SUNY Polytechnic Institute,Utica,NY,13502,www.sunyit.edu,1950.0,43.13528,-75.2292,0.6046,4,1,19,13,10,0,0,0.001,,"[""19ba19a676c868832ce6f5857d6009b9""]"
1871,174491,University of Northwestern-St Paul,Saint Paul,MN,55113-1598,https://www.unwsp.edu,1954.0,45.032969,-93.17157900000001,0.8677,4,2,22,14,11,0,0,0.0005,,"[""7e30edf6ace00ddf13dd8e09947db500""]"
682,132657,Lynn University,Boca Raton,FL,33431-5598,www.lynn.edu,1957.0,26.382777,-80.123851,0.7597,4,2,17,13,11,0,0,0.0051,,"[""17f000b591d77a210adc52a0895ae256""]"
3845,233426,Roanoke College,Salem,VA,24153-3794,www.roanoke.edu,1961.0,37.296859999999995,-80.056433,0.7246,3,2,21,12,11,0,0,0.0046,,"[""19ba19a676c868832ce6f5857d6009b9""]"
2365,190725,Daemen College,Amherst,NY,14226-3592,www.daemen.edu,1968.0,42.965024,-78.789025,0.5066,4,2,18,13,10,0,0,0.0046,,"[""19ba19a676c868832ce6f5857d6009b9""]"
1167,151786,Marian University,Indianapolis,IN,46222-1997,www.marian.edu,1969.0,39.81534,-86.204599,0.5611,4,2,22,13,10,0,0,0.0036,,"[""19ba19a676c868832ce6f5857d6009b9"", ""5c97aa2bdef5e8752104ee6c48fe0853""]"
4002,238430,Cardinal Stritch University,Milwaukee,WI,53217-3985,www.stritch.edu,1971.0,43.139752,-87.90904499999999,0.7688,4,2,17,13,12,0,0,0.0051,,"[""5383948cbc0e947d9efd873b7f97617a"", ""5c97aa2bdef5e8752104ee6c48fe0853"", ""93c595202370658320bb120f7aa9fc46""]"
2295,189088,Bard College,Annandale-On-Hudson,NY,12504-5000,www.bard.edu,1976.0,42.021803000000006,-73.906243,0.3217,4,2,21,14,11,0,0,0.0086,,"[""061864fdd6d72b417a8628ce465dec92"", ""19ba19a676c868832ce6f5857d6009b9""]"
4181,245953,Mid-America Christian University,Oklahoma City,OK,73170-9797,www.macu.edu,1980.0,35.347784999999995,-97.57829699999999,,4,2,22,7,9,0,0,0.0348,,"[""189cfaa20f0eb5e43d34b1972b9270ed"", ""54fd1211f20900fb911ee8ce968d6304"", ""9cfa50165033586c4e2b7e353fbd1318""]"
3847,233541,Shenandoah University,Winchester,VA,22601-5195,www.su.edu,1991.0,39.166058,-78.158376,0.8205,4,2,18,13,13,0,0,0.0055,,"[""19ba19a676c868832ce6f5857d6009b9""]"
1821,173258,Carleton College,Northfield,MN,55057-4001,www.carleton.edu,1995.0,44.462303999999996,-93.154662,0.2065,3,2,21,14,11,0,0,0.0015,,"[""e834ab3323064b2a18f47bb73c0086c4""]"
420,120254,Occidental College,Los Angeles,CA,90041-3392,www.oxy.edu,1997.0,34.126224,-118.210783,0.4487,3,2,21,14,11,0,0,0.0015,,"[""acf3b3f37dbec4c43881eac7593ba2d2""]"
697,133492,Eckerd College,Saint Petersburg,FL,33711-4700,www.eckerd.edu,2002.0,27.718996,-82.685992,0.7172,3,2,21,14,11,0,0,0.003,,"[""17f000b591d77a210adc52a0895ae256"", ""816cc45dc56caf067c6f50b383fca5d0""]"
4113,242644,Inter American University of Puerto Rico-Barranquitas,Barranquitas,PR,00794-0517,www.br.uipr.edu/inter/,2009.0,18.182702,-66.303314,0.4304,4,2,22,10,9,0,0,0.0005,,"[""c5e1bbd54f84c3f47c39e590a9eccfdd""]"
1048,147244,Millikin University,Decatur,IL,62522-2084,https://www.millikin.edu,2012.0,39.842603999999994,-88.974571,0.6,4,2,22,13,11,0,0,0.002,,"[""19ba19a676c868832ce6f5857d6009b9"", ""5c97aa2bdef5e8752104ee6c48fe0853""]"
3344,217493,Rhode Island School of Design,Providence,RI,02903-2784,www.risd.edu,2014.0,41.825935,-71.407692,0.37200000000000005,4,2,30,14,11,0,0,0.002,,"[""779f577a99cc550227c6af27fef6f12f"", ""ed1ad3408d7b10f52761a4fb57695ad4""]"
3984,237932,West Liberty University,West Liberty,WV,26074,www.westliberty.edu/,2014.0,40.162473,-80.604054,0.721,4,1,22,11,10,0,0,0.0005,,"[""189cfaa20f0eb5e43d34b1972b9270ed"", ""19ba19a676c868832ce6f5857d6009b9""]"
2704,199962,Wingate University,Wingate,NC,28174-0159,https://www.wingate.edu,2015.0,34.979384,-80.44446500000001,0.6981,4,2,20,12,11,0,0,0.0035,,"[""a4f57169cee0acb6a67bd4bc6c10ecf1"", ""f46c78ac8f99d60bd34a7f374d458cfc""]"
1469,160630,Southern University at New Orleans,New Orleans,LA,70126,www.suno.edu,2015.0,30.026690000000002,-90.044379,0.2145,4,1,19,7,10,0,0,0.0035,,"[""3db77b6e93bd15601dd8750b9eaa6add""]"
365,117627,La Sierra University,Riverside,CA,92515-8247,https://lasierra.edu,2020.0,33.908834000000006,-117.49707099999999,0.4462,4,2,19,11,10,0,0,0.004,,"[""52b961c1d218b20303fe010451eaed70"", ""acf3b3f37dbec4c43881eac7593ba2d2""]"
4149,243665,University of the Virgin Islands,Charlotte Amalie,VI,00802-9990,www.uvi.edu,2022.0,18.344193,-64.972866,0.9497,4,1,22,6,10,0,0,0.002,,"[""c5e1bbd54f84c3f47c39e590a9eccfdd""]"
2938,206589,The College of Wooster,Wooster,OH,44691,www.wooster.edu,2026.0,40.81046,-81.934674,0.5529,3,2,21,14,11,0,0,0.0118,,"[""19ba19a676c868832ce6f5857d6009b9"", ""93c595202370658320bb120f7aa9fc46""]"
3507,221351,Rhodes College,Memphis,TN,38112-1690,www.rhodes.edu,2031.0,35.154424,-89.989187,0.4687,4,2,21,14,11,0,0,0.0034,,"[""3db77b6e93bd15601dd8750b9eaa6add"", ""70a60c93a29885e123c5e9949090f138""]"
3982,237899,West Virginia State University,Institute,WV,25112-1000,www.wvstateu.edu,2033.0,38.379002,-81.76801999999999,0.9409,4,1,21,11,9,0,0,0.0039,,"[""189cfaa20f0eb5e43d34b1972b9270ed"", ""19ba19a676c868832ce6f5857d6009b9"", ""7639ca3ea97bd7b15f7b7ebb3d20b2ea"", ""c47770bc7c0750dbe498d0459d9c4832""]"
2914,205957,Franciscan University of Steubenville,Steubenville,OH,43952-1763,www.franciscan.edu,2036.0,40.376086,-80.623094,0.7888,4,2,19,15,11,0,0,0.0015,,"[""189cfaa20f0eb5e43d34b1972b9270ed"", ""19ba19a676c868832ce6f5857d6009b9"", ""f63ea15571b3debc934aafac25267799""]"
1580,164720,Becker College,Worcester,MA,01609-2165,www.becker.edu,2036.0,42.26918,-71.81189499999999,0.6689,3,2,22,9,10,0,0,0.0044,,"[""c9123ff8973d332a07ca807f63ed6551""]"
1940,176479,William Carey University,Hattiesburg,MS,39401-5499,www.wmcarey.edu,2047.0,31.305264,-89.291815,0.5689,4,2,18,13,13,0,0,0.0068,,"[""3db77b6e93bd15601dd8750b9eaa6add"", ""9cfa50165033586c4e2b7e353fbd1318""]"
4116,242680,Inter American University of Puerto Rico-Fajardo,Fajardo,PR,00738-7003,fajardo.inter.edu/,2050.0,18.329194,-65.648485,0.6722,4,2,22,10,9,0,0,0.0015,,"[""c5e1bbd54f84c3f47c39e590a9eccfdd""]"
4033,239716,Saint Norbert College,De Pere,WI,54115-2099,www.snc.edu,2052.0,44.444651,-88.067301,0.7769,4,2,21,14,11,0,0,0.0102,,"[""5383948cbc0e947d9efd873b7f97617a"", ""5c97aa2bdef5e8752104ee6c48fe0853"", ""93c595202370658320bb120f7aa9fc46""]"
2851,204185,University of Mount Union,Alliance,OH,44601-3993,www.mountunion.edu,2061.0,40.905093,-81.108624,0.7501,4,2,22,12,11,0,0,0.0058,,"[""189cfaa20f0eb5e43d34b1972b9270ed"", ""19ba19a676c868832ce6f5857d6009b9"", ""93c595202370658320bb120f7aa9fc46"", ""f63ea15571b3debc934aafac25267799""]"
3816,232609,Lynchburg College,Lynchburg,VA,24501-3113,www.lynchburg.edu,2064.0,37.397678000000006,-79.18415300000001,0.6941,4,2,20,13,11,0,0,0.0044,,"[""19ba19a676c868832ce6f5857d6009b9""]"
541,126182,Adams State University,Alamosa,CO,81101,www.adams.edu,2067.0,37.477238,-105.88094299999999,0.6435,4,1,19,11,10,0,0,0.0131,,"[""595617f81d7c04fe70726f9601b45f29""]"
1698,168342,Williams College,Williamstown,MA,01267,www.williams.edu,2070.0,42.711669,-73.205888,0.1761,4,2,21,14,11,0,0,0.0019,,"[""061864fdd6d72b417a8628ce465dec92""]"
2444,193584,Nazareth College,Rochester,NY,14618-3790,www.naz.edu,2078.0,43.102406,-77.51441700000001,0.7555,4,2,18,13,11,0,0,0.0019,,"[""19ba19a676c868832ce6f5857d6009b9""]"
3026,209056,Lewis & Clark College,Portland,OR,97219-7899,www.lclark.edu/,2087.0,45.450547,-122.672478,0.6283,4,2,21,14,14,0,0,0.0067,,"[""44468b05a0339405160df36c5f05e9df""]"
842,139144,Berry College,Mount Berry,GA,30149,www.berry.edu,2089.0,34.289254,-85.189077,0.5537,4,2,21,14,11,0,0,0.0024,,"[""3db77b6e93bd15601dd8750b9eaa6add"", ""7639ca3ea97bd7b15f7b7ebb3d20b2ea""]"
1754,170639,Lake Superior State University,Sault Ste Marie,MI,49783,www.lssu.edu,2095.0,46.491735999999996,-84.3655,0.9189,4,1,22,13,10,0,0,0.0816,,"[""7e30edf6ace00ddf13dd8e09947db500"", ""821cf91c2f03ff2aaf63c73b7862d7ef""]"
2556,197018,United Talmudical Seminary,Brooklyn,NY,11211,utsny.edu,2096.0,40.7057,-73.959161,,4,2,24,11,9,0,0,0.0,,"[""2db0527a5564fbd1b0553ab28ce6379e"", ""4a9b0285e952687b405986f1951007f7""]"
551,126678,Colorado College,Colorado Springs,CO,80903,www.coloradocollege.edu,2096.0,38.84657,-104.82422,0.1713,4,2,21,14,11,0,0,0.0043,,"[""595617f81d7c04fe70726f9601b45f29"", ""a4bc7c5d2586d2d0fc473ba771ae3b98""]"
1350,156365,Campbellsville University,Campbellsville,KY,42718-2799,www.campbellsville.edu,2098.0,37.343342,-85.348943,0.7557,4,2,19,11,10,0,0,0.0029,,"[""19ba19a676c868832ce6f5857d6009b9"", ""1d5e456931db024b1c874a16dce0ce1b"", ""3db77b6e93bd15601dd8750b9eaa6add"", ""7639ca3ea97bd7b15f7b7ebb3d20b2ea""]"
1652,166939,Mount Holyoke College,South Hadley,MA,01075-1489,www.mtholyoke.edu,2099.0,42.257588,-72.573625,0.5008,4,2,21,14,11,0,0,0.001,,"[""92e0d6065757df7879cfa315280b82b6"", ""c9123ff8973d332a07ca807f63ed6551""]"
1376,157216,Lindsey Wilson College,Columbia,KY,42728-1223,www.lindsey.edu,2099.0,37.101853000000006,-85.299909,,4,2,19,11,11,0,0,0.0038,,"[""19ba19a676c868832ce6f5857d6009b9"", ""1d5e456931db024b1c874a16dce0ce1b"", ""3db77b6e93bd15601dd8750b9eaa6add"", ""7639ca3ea97bd7b15f7b7ebb3d20b2ea""]"
2080,180948,Chadron State College,Chadron,NE,69337-2690,www.csc.edu,2099.0,42.820671999999995,-103.00279300000001,,4,1,22,11,11,0,0,0.0129,,"[""a4bc7c5d2586d2d0fc473ba771ae3b98"", ""e834ab3323064b2a18f47bb73c0086c4""]"
1822,173300,Concordia College at Moorhead,Moorhead,MN,56562,https://www.concordiacollege.edu,2104.0,46.859423,-96.765567,0.7818,4,2,21,14,11,0,0,0.0057,,"[""e834ab3323064b2a18f47bb73c0086c4""]"
2662,199209,North Carolina Wesleyan College,Rocky Mount,NC,27804,www.ncwc.edu,2112.0,36.017443,-77.774231,0.5545,3,2,22,11,10,0,0,0.0085,,"[""836cc8d0b2c40ee685613c5623eac3d8"", ""a4f57169cee0acb6a67bd4bc6c10ecf1""]"
3959,237330,Concord University,Athens,WV,24712,www.concord.edu,2113.0,37.423854,-81.00569399999999,0.8491,4,1,22,13,10,0,0,0.0052,,"[""19ba19a676c868832ce6f5857d6009b9"", ""7639ca3ea97bd7b15f7b7ebb3d20b2ea"", ""c47770bc7c0750dbe498d0459d9c4832""]"
2870,204635,Ohio Northern University,Ada,OH,45810-1599,www.onu.edu/,2116.0,40.766144,-83.830729,0.6905,4,2,22,14,14,0,0,0.0005,,"[""19ba19a676c868832ce6f5857d6009b9"", ""5c97aa2bdef5e8752104ee6c48fe0853""]"
3346,217536,Salve Regina University,Newport,RI,02840-4192,www.salve.edu,2122.0,41.471445,-71.301125,0.7265,4,2,19,14,11,0,0,0.0024,,"[""ed1ad3408d7b10f52761a4fb57695ad4""]"
3298,216278,Susquehanna University,Selinsgrove,PA,17870-1025,www.susqu.edu,2122.0,40.797740000000005,-76.87521,0.7605,3,2,21,14,11,0,0,0.0009,,"[""19ba19a676c868832ce6f5857d6009b9"", ""cfaa9067fdb1a8acbd533c38a5dce783"", ""f63ea15571b3debc934aafac25267799""]"
1130,150534,University of Evansville,Evansville,IN,47722,www.evansville.edu/,2125.0,37.969955,-87.531963,0.6974,4,2,20,14,11,0,0,0.0005,,"[""189cfaa20f0eb5e43d34b1972b9270ed"", ""19ba19a676c868832ce6f5857d6009b9"", ""1d5e456931db024b1c874a16dce0ce1b"", ""3db77b6e93bd15601dd8750b9eaa6add"", ""5c97aa2bdef5e8752104ee6c48fe0853""]"
2252,187897,New Mexico Highlands University,Las Vegas,NM,87701,www.nmhu.edu,2128.0,35.598982,-105.222824,,4,1,18,7,9,0,0,0.0794,,[]
1685,167899,Springfield College,Springfield,MA,01109-3797,www.springfield.edu/,2134.0,42.105033,-72.555688,0.6415,4,2,18,12,14,0,0,0.0028,,"[""92e0d6065757df7879cfa315280b82b6"", ""c9123ff8973d332a07ca807f63ed6551"", ""ddd44330b3abfeabf49632f0e4cb0e09""]"
1756,170675,Lawrence Technological University,Southfield,MI,48075-1058,www.ltu.edu,2134.0,42.474072,-83.25003000000001,0.5529,4,2,18,5,9,0,0,0.0037,,"[""19ba19a676c868832ce6f5857d6009b9"", ""536f31a6e26dfcc840b99c4f49f10829"", ""7e30edf6ace00ddf13dd8e09947db500"", ""93c595202370658320bb120f7aa9fc46""]"
3759,230807,Westminster College,Salt Lake City,UT,84105,www.westminstercollege.edu,2135.0,40.731495,-111.855553,0.9595,4,2,19,15,10,0,0,0.0047,,"[""595617f81d7c04fe70726f9601b45f29"", ""90c530bbd09f81c0954d9b978dd38d18"", ""9e373de976e38d2afca82c56e896d221""]"
1059,147679,North Park University,Chicago,IL,60625-4895,www.northpark.edu,2139.0,41.9751,-87.709142,0.4945,4,2,18,13,10,0,0,0.0014,,"[""5c97aa2bdef5e8752104ee6c48fe0853"", ""93c595202370658320bb120f7aa9fc46""]"
2963,207209,Langston University,Langston,OK,73050,www.langston.edu,2139.0,35.943953,-97.260263,,4,1,20,11,11,0,0,0.0131,,"[""189cfaa20f0eb5e43d34b1972b9270ed"", ""54fd1211f20900fb911ee8ce968d6304""]"
2440,193353,Mount Saint Mary College,Newburgh,NY,12550,www.msmc.edu,2140.0,41.511212,-74.012906,0.8957,4,2,18,13,10,0,0,0.006999999999999999,,"[""061864fdd6d72b417a8628ce465dec92"", ""19ba19a676c868832ce6f5857d6009b9"", ""4a9b0285e952687b405986f1951007f7""]"
3689,228501,Sul Ross State University,Alpine,TX,79832,www.sulross.edu,2140.0,30.363418,-103.65007,0.7997,4,1,18,7,10,0,0,0.0047,,"[""c7cb7c61c88d7bc9d3a8d30fa6af32f6""]"
1574,164580,Babson College,Wellesley,MA,02457-0310,www.babson.edu,2141.0,42.296529,-71.269479,0.263,4,2,29,14,11,0,0,0.0014,,"[""a77db6a813b8e6f32265756291b9302a"", ""ed1ad3408d7b10f52761a4fb57695ad4""]"
897,141060,Spelman College,Atlanta,GA,30314-4399,www.spelman.edu,2142.0,33.74519,-84.41011800000001,0.4833,3,2,21,12,11,0,0,0.0047,,"[""3db77b6e93bd15601dd8750b9eaa6add"", ""65e2b5937d3213af618235db3d0d0862""]"
1843,173902,Macalester College,Saint Paul,MN,55105-1899,www.macalester.edu,2149.0,44.936709,-93.169855,0.3902,3,2,21,14,11,0,0,0.0009,,"[""7e30edf6ace00ddf13dd8e09947db500""]"
2931,206437,Walsh University,North Canton,OH,44720-3396,https://www.walsh.edu,2156.0,40.873295,-81.36910999999999,0.8029999999999999,4,2,19,12,10,0,0,0.0028,,"[""189cfaa20f0eb5e43d34b1972b9270ed"", ""19ba19a676c868832ce6f5857d6009b9"", ""93c595202370658320bb120f7aa9fc46"", ""f63ea15571b3debc934aafac25267799""]"
883,140553,Morehouse College,Atlanta,GA,30314,www.morehouse.edu,2163.0,33.74793,-84.41515600000001,0.7596,3,2,21,12,11,0,0,0.0009,,"[""3db77b6e93bd15601dd8750b9eaa6add"", ""65e2b5937d3213af618235db3d0d0862""]"
3128,212133,Eastern University,Saint Davids,PA,19087-3696,www.eastern.edu/about/student-consumer-information,2163.0,40.052306,-75.37026800000001,0.5223,4,2,18,13,14,0,0,0.0037,,"[""4a9b0285e952687b405986f1951007f7""]"
1833,173665,Hamline University,Saint Paul,MN,55104-1284,www.hamline.edu,2167.0,44.965696,-93.163983,0.7239,4,2,18,13,13,0,0,0.0032,,"[""7e30edf6ace00ddf13dd8e09947db500""]"
2644,198969,Methodist University,Fayetteville,NC,28311-1420,www.methodist.edu,2173.0,35.137854,-78.875024,0.5594,4,2,22,11,10,0,0,0.0069,,"[""50edf56d66368e4ed921b726a6c4d213"", ""836cc8d0b2c40ee685613c5623eac3d8"", ""a4f57169cee0acb6a67bd4bc6c10ecf1""]"
3081,210775,Alvernia University,Reading,PA,19607-1799,www.alvernia.edu,2177.0,40.3102,-75.938163,0.7425,4,2,19,6,10,0,0,0.0018,,"[""19ba19a676c868832ce6f5857d6009b9"", ""4a9b0285e952687b405986f1951007f7""]"
1573,164562,Assumption College,Worcester,MA,01609-1296,www.assumption.edu,2184.0,42.295435,-71.828387,0.7575,4,2,19,14,11,0,0,0.0005,,"[""c9123ff8973d332a07ca807f63ed6551""]"
1924,176035,Mississippi University for Women,Columbus,MS,39701,www.muw.edu,2192.0,33.493305,-88.418601,0.9613,4,1,20,13,10,0,0,0.0032,,"[""3db77b6e93bd15601dd8750b9eaa6add""]"
3197,213783,Mansfield University of Pennsylvania,Mansfield,PA,16933,www.mansfield.edu,2194.0,41.806975,-77.074178,0.8853,4,1,19,11,11,0,0,0.0027,,"[""19ba19a676c868832ce6f5857d6009b9"", ""cfaa9067fdb1a8acbd533c38a5dce783"", ""f63ea15571b3debc934aafac25267799""]"
4013,238980,Lakeland University,Plymouth,WI,53073,www.lakeland.edu,2196.0,43.841863000000004,-87.884956,0.9626,4,2,18,5,9,0,0,0.0205,,"[""5383948cbc0e947d9efd873b7f97617a"", ""5c97aa2bdef5e8752104ee6c48fe0853"", ""93c595202370658320bb120f7aa9fc46""]"
2554,196866,Union College,Schenectady,NY,12308-2311,www.union.edu/,2206.0,42.817578000000005,-73.928498,0.3831,3,2,21,14,11,0,0,0.0005,,"[""061864fdd6d72b417a8628ce465dec92""]"
3716,229267,Trinity University,San Antonio,TX,78212-7200,https://www.trinity.edu,2213.0,29.46286,-98.482577,0.4803,4,2,19,14,11,0,0,0.0036,,[]
3148,212577,Franklin and Marshall College,Lancaster,PA,17604-3003,WWW.FANDM.EDU,2219.0,40.048045,-76.319037,0.3226,3,2,21,14,11,0,0,0.0009,,"[""19ba19a676c868832ce6f5857d6009b9"", ""cfaa9067fdb1a8acbd533c38a5dce783""]"
863,139719,Fort Valley State University,Fort Valley,GA,31030-4313,www.fvsu.edu,2220.0,32.538163,-83.895548,0.2051,4,1,22,11,11,0,0,0.0005,,"[""3db77b6e93bd15601dd8750b9eaa6add"", ""65e2b5937d3213af618235db3d0d0862""]"
3074,210571,Albright College,Reading,PA,19612-5234,www.albright.edu,2228.0,40.360248,-75.910152,0.4917,4,2,21,13,11,0,0,0.0072,,"[""19ba19a676c868832ce6f5857d6009b9"", ""4a9b0285e952687b405986f1951007f7""]"
1126,150400,DePauw University,Greencastle,IN,46135-1772,www.depauw.edu,2229.0,39.63953,-86.863556,0.6476,3,2,21,14,11,0,0,0.0027,,"[""19ba19a676c868832ce6f5857d6009b9"", ""5c97aa2bdef5e8752104ee6c48fe0853""]"
1182,152318,Rose-Hulman Institute of Technology,Terre Haute,IN,47803-3920,www.rose-hulman.edu,2231.0,39.480946,-87.32356999999999,0.5779,4,2,27,14,11,0,0,0.0009,,"[""19ba19a676c868832ce6f5857d6009b9"", ""5c97aa2bdef5e8752104ee6c48fe0853""]"
2890,204936,Otterbein University,Westerville,OH,43081,www.otterbein.edu,2235.0,40.12534,-82.936231,0.7532,4,2,19,12,11,0,0,0.0027,,"[""19ba19a676c868832ce6f5857d6009b9"", ""5c97aa2bdef5e8752104ee6c48fe0853""]"
3534,221971,Union University,Jackson,TN,38305-3697,www.uu.edu,2239.0,35.676896,-88.858524,0.6913,4,2,18,15,14,0,0,0.0018,,"[""3db77b6e93bd15601dd8750b9eaa6add""]"
3600,225399,Houston Baptist University,Houston,TX,77074-3298,www.hbu.edu,2240.0,29.694414000000002,-95.515978,0.3323,4,2,19,13,10,0,0,0.0027,,[]
1082,148496,Dominican University,River Forest,IL,60305,www.dom.edu/,2241.0,41.902834000000006,-87.821872,0.6277,4,2,18,13,10,0,0,0.0009,,"[""5c97aa2bdef5e8752104ee6c48fe0853"", ""93c595202370658320bb120f7aa9fc46""]"
649,130590,Trinity College,Hartford,CT,06106-3100,www.trincoll.edu,2251.0,41.746746,-72.688684,0.3341,4,2,21,14,11,0,0,0.0009,,"[""3a31a06b87d6e805e3737171270b2acb"", ""67dfa2e41a1ced4ce3489ac76ff66975"", ""caf51f4137ab52fe04d966812bbf8bd8""]"
2794,202523,Denison University,Granville,OH,43023-0713,www.denison.edu,2254.0,40.072582000000004,-82.520625,0.4789,3,2,21,14,11,0,0,0.0004,,"[""19ba19a676c868832ce6f5857d6009b9"", ""93c595202370658320bb120f7aa9fc46""]"
1986,177940,Lincoln University,Jefferson City,MO,65101,www.lincolnu.edu/,2256.0,38.564409000000005,-92.168509,,4,1,20,11,10,0,0,0.0044,,"[""189cfaa20f0eb5e43d34b1972b9270ed""]"
2389,191630,Hobart William Smith Colleges,Geneva,NY,14456,WWW.HWS.EDU,2257.0,42.857725,-76.984533,0.565,4,2,21,14,11,0,0,0.0049,,"[""19ba19a676c868832ce6f5857d6009b9""]"
4055,240426,University of Wisconsin-Superior,Superior,WI,54880-4500,www.uwsuper.edu,2268.0,46.717548,-92.089039,0.9404,4,1,20,13,10,0,0,0.0194,,"[""7e30edf6ace00ddf13dd8e09947db500""]"
1494,161457,University of New England,Biddeford,ME,04005-9599,www.une.edu/,2271.0,43.458172,-70.385882,0.8514,4,2,18,12,14,0,0,0.004,,"[""2df165e09bd2d7c035936c3e6978724a"", ""d9508a2edf4f8abe6f02d454c3768838""]"
3386,218441,North Greenville University,Tigerville,SC,29688-1892,www.ngu.edu,2278.0,35.069758,-82.37026,0.5797,4,2,22,12,11,0,0,0.0035,,"[""7639ca3ea97bd7b15f7b7ebb3d20b2ea"", ""a4f57169cee0acb6a67bd4bc6c10ecf1""]"
16,101189,Faulkner University,Montgomery,AL,36109-3390,www.faulkner.edu,2282.0,32.384181,-86.21641,0.573,4,2,22,9,10,0,0,0.0061,,"[""3db77b6e93bd15601dd8750b9eaa6add"", ""65e2b5937d3213af618235db3d0d0862""]"
1242,153834,Luther College,Decorah,IA,52101-1045,www.luther.edu,2286.0,43.313584000000006,-91.80397099999999,0.6689,3,2,21,14,11,0,0,0.0022,,"[""0491f976864a170c692ef2a166034c97"", ""e834ab3323064b2a18f47bb73c0086c4""]"
1823,173328,Concordia University-Saint Paul,Saint Paul,MN,55104-5494,www.csp.edu,2289.0,44.9502,-93.154971,0.5543,4,2,18,5,12,0,0,0.0061,,"[""7e30edf6ace00ddf13dd8e09947db500""]"
3079,210739,DeSales University,Center Valley,PA,18034-9568,www.desales.edu,2291.0,40.540137,-75.376549,0.7761,4,2,18,8,10,0,0,0.0013,,"[""19ba19a676c868832ce6f5857d6009b9"", ""4a9b0285e952687b405986f1951007f7""]"
1044,147013,McKendree University,Lebanon,IL,62254-1291,www.mckendree.edu,2292.0,38.609431,-89.814486,0.635,4,2,18,9,10,0,0,0.0092,,"[""189cfaa20f0eb5e43d34b1972b9270ed"", ""19ba19a676c868832ce6f5857d6009b9"", ""3db77b6e93bd15601dd8750b9eaa6add"", ""5c97aa2bdef5e8752104ee6c48fe0853""]"
3674,228149,St. Mary's University,San Antonio,TX,78228,www.stmarytx.edu/,2292.0,29.451793,-98.564307,0.552,4,2,18,13,14,0,0,0.0039,,[]
1892,175078,Southwest Minnesota State University,Marshall,MN,56258-5468,www.smsu.edu,2300.0,44.455023,-95.75983000000001,0.6403,4,1,19,13,13,0,0,0.0039,,"[""e834ab3323064b2a18f47bb73c0086c4""]"
866,139764,Georgia Southwestern State University,Americus,GA,31709-4693,https://gsw.edu/,2301.0,32.058198,-84.21775500000001,0.7164,4,1,20,9,10,0,0,0.0022,,"[""65e2b5937d3213af618235db3d0d0862""]"
2918,206048,Tiffin University,Tiffin,OH,44883,www.tiffin.edu,2305.0,41.119193,-83.18355,0.9314,4,2,18,7,10,0,0,0.0009,,"[""19ba19a676c868832ce6f5857d6009b9"", ""5c97aa2bdef5e8752104ee6c48fe0853""]"
3820,232706,Marymount University,Arlington,VA,22207-4299,www.marymount.edu,2305.0,38.905552,-77.128799,0.6848,4,2,18,13,10,0,0,0.0043,,"[""c82ba38461590c1a2192a4ade984b598""]"
1794,172334,Spring Arbor University,Spring Arbor,MI,49283-9799,www.arbor.edu,2310.0,42.206233000000005,-84.551918,0.6889,4,2,18,9,10,0,0,0.0048,,"[""19ba19a676c868832ce6f5857d6009b9"", ""7e30edf6ace00ddf13dd8e09947db500"", ""93c595202370658320bb120f7aa9fc46""]"
3946,237066,Whitworth University,Spokane,WA,99251,www.whitworth.edu,2320.0,47.753699,-117.41807800000001,0.6242,4,2,19,14,11,0,0,0.0069,,"[""14a349f7dd1b8f352444141375d3a0df"", ""3c9e602a35d1b2bbc21d767797a7e4f2"", ""79916304538ad0e216c950e6528050ed""]"
3210,214175,Muhlenberg College,Allentown,PA,18104,www.muhlenberg.edu,2330.0,40.597362,-75.508954,0.4837,3,2,21,14,11,0,0,0.0009,,"[""19ba19a676c868832ce6f5857d6009b9"", ""4a9b0285e952687b405986f1951007f7""]"
1599,165334,Clark University,Worcester,MA,01610-1477,www.clarku.edu,2331.0,42.251064,-71.823537,0.5507,4,2,16,14,14,0,0,0.0017,,"[""c9123ff8973d332a07ca807f63ed6551""]"
323,114813,Fresno Pacific University,Fresno,CA,93702-4709,www.fresno.edu,2342.0,36.725279,-119.731953,0.6313,4,2,19,13,10,0,0,0.0068,,"[""db8cf5dc7ec07dcbc77263d42d16750e""]"
3205,214069,Misericordia University,Dallas,PA,18612-1098,www.misericordia.edu,2342.0,41.344765,-75.971016,0.7147,4,2,19,9,10,0,0,0.0017,,"[""19ba19a676c868832ce6f5857d6009b9""]"
1692,168218,Wellesley College,Wellesley,MA,02481-8203,www.wellesley.edu,2344.0,42.293765,-71.30796600000001,0.2985,3,2,21,14,11,0,0,0.0009,,"[""a77db6a813b8e6f32265756291b9302a"", ""ed1ad3408d7b10f52761a4fb57695ad4""]"
1474,160904,Xavier University of Louisiana,New Orleans,LA,70125-1098,www.xula.edu,2344.0,29.964161999999998,-90.10730699999999,0.6575,4,2,21,12,10,0,0,0.0013,,"[""3db77b6e93bd15601dd8750b9eaa6add""]"
2493,195216,St Lawrence University,Canton,NY,13617,www.stlawu.edu,2347.0,44.589878999999996,-75.161343,0.4617,4,2,21,14,11,0,0,0.003,,"[""19ba19a676c868832ce6f5857d6009b9"", ""2aeccb0d993843dcf7f74df84332077f""]"
3478,220516,King University,Bristol,TN,37620-2699,www.king.edu,2357.0,36.585899,-82.156532,0.4401,4,2,19,13,10,0,0,0.0013,,"[""7639ca3ea97bd7b15f7b7ebb3d20b2ea""]"
3212,214272,Neumann University,Aston,PA,19014-1298,www.neumann.edu,2358.0,39.874944,-75.437928,0.9081,4,2,19,11,10,0,0,0.0013,,"[""4a9b0285e952687b405986f1951007f7""]"
3329,216931,Wilkes University,Wilkes-Barre,PA,18766,www.wilkes.edu,2358.0,41.243204,-75.88833000000001,0.8173,4,2,18,13,13,0,0,0.0038,,"[""19ba19a676c868832ce6f5857d6009b9""]"
1832,173647,Gustavus Adolphus College,Saint Peter,MN,56082-1498,WWW.GUSTAVUS.EDU,2369.0,44.324968,-93.971928,0.6706,3,2,21,14,11,0,0,0.0008,,"[""e834ab3323064b2a18f47bb73c0086c4""]"
1790,172264,Siena Heights University,Adrian,MI,49221,www.sienaheights.edu,2378.0,41.905952,-84.01514399999999,0.7749,4,2,19,5,10,0,0,0.0055,,"[""19ba19a676c868832ce6f5857d6009b9"", ""5c97aa2bdef5e8752104ee6c48fe0853"", ""93c595202370658320bb120f7aa9fc46""]"
3121,212009,Dickinson College,Carlisle,PA,17013-2896,www.dickinson.edu,2381.0,40.202796,-77.197854,0.4711,3,2,21,14,11,0,0,0.0008,,"[""19ba19a676c868832ce6f5857d6009b9"", ""cfaa9067fdb1a8acbd533c38a5dce783"", ""f63ea15571b3debc934aafac25267799""]"
1688,167996,Stonehill College,Easton,MA,02357-6110,www.stonehill.edu,2387.0,42.061448,-71.078123,0.7517,3,2,21,14,11,0,0,0.0004,,"[""a77db6a813b8e6f32265756291b9302a"", ""ed1ad3408d7b10f52761a4fb57695ad4""]"
2033,179326,Southwest Baptist University,Bolivar,MO,65613-2596,www.sbuniv.edu,2394.0,37.601603000000004,-93.410451,0.9047,4,2,18,9,10,0,0,0.0092,,"[""189cfaa20f0eb5e43d34b1972b9270ed""]"
3398,218733,South Carolina State University,Orangeburg,SC,29117-0001,www.scsu.edu,2410.0,33.497439,-80.851185,0.9489,4,1,17,10,11,0,0,0.0017,,"[""7639ca3ea97bd7b15f7b7ebb3d20b2ea""]"
2560,197133,Vassar College,Poughkeepsie,NY,12604,www.vassar.edu,2414.0,41.685105,-73.894345,0.2573,4,2,21,14,11,0,0,0.0004,,"[""061864fdd6d72b417a8628ce465dec92"", ""4a9b0285e952687b405986f1951007f7""]"
2515,196033,SUNY College of Agriculture and Technology at Cobleskill,Cobleskill,NY,12043,www.cobleskill.edu/,2420.0,42.67257,-74.49824699999999,0.7335,3,1,23,11,11,0,0,0.0033,,[]
2228,186432,Saint Peter's University,Jersey City,NJ,07306-5997,www.saintpeters.edu,2424.0,40.727105,-74.071541,0.6731,4,2,18,10,10,0,0,0.0054,,"[""4a9b0285e952687b405986f1951007f7""]"
1813,173045,Augsburg College,Minneapolis,MN,55454,www.augsburg.edu,2430.0,44.965635999999996,-93.24141800000001,0.5918,4,2,18,9,10,0,0,0.0144,,"[""7e30edf6ace00ddf13dd8e09947db500""]"
1910,175616,Delta State University,Cleveland,MS,38733,www.deltastate.edu,2440.0,33.747586,-90.73544,0.8698,4,1,18,11,9,0,0,0.0012,,"[""3db77b6e93bd15601dd8750b9eaa6add"", ""70a60c93a29885e123c5e9949090f138"", ""9cfa50165033586c4e2b7e353fbd1318""]"
3151,212674,Gettysburg College,Gettysburg,PA,17325,WWW.GETTYSBURG.EDU,2442.0,39.836090999999996,-77.23498199999999,0.3977,3,2,21,14,11,0,0,0.0008,,"[""19ba19a676c868832ce6f5857d6009b9""]"
1438,159416,Louisiana State University-Shreveport,Shreveport,LA,71115-2399,www.lsus.edu/,2442.0,32.428768,-93.703762,0.7555,4,1,19,7,9,0,0,0.0061,,"[""189cfaa20f0eb5e43d34b1972b9270ed"", ""3db77b6e93bd15601dd8750b9eaa6add"", ""889a46697fcb74fe7762130797f11df5""]"
1113,149781,Wheaton College,Wheaton,IL,60187-5593,www.wheaton.edu,2447.0,41.870943,-88.09680999999999,0.7052,4,2,21,14,11,0,0,0.0004,,"[""5c97aa2bdef5e8752104ee6c48fe0853"", ""93c595202370658320bb120f7aa9fc46""]"
940,143084,Augustana College,Rock Island,IL,61201-2296,www.augustana.edu,2454.0,41.500326,-90.552402,0.4934,3,2,21,14,11,0,0,0.0004,,"[""0491f976864a170c692ef2a166034c97"", ""5c97aa2bdef5e8752104ee6c48fe0853""]"
1258,154235,Saint Ambrose University,Davenport,IA,52803-2898,www.sau.edu,2461.0,41.540081,-90.58098000000001,0.7298,4,2,18,13,14,0,0,0.0008,,"[""0491f976864a170c692ef2a166034c97"", ""5c97aa2bdef5e8752104ee6c48fe0853""]"
3355,217721,Benedict College,Columbia,SC,29204-1086,www.benedict.edu,2465.0,34.011285,-81.021412,,3,2,22,10,11,0,0,0.0032,,"[""7639ca3ea97bd7b15f7b7ebb3d20b2ea""]"
1683,167835,Smith College,Northampton,MA,01063,www.smith.edu,2471.0,42.317933000000004,-72.638094,0.3789,4,2,21,14,11,0,0,0.0016,,"[""92e0d6065757df7879cfa315280b82b6"", ""c9123ff8973d332a07ca807f63ed6551""]"
3922,236328,University of Puget Sound,Tacoma,WA,98416,www.pugetsound.edu,2476.0,47.263651,-122.47971399999999,0.7922,4,2,21,14,11,0,0,0.0012,,"[""38ae5a12f61f3662f71b5e4f46f7346f""]"
57,102377,Tuskegee University,Tuskegee,AL,36088-1920,www.tuskegee.edu,2486.0,32.431021,-85.71031500000001,0.5296,4,2,22,12,14,0,0,0.0,,"[""3db77b6e93bd15601dd8750b9eaa6add"", ""65e2b5937d3213af618235db3d0d0862""]"
1435,159382,Louisiana State University-Alexandria,Alexandria,LA,71302-9121,www.lsua.edu,2488.0,31.178615999999998,-92.41440899999999,0.6779,3,1,21,9,9,0,0,0.0414,,"[""020de0a8383a5f2d1f622d5c06c6aa75"", ""3db77b6e93bd15601dd8750b9eaa6add""]"
3201,213987,Mercyhurst University,Erie,PA,16546,www.mercyhurst.edu,2490.0,42.103991,-80.05556800000001,0.8039,4,2,20,12,11,0,0,0.0088,,"[""19ba19a676c868832ce6f5857d6009b9"", ""f63ea15571b3debc934aafac25267799""]"
3091,211088,Arcadia University,Glenside,PA,19038-3295,https://www.arcadia.edu,2501.0,40.091941,-75.165205,0.5926,4,2,18,14,14,0,0,0.0008,,"[""4a9b0285e952687b405986f1951007f7""]"
3176,213385,Lafayette College,Easton,PA,18042-1768,https://www.lafayette.edu/,2505.0,40.700511999999996,-75.209058,0.3025,3,2,21,14,11,0,0,0.0004,,"[""19ba19a676c868832ce6f5857d6009b9"", ""4a9b0285e952687b405986f1951007f7""]"
3769,230959,Middlebury College,Middlebury,VT,05753,www.middlebury.edu,2516.0,44.009116999999996,-73.176068,0.1744,4,2,21,14,11,0,0,0.002,,"[""061864fdd6d72b417a8628ce465dec92"", ""2df165e09bd2d7c035936c3e6978724a"", ""d9508a2edf4f8abe6f02d454c3768838""]"
919,141981,University of Hawaii-West Oahu,Kapolei,HI,96707-4507,www.uhwo.hawaii.edu,2517.0,21.354897,-158.061825,0.7016,3,1,22,5,9,0,0,0.0024,,"[""99b4654bbf6a3cf8e50d2fe2bfaf1bec""]"
717,134079,Florida Southern College,Lakeland,FL,33801-5698,www.flsouthern.edu,2519.0,28.031507,-81.945791,0.4533,4,2,22,14,11,0,0,0.0056,,"[""17f000b591d77a210adc52a0895ae256"", ""816cc45dc56caf067c6f50b383fca5d0""]"
135,106412,University of Arkansas at Pine Bluff,Pine Bluff,AR,71601,www.uapb.edu,2526.0,34.242191999999996,-92.021263,0.4616,4,1,22,11,10,0,0,0.002,,"[""189cfaa20f0eb5e43d34b1972b9270ed"", ""3db77b6e93bd15601dd8750b9eaa6add"", ""70a60c93a29885e123c5e9949090f138""]"
2296,189097,Barnard College,New York,NY,10027-6598,www.barnard.edu,2536.0,40.809137,-73.964027,0.1962,3,2,21,14,11,0,0,0.0012,,"[""4a9b0285e952687b405986f1951007f7""]"
3521,221661,Southern Adventist University,Collegedale,TN,37315-0370,www.southern.edu,2537.0,35.049136,-85.050878,,4,2,22,13,11,0,0,0.0039,,"[""3db77b6e93bd15601dd8750b9eaa6add"", ""7639ca3ea97bd7b15f7b7ebb3d20b2ea"", ""c8210c4dc0690a308150ecbd7ad039c2""]"
2315,189705,Canisius College,Buffalo,NY,14208-1098,WWW.Canisius.edu,2552.0,42.925319,-78.851794,0.8698,4,2,18,12,13,0,0,0.002,,"[""19ba19a676c868832ce6f5857d6009b9""]"
37,101709,University of Montevallo,Montevallo,AL,35115-6000,www.montevallo.edu,2553.0,33.10625,-86.865099,0.7001,4,1,19,13,10,0,0,0.0051,,"[""3db77b6e93bd15601dd8750b9eaa6add"", ""65e2b5937d3213af618235db3d0d0862""]"
3735,230047,Brigham Young University-Hawaii,Laie,HI,96762-1294,www.byuh.edu/,2557.0,21.641172,-157.92535800000002,0.3562,3,2,22,15,11,0,0,0.0051,,"[""99b4654bbf6a3cf8e50d2fe2bfaf1bec""]"
2721,200253,Minot State University,Minot,ND,58707,www.minotstateu.edu,2565.0,48.246877000000005,-101.300624,0.5679,4,1,19,13,9,0,0,0.0152,,"[""7e30edf6ace00ddf13dd8e09947db500"", ""821cf91c2f03ff2aaf63c73b7862d7ef"", ""c332e4ccca1ab69f36d65f7bf0eef708""]"
3022,208822,George Fox University,Newberg,OR,97132,www.georgefox.edu,2567.0,45.30399,-122.96839399999999,0.7661,4,2,18,13,14,0,0,0.0066,,"[""e31c3d18dae78ec0e51a1a3a5eca79e8""]"
1445,159656,Loyola University New Orleans,New Orleans,LA,70118-6143,www.loyno.edu,2572.0,29.936140999999996,-90.120417,0.9031,4,2,18,14,13,0,0,0.0062,,"[""3db77b6e93bd15601dd8750b9eaa6add""]"
2491,195173,St Francis College,Brooklyn Heights,NY,11201-9902,www.sfc.edu,2578.0,40.693076,-73.991653,0.7878,4,2,22,11,9,0,0,0.005,,"[""2db0527a5564fbd1b0553ab28ce6379e"", ""4a9b0285e952687b405986f1951007f7""]"
1345,156286,Bellarmine University,Louisville,KY,40205-0671,www.bellarmine.edu,2584.0,38.219138,-85.7049,0.8394,4,2,18,14,13,0,0,0.0035,,"[""189cfaa20f0eb5e43d34b1972b9270ed"", ""19ba19a676c868832ce6f5857d6009b9"", ""1d5e456931db024b1c874a16dce0ce1b"", ""7639ca3ea97bd7b15f7b7ebb3d20b2ea""]"
1730,169716,University of Detroit Mercy,Detroit,MI,48221-3038,www.udmercy.edu,2586.0,42.417168,-83.138369,0.7292,4,2,18,9,13,0,0,0.0031,,"[""19ba19a676c868832ce6f5857d6009b9"", ""536f31a6e26dfcc840b99c4f49f10829"", ""5c97aa2bdef5e8752104ee6c48fe0853"", ""7e30edf6ace00ddf13dd8e09947db500"", ""93c595202370658320bb120f7aa9fc46""]"
770,136330,Palm Beach Atlantic University,West Palm Beach,FL,33401,www.pba.edu,2587.0,26.704628999999997,-80.049758,0.9289,4,2,19,13,13,0,0,0.0046,,"[""17f000b591d77a210adc52a0895ae256""]"
3380,218229,Lander University,Greenwood,SC,29649-2099,www.lander.edu,2606.0,34.201143,-82.166351,0.6197,4,1,22,11,10,0,0,0.0023,,"[""3db77b6e93bd15601dd8750b9eaa6add"", ""7639ca3ea97bd7b15f7b7ebb3d20b2ea""]"
3362,217864,Citadel Military College of South Carolina,Charleston,SC,29409,www.citadel.edu,2616.0,32.796975,-79.961399,0.7652,4,1,18,12,11,0,0,0.0084,,[]
2501,195526,Skidmore College,Saratoga Springs,NY,12866,www.skidmore.edu/,2619.0,43.092696000000004,-73.785108,0.365,4,2,21,14,11,0,0,0.0,,"[""061864fdd6d72b417a8628ce465dec92""]"
2494,195234,The College of Saint Rose,Albany,NY,12203-1490,www.strose.edu,2626.0,42.664664,-73.78611,0.8176,4,2,18,13,13,0,0,0.0023,,"[""061864fdd6d72b417a8628ce465dec92""]"
2618,198561,Gardner-Webb University,Boiling Springs,NC,28017-0997,www.gardner-webb.edu,2626.0,35.24732,-81.668141,0.5269,4,2,18,9,13,0,0,0.0076,,"[""7639ca3ea97bd7b15f7b7ebb3d20b2ea"", ""a4f57169cee0acb6a67bd4bc6c10ecf1""]"
3352,217633,Anderson University,Anderson,SC,29621-4035,www.andersonuniversity.edu,2632.0,34.515506,-82.64020500000001,0.5494,4,2,22,12,11,0,0,0.003,,"[""3db77b6e93bd15601dd8750b9eaa6add"", ""7639ca3ea97bd7b15f7b7ebb3d20b2ea""]"
1520,162283,Coppin State University,Baltimore,MD,21216-3698,www.coppin.edu,2633.0,39.310786,-76.658547,0.3719,4,1,20,7,10,0,0,0.0,,"[""343052679408b2c8ca3c9e5bbfc496d5""]"
1058,147660,North Central College,Naperville,IL,60540,northcentralcollege.edu,2633.0,41.775304,-88.143649,0.5716,4,2,19,11,11,0,0,0.0023,,"[""5c97aa2bdef5e8752104ee6c48fe0853"", ""93c595202370658320bb120f7aa9fc46""]"
1903,175421,Belhaven University,Jackson,MS,39202,www.belhaven.edu,2653.0,32.318415,-90.169228,0.508,4,2,19,5,10,0,0,0.0053,,"[""020de0a8383a5f2d1f622d5c06c6aa75"", ""3db77b6e93bd15601dd8750b9eaa6add"", ""9cfa50165033586c4e2b7e353fbd1318""]"
2760,201548,Capital University,Columbus,OH,43209-2394,www.capital.edu,2654.0,39.954875,-82.937867,0.7193,4,2,19,12,14,0,0,0.0015,,"[""19ba19a676c868832ce6f5857d6009b9"", ""5c97aa2bdef5e8752104ee6c48fe0853""]"
3149,212601,Gannon University,Erie,PA,16541-0001,www.gannon.edu,2661.0,42.126111,-80.086258,0.7577,4,2,18,12,13,0,0,0.0023,,"[""19ba19a676c868832ce6f5857d6009b9"", ""7e30edf6ace00ddf13dd8e09947db500"", ""f63ea15571b3debc934aafac25267799""]"
4023,239318,Milwaukee School of Engineering,Milwaukee,WI,53202-3109,www.msoe.edu,2668.0,43.045364,-87.907691,0.6496,4,2,20,15,10,0,0,0.003,,"[""5383948cbc0e947d9efd873b7f97617a"", ""5c97aa2bdef5e8752104ee6c48fe0853"", ""93c595202370658320bb120f7aa9fc46""]"
3430,219347,South Dakota School of Mines and Technology,Rapid City,SD,57701-3995,www.sdsmt.edu,2674.0,44.075439,-103.205753,0.8425,4,1,27,14,11,0,0,0.0198,,"[""a4bc7c5d2586d2d0fc473ba771ae3b98"", ""e834ab3323064b2a18f47bb73c0086c4""]"
782,136950,Rollins College,Winter Park,FL,32789-4499,www.rollins.edu,2678.0,28.591991999999998,-81.34871600000001,0.6038,4,2,18,14,11,0,0,0.003,,"[""17f000b591d77a210adc52a0895ae256""]"
1077,148335,Robert Morris University Illinois,Chicago,IL,60605,www.robertmorris.edu/,2681.0,41.876278000000006,-87.62706800000001,0.2447,4,2,19,11,9,0,0,0.0019,,"[""5c97aa2bdef5e8752104ee6c48fe0853"", ""93c595202370658320bb120f7aa9fc46""]"
704,133711,Flagler College-St Augustine,Saint Augustine,FL,32084,www.flagler.edu,2691.0,29.89335,-81.315256,0.5048,3,2,22,13,10,0,0,0.0041,,"[""17f000b591d77a210adc52a0895ae256"", ""9bcff4f77c1f83f2bfd98aa57888a03b""]"
1601,165529,Curry College,Milton,MA,02186-2395,https://www.curry.edu,2691.0,42.240615999999996,-71.114007,0.877,4,2,19,6,10,0,0,0.0019,,"[""a77db6a813b8e6f32265756291b9302a"", ""ed1ad3408d7b10f52761a4fb57695ad4""]"
1624,166124,College of the Holy Cross,Worcester,MA,01610-2395,www.holycross.edu,2698.0,42.238942,-71.808627,0.3703,3,2,21,14,11,0,0,0.0019,,"[""c9123ff8973d332a07ca807f63ed6551""]"
1991,178059,Maryville University of Saint Louis,Saint Louis,MO,63141-7299,www.maryville.edu,2703.0,38.645474,-90.505096,0.7227,4,2,17,9,12,0,0,0.003,,"[""189cfaa20f0eb5e43d34b1972b9270ed"", ""3db77b6e93bd15601dd8750b9eaa6add""]"
3375,218070,Furman University,Greenville,SC,29613-6162,www.furman.edu,2710.0,34.920784999999995,-82.441473,0.6354,4,2,21,14,11,0,0,0.0015,,"[""7639ca3ea97bd7b15f7b7ebb3d20b2ea""]"
1759,170806,Madonna University,Livonia,MI,48150-1176,www.madonna.edu,2712.0,42.386463,-83.407306,0.5988,4,2,19,5,9,0,0,0.0007,,"[""19ba19a676c868832ce6f5857d6009b9"", ""536f31a6e26dfcc840b99c4f49f10829"", ""7e30edf6ace00ddf13dd8e09947db500"", ""93c595202370658320bb120f7aa9fc46""]"
3202,213996,Messiah College,Mechanicsburg,PA,17055,www.messiah.edu,2723.0,40.15867,-76.98849200000001,0.7898,4,2,22,14,11,0,0,0.0007,,"[""19ba19a676c868832ce6f5857d6009b9"", ""cfaa9067fdb1a8acbd533c38a5dce783"", ""f63ea15571b3debc934aafac25267799""]"
3252,215099,Philadelphia University,Philadelphia,PA,19144-5497,www.philau.edu,2726.0,40.021715,-75.19368399999999,0.642,4,2,18,13,14,0,0,0.0018,,"[""4a9b0285e952687b405986f1951007f7""]"
1694,168254,Western New England University,Springfield,MA,01119-2684,www1.wne.edu,2726.0,42.115837,-72.518789,0.8094,4,2,19,12,14,0,0,0.0033,,"[""92e0d6065757df7879cfa315280b82b6"", ""c9123ff8973d332a07ca807f63ed6551"", ""ddd44330b3abfeabf49632f0e4cb0e09""]"
3788,231651,Regent University,Virginia Beach,VA,23464,www.regent.edu,2736.0,36.800929,-76.192844,0.8411,4,2,17,9,12,0,0,0.0066,,"[""4ec0490ae6d3b2a43617ba9de53c4eb3""]"
2576,197708,Yeshiva University,New York,NY,10033-3299,www.yu.edu,2740.0,40.8508,-73.92854100000001,0.8049,4,2,15,14,14,0,0,0.0004,,"[""4a9b0285e952687b405986f1951007f7""]"
837,138947,Clark Atlanta University,Atlanta,GA,30314-4391,www.cau.edu,2741.0,33.748771999999995,-84.412818,0.512,4,2,17,10,14,0,0,0.0011,,"[""3db77b6e93bd15601dd8750b9eaa6add"", ""65e2b5937d3213af618235db3d0d0862""]"
2162,183804,Beth Medrash Govoha,Lakewood,NJ,08701-2754,,2747.0,40.095461,-74.220777,,4,2,24,11,12,0,0,0.0,,"[""4a9b0285e952687b405986f1951007f7""]"
985,144962,Elmhurst College,Elmhurst,IL,60126-3096,www.elmhurst.edu,2752.0,41.899215000000005,-87.946096,0.5478,4,2,19,13,10,0,0,0.0004,,"[""5c97aa2bdef5e8752104ee6c48fe0853"", ""93c595202370658320bb120f7aa9fc46""]"
1886,174899,The College of Saint Scholastica,Duluth,MN,55811-4199,www.css.edu,2757.0,46.81544,-92.105738,0.6147,4,2,19,15,14,0,0,0.0174,,"[""7e30edf6ace00ddf13dd8e09947db500""]"
442,121309,Point Loma Nazarene University,San Diego,CA,92106-2899,www.pointloma.edu,2763.0,32.713295,-117.251204,0.7134,4,2,18,15,11,0,0,0.0054,,"[""f29d9e2484be90ae59cd10ac88712cd1""]"
3019,208646,Eastern Oregon University,La Grande,OR,97850,www.eou.edu,2765.0,45.320392,-118.09383999999999,0.9728,4,1,20,7,9,0,0,0.0231,,"[""b029669b0ed1b69cffbc9fb52aeb6a4c""]"
406,119173,Mount Saint Mary's University,Los Angeles,CA,90049-1599,www.msmu.edu,2767.0,34.082112,-118.480471,0.7653,4,2,20,7,9,0,0,0.0033,,"[""acf3b3f37dbec4c43881eac7593ba2d2"", ""c50ae997512aa9e22bf7c534e8336afd""]"
2408,192323,Le Moyne College,Syracuse,NY,13214-1301,www.lemoyne.edu,2769.0,43.047315999999995,-76.088449,0.6176,4,2,18,13,11,0,0,0.0033,,"[""19ba19a676c868832ce6f5857d6009b9""]"
1149,151333,Indiana University-Kokomo,Kokomo,IN,46904-9003,www.iuk.edu,2778.0,40.459913,-86.13209599999999,0.7132,4,1,22,7,9,0,0,0.0054,,"[""19ba19a676c868832ce6f5857d6009b9"", ""5c97aa2bdef5e8752104ee6c48fe0853"", ""93c595202370658320bb120f7aa9fc46""]"
2506,195720,Saint John Fisher College,Rochester,NY,14618-3597,www.sjfc.edu,2782.0,43.117064,-77.516979,0.6236,4,2,17,15,14,0,0,0.0018,,"[""19ba19a676c868832ce6f5857d6009b9""]"
2109,181783,Wayne State College,Wayne,NE,68787,https://www.wsc.edu/,2783.0,42.241611999999996,-97.014241,,4,1,18,13,13,0,0,0.009000000000000001,,"[""dfd83e5a9d56cb46021241b2fc7985d1""]"
224,110413,California Lutheran University,Thousand Oaks,CA,91360-2787,www.callutheran.edu/,2802.0,34.225551,-118.87946699999999,0.6156,4,2,18,15,13,0,0,0.0103,,"[""51684727e1284b6fcaea58470a6879ce"", ""c50ae997512aa9e22bf7c534e8336afd""]"
3771,230995,Norwich University,Northfield,VT,05663-1035,www.norwich.edu,2805.0,44.139402000000004,-72.660129,0.5704,4,2,18,13,14,0,0,0.0046,,"[""2df165e09bd2d7c035936c3e6978724a"", ""d9508a2edf4f8abe6f02d454c3768838""]"
3920,236230,Pacific Lutheran University,Tacoma,WA,98447-0003,www.plu.edu,2809.0,47.145494,-122.44537199999999,0.7555,4,2,19,13,13,0,0,0.0093,,"[""38ae5a12f61f3662f71b5e4f46f7346f""]"
651,130697,Wesleyan University,Middletown,CT,06459,www.wesleyan.edu,2819.0,41.556779999999996,-72.656755,0.222,4,2,21,14,14,0,0,0.0004,,"[""3a31a06b87d6e805e3737171270b2acb"", ""66eed3bcd0ede65a596ff517472c744b""]"
2329,190099,Colgate University,Hamilton,NY,13346-1398,www.colgate.edu,2834.0,42.8188,-75.535,0.2736,4,2,21,14,11,0,0,0.0014,,"[""16afe121bade8b41bd8b9603cbece35c"", ""19ba19a676c868832ce6f5857d6009b9""]"
939,143048,School of the Art Institute of Chicago,Chicago,IL,60603,www.saic.edu,2843.0,41.879646,-87.621411,0.6648,4,2,30,13,12,0,0,0.0039,,"[""5c97aa2bdef5e8752104ee6c48fe0853"", ""93c595202370658320bb120f7aa9fc46""]"
3414,219046,Black Hills State University,Spearfish,SD,57799-9500,www.bhsu.edu,2849.0,44.495536,-103.870009,0.8404,4,1,20,7,13,0,0,0.0351,,"[""a4bc7c5d2586d2d0fc473ba771ae3b98"", ""e834ab3323064b2a18f47bb73c0086c4"", ""fba6a0280e049c6496ffe0106043188a""]"
1088,148654,University of Illinois at Springfield,Springfield,IL,62703-5407,www.uis.edu,2857.0,39.729862,-89.614917,0.6312,4,1,18,9,13,0,0,0.0021,,"[""19ba19a676c868832ce6f5857d6009b9"", ""5c97aa2bdef5e8752104ee6c48fe0853""]"
185,107983,Southern Arkansas University Main Campus,Magnolia,AR,71753,https://www.saumag.edu,2859.0,33.291195,-93.235087,0.6748,4,1,19,11,11,0,0,0.0059,,"[""189cfaa20f0eb5e43d34b1972b9270ed"", ""3db77b6e93bd15601dd8750b9eaa6add"", ""889a46697fcb74fe7762130797f11df5""]"
4004,238476,Carthage College,Kenosha,WI,53140-1994,www.carthage.edu,2862.0,42.622893,-87.820706,0.7024,4,2,21,12,11,0,0,0.0031,,"[""5c97aa2bdef5e8752104ee6c48fe0853"", ""93c595202370658320bb120f7aa9fc46""]"
1818,173160,Bethel University,Saint Paul,MN,55112,https://www.bethel.edu,2875.0,45.057091,-93.159295,0.9491,4,2,18,15,14,0,0,0.0014,,"[""7e30edf6ace00ddf13dd8e09947db500""]"
2799,202763,The University of Findlay,Findlay,OH,45840-3653,www.findlay.edu/,2882.0,41.05441,-83.652067,0.7589,4,2,18,12,13,0,0,0.0003,,"[""19ba19a676c868832ce6f5857d6009b9"", ""5c97aa2bdef5e8752104ee6c48fe0853""]"
607,128744,University of Bridgeport,Bridgeport,CT,06604-5620,www.bridgeport.edu,2897.0,41.165587,-73.189352,0.5177,4,2,18,7,13,0,0,0.0079,,"[""3c40530ef672a9777b0b7ca19ddaa75b""]"
1926,176053,Mississippi College,Clinton,MS,39058,www.mc.edu,2898.0,32.334565000000005,-90.33045200000001,0.8248,4,2,18,13,13,0,0,0.0055,,"[""020de0a8383a5f2d1f622d5c06c6aa75"", ""3db77b6e93bd15601dd8750b9eaa6add"", ""9cfa50165033586c4e2b7e353fbd1318""]"
1778,171492,Northwood University,Midland,MI,48640-2398,www.northwood.edu,2904.0,43.628996,-84.276276,0.6939,4,2,29,9,10,0,0,0.0028,,"[""19ba19a676c868832ce6f5857d6009b9"", ""536f31a6e26dfcc840b99c4f49f10829"", ""7e30edf6ace00ddf13dd8e09947db500""]"
7,100812,Athens State University,Athens,AL,35611,www.athens.edu,2904.0,34.805625,-86.96514,,3,1,22,5,9,0,0,0.0152,,"[""3db77b6e93bd15601dd8750b9eaa6add"", ""7639ca3ea97bd7b15f7b7ebb3d20b2ea"", ""c8210c4dc0690a308150ecbd7ad039c2""]"
1902,175342,Alcorn State University,Alcorn State,MS,39096-7500,www.alcorn.edu,2911.0,31.877215999999997,-91.142854,0.8056,4,1,19,10,14,0,0,0.0003,,"[""020de0a8383a5f2d1f622d5c06c6aa75"", ""3db77b6e93bd15601dd8750b9eaa6add"", ""9cfa50165033586c4e2b7e353fbd1318""]"
2865,204501,Oberlin College,Oberlin,OH,44074,www.oberlin.edu,2912.0,41.294740000000004,-82.221786,0.2878,4,2,21,14,11,0,0,0.0,,"[""19ba19a676c868832ce6f5857d6009b9"", ""93c595202370658320bb120f7aa9fc46""]"
500,123554,Saint Mary's College of California,Moraga,CA,94575,www.stmarys-ca.edu,2916.0,37.83997,-122.10679499999999,0.9754,4,2,18,15,14,0,0,0.0034,,"[""3bb96657bc7a59da08c353224c835e36"", ""a90d3bfb7b242b82fe94437be1101092""]"
1009,145725,Illinois Institute of Technology,Chicago,IL,60616,www.iit.edu,2923.0,41.833801,-87.628346,0.5271,4,2,16,15,14,0,0,0.0034,,"[""5c97aa2bdef5e8752104ee6c48fe0853"", ""93c595202370658320bb120f7aa9fc46""]"
4003,238458,Carroll University,Waukesha,WI,53186,www.carrollu.edu,2946.0,43.004647,-88.227962,0.9397,4,2,20,12,14,0,0,0.0014,,"[""5c97aa2bdef5e8752104ee6c48fe0853"", ""93c595202370658320bb120f7aa9fc46""]"
827,138716,Albany State University,Albany,GA,31705,https://www.asurams.edu/,2949.0,31.571395000000003,-84.14305999999999,0.6371,4,1,19,11,13,0,0,0.0017,,"[""65e2b5937d3213af618235db3d0d0862""]"
3604,225502,University of Houston-Victoria,Victoria,TX,77901,www.uhv.edu,2954.0,28.816438,-96.978193,0.5317,4,1,18,5,10,0,0,0.003,,[]
3381,218238,Limestone College,Gaffney,SC,29340-3799,www.limestone.edu,2955.0,35.052919,-81.648033,0.4632,4,2,22,9,10,0,0,0.0041,,"[""7639ca3ea97bd7b15f7b7ebb3d20b2ea"", ""a4f57169cee0acb6a67bd4bc6c10ecf1""]"
2234,186867,Stevens Institute of Technology,Hoboken,NJ,07030-5991,www.stevens.edu,2956.0,40.744776,-74.025334,0.4356,4,2,16,14,14,0,0,0.001,,"[""4a9b0285e952687b405986f1951007f7""]"
737,134945,Jacksonville University,Jacksonville,FL,32211-3394,www.jacksonville.edu,2964.0,30.350348999999998,-81.60706,0.5351,4,2,19,9,10,0,0,0.004,,"[""9bcff4f77c1f83f2bfd98aa57888a03b""]"
1087,148627,Saint Xavier University,Chicago,IL,60655,WWW.SXU.EDU,2966.0,41.707763,-87.71350699999999,0.7467,4,2,18,13,13,0,0,0.0027,,"[""5c97aa2bdef5e8752104ee6c48fe0853"", ""93c595202370658320bb120f7aa9fc46""]"
2446,193645,The College of New Rochelle,New Rochelle,NY,10805-2339,www.cnr.edu,2967.0,40.899427,-73.781104,0.7339,4,2,18,11,13,0,0,0.002,,"[""4a9b0285e952687b405986f1951007f7""]"
1609,165699,Endicott College,Beverly,MA,01915,www.endicott.edu,2970.0,42.554177,-70.84072900000001,0.7278,4,2,19,12,14,0,0,0.0017,,[]
1884,174844,St Olaf College,Northfield,MN,55057-1098,wp.stolaf.edu,3005.0,44.462884,-93.183633,0.3597,3,2,21,14,14,0,0,0.0013,,"[""e834ab3323064b2a18f47bb73c0086c4""]"
928,142328,Lewis-Clark State College,Lewiston,ID,83501-2698,www.lcsc.edu,3013.0,46.410034,-117.026371,0.9888,3,1,22,7,12,0,0,0.0299,,"[""69fdd0e435f4f80f668621817e0a3a06""]"
2395,191931,Iona College,New Rochelle,NY,10801-1890,www.iona.edu,3018.0,40.927107,-73.785635,0.9121,4,2,18,12,13,0,0,0.0013,,"[""4a9b0285e952687b405986f1951007f7""]"
3458,219976,Lipscomb University,Nashville,TN,37204-3951,www.lipscomb.edu,3024.0,36.104690000000005,-86.799304,0.6077,4,2,18,15,14,0,0,0.0013,,"[""1d5e456931db024b1c874a16dce0ce1b"", ""3db77b6e93bd15601dd8750b9eaa6add"", ""7639ca3ea97bd7b15f7b7ebb3d20b2ea""]"
2558,197045,Utica College,Utica,NY,13502-4892,www.utica.edu/,3041.0,43.095183,-75.272407,0.8290000000000001,4,2,19,9,13,0,0,0.0062,,"[""19ba19a676c868832ce6f5857d6009b9""]"
797,137546,Stetson University,DeLand,FL,32723,www.stetson.edu,3042.0,29.036295000000003,-81.301604,0.6347,4,2,18,14,14,0,0,0.0053,,"[""17f000b591d77a210adc52a0895ae256""]"
2983,207582,Oral Roberts University,Tulsa,OK,74171,oru.edu,3054.0,36.050705,-95.954215,0.6404,4,2,20,13,14,0,0,0.0288,,"[""189cfaa20f0eb5e43d34b1972b9270ed"", ""3db77b6e93bd15601dd8750b9eaa6add"", ""889a46697fcb74fe7762130797f11df5"", ""b50f701897fab01460714ac7f3ca8729""]"
3390,218645,University of South Carolina-Aiken,Aiken,SC,29801,web.usca.edu,3060.0,33.572917,-81.767901,0.5716,4,1,22,11,10,0,0,0.0046,,[]
2765,201654,Cedarville University,Cedarville,OH,45314-0601,www.cedarville.edu,3061.0,39.750338,-83.81209799999999,0.742,4,2,22,14,14,0,0,0.0042,,"[""189cfaa20f0eb5e43d34b1972b9270ed"", ""19ba19a676c868832ce6f5857d6009b9"", ""5c97aa2bdef5e8752104ee6c48fe0853""]"
2500,195474,Siena College,Loudonville,NY,12211-1462,https://www.siena.edu,3062.0,42.718586,-73.75153,0.7602,4,2,21,14,14,0,0,0.0013,,"[""061864fdd6d72b417a8628ce465dec92""]"
2817,203368,John Carroll University,University Heights,OH,44118-4581,sites.jcu.edu/,3064.0,41.488978,-81.533103,0.8202,4,2,18,14,14,0,0,0.0003,,"[""19ba19a676c868832ce6f5857d6009b9"", ""93c595202370658320bb120f7aa9fc46"", ""f63ea15571b3debc934aafac25267799""]"
1179,152266,Purdue University-North Central Campus,Westville,IN,46391-9542,www.pnw.edu/,3065.0,41.583788,-86.89523,0.484,4,1,22,7,12,0,0,0.0029,,"[""19ba19a676c868832ce6f5857d6009b9"", ""5c97aa2bdef5e8752104ee6c48fe0853"", ""93c595202370658320bb120f7aa9fc46""]"
1964,177214,Drury University,Springfield,MO,65802-3791,www.drury.edu,3082.0,37.219757,-93.28577299999999,0.8420000000000001,4,2,19,9,13,0,0,0.011000000000000001,,"[""189cfaa20f0eb5e43d34b1972b9270ed""]"
1050,147369,Moody Bible Institute,Chicago,IL,60610-3284,www.moody.edu,3084.0,41.897822,-87.633459,0.6833,4,2,24,7,13,0,0,0.001,,"[""5c97aa2bdef5e8752104ee6c48fe0853"", ""93c595202370658320bb120f7aa9fc46""]"
4129,243106,University of Puerto Rico-Aguadilla,Ramey,PR,00604-6150,www.uprag.edu,3086.0,18.498652,-67.13793000000001,0.7882,3,1,22,12,9,0,0,0.0023,,"[""c5e1bbd54f84c3f47c39e590a9eccfdd""]"
154,107071,Henderson State University,Arkadelphia,AR,71999-0001,www.hsu.edu,3096.0,34.127792,-93.060313,0.6334,4,1,19,13,13,0,0,0.0045,,"[""189cfaa20f0eb5e43d34b1972b9270ed"", ""3db77b6e93bd15601dd8750b9eaa6add"", ""889a46697fcb74fe7762130797f11df5""]"
3353,217688,Charleston Southern University,Charleston,SC,29406-9121,www.csuniv.edu,3112.0,32.981986,-80.069288,0.6021,4,2,19,13,10,0,0,0.008,,[]
907,141565,University of Hawaii at Hilo,Hilo,HI,96720-4091,www.hilo.hawaii.edu,3124.0,19.701854,-155.081329,0.7125,4,1,21,11,13,0,0,0.0064,,"[""99b4654bbf6a3cf8e50d2fe2bfaf1bec""]"
1193,152600,Valparaiso University,Valparaiso,IN,46383,www.valpo.edu,3125.0,41.463176000000004,-87.04585300000001,0.8190000000000001,4,2,18,15,14,0,0,0.0019,,"[""19ba19a676c868832ce6f5857d6009b9"", ""5c97aa2bdef5e8752104ee6c48fe0853"", ""93c595202370658320bb120f7aa9fc46""]"
2993,207847,Southeastern Oklahoma State University,Durant,OK,74701-3347,www.se.edu,3125.0,34.005114,-96.376372,0.7222,4,1,19,11,12,0,1,0.2765,,"[""189cfaa20f0eb5e43d34b1972b9270ed"", ""7c1ae6a6a15bd7db494e6ca3a0b421b4"", ""9cfa50165033586c4e2b7e353fbd1318""]"
1648,166850,Merrimack College,North Andover,MA,01845,www.merrimack.edu,3129.0,42.668352,-71.124216,0.7897,4,2,22,10,14,0,0,0.001,,"[""2df165e09bd2d7c035936c3e6978724a""]"
2457,193973,Niagara University,Niagara University,NY,14109,www.niagara.edu,3133.0,43.138222,-79.03773699999999,0.8474,4,2,18,13,14,0,0,0.0067,,"[""19ba19a676c868832ce6f5857d6009b9"", ""7e30edf6ace00ddf13dd8e09947db500""]"
3269,215442,Point Park University,Pittsburgh,PA,15222-1984,www.pointpark.edu,3140.0,40.438526,-80.001462,0.7053,4,2,18,13,13,0,0,0.0025,,"[""189cfaa20f0eb5e43d34b1972b9270ed"", ""19ba19a676c868832ce6f5857d6009b9"", ""f63ea15571b3debc934aafac25267799""]"
46,102049,Samford University,Birmingham,AL,35229-2240,www.samford.edu,3145.0,33.464578,-86.790932,0.9329999999999999,4,2,19,14,14,0,0,0.0032,,"[""3db77b6e93bd15601dd8750b9eaa6add"", ""65e2b5937d3213af618235db3d0d0862""]"
2045,179894,Webster University,Saint Louis,MO,63119-3194,www.webster.edu,3150.0,38.589269,-90.34565400000001,0.5612,4,2,18,7,13,0,0,0.0029,,"[""189cfaa20f0eb5e43d34b1972b9270ed"", ""19ba19a676c868832ce6f5857d6009b9"", ""3db77b6e93bd15601dd8750b9eaa6add"", ""5c97aa2bdef5e8752104ee6c48fe0853""]"
2651,199069,University of Mount Olive,Mount Olive,NC,28365-0919,https://www.umo.edu,3152.0,35.206314,-78.071265,0.5053,4,2,22,5,9,0,0,0.0063,,"[""836cc8d0b2c40ee685613c5623eac3d8"", ""a4f57169cee0acb6a67bd4bc6c10ecf1""]"
2325,190044,Clarkson University,Potsdam,NY,13699,www.clarkson.edu,3153.0,44.663761,-74.99994699999999,0.6806,4,2,16,14,14,0,0,0.0032,,"[""19ba19a676c868832ce6f5857d6009b9"", ""2aeccb0d993843dcf7f74df84332077f""]"
3656,227377,Texas Southmost College,Brownsville,TX,78520,www.tsc.edu,3166.0,25.893584,-97.486644,,4,1,19,-2,-2,0,0,0.0,,"[""9cad11ef06f0c9e6523baa0e377b3d06""]"
3629,226471,University of Mary Hardin-Baylor,Belton,TX,76513-2599,www.umhb.edu,3173.0,31.066798,-97.463479,0.804,4,2,20,13,14,0,0,0.0063,,[]
1154,151388,Indiana University-East,Richmond,IN,47374-1289,www.iue.edu/,3173.0,39.867098999999996,-84.88618699999999,0.6224,4,1,22,7,9,0,0,0.0035,,"[""19ba19a676c868832ce6f5857d6009b9"", ""5c97aa2bdef5e8752104ee6c48fe0853""]"
1081,148487,Roosevelt University,Chicago,IL,60605-1394,www.roosevelt.edu,3197.0,41.876055,-87.62495200000001,0.7228,4,2,18,9,12,0,0,0.0016,,"[""5c97aa2bdef5e8752104ee6c48fe0853"", ""93c595202370658320bb120f7aa9fc46""]"
3843,233374,University of Richmond,University of Richmond,VA,23173,www.richmond.edu,3210.0,37.577625,-77.538702,0.3111,4,2,21,14,14,0,0,0.0028,,"[""4ec0490ae6d3b2a43617ba9de53c4eb3"", ""675c433934dbceb6bfc4a5fca05a6772""]"
3928,236577,Seattle Pacific University,Seattle,WA,98119-1997,www.spu.edu,3216.0,47.649338,-122.362923,0.8161,4,2,18,15,14,0,0,0.0047,,"[""38ae5a12f61f3662f71b5e4f46f7346f"", ""8e84e648ae98f0415333aa8e8b10cfc7""]"
2746,201104,Ashland University,Ashland,OH,44805,https://www.ashland.edu,3218.0,40.860987,-82.320621,0.7674,4,2,17,9,13,0,0,0.0047,,"[""19ba19a676c868832ce6f5857d6009b9"", ""93c595202370658320bb120f7aa9fc46""]"
3574,224226,Dallas Baptist University,Dallas,TX,75211-9299,www.dbu.edu,3220.0,32.710017,-96.947006,0.4191,4,2,18,9,13,0,0,0.0084,,[]
3328,216852,Widener University,Chester,PA,19013-5792,www.widener.edu,3244.0,39.86158,-75.356718,0.6799,4,2,17,12,13,0,0,0.0025,,"[""4a9b0285e952687b405986f1951007f7""]"
3762,230852,Champlain College,Burlington,VT,05401,www.champlain.edu,3249.0,44.47295,-73.20435400000001,0.6617,4,2,22,9,10,0,0,0.0028,,"[""2df165e09bd2d7c035936c3e6978724a"", ""d9508a2edf4f8abe6f02d454c3768838""]"
1745,170301,Hope College,Holland,MI,49422-9000,www.hope.edu,3254.0,42.788052,-86.105376,0.7204,3,2,21,14,14,0,0,0.0003,,"[""19ba19a676c868832ce6f5857d6009b9""]"
3374,218061,Francis Marion University,Florence,SC,29506,www.fmarion.edu,3258.0,34.192277000000004,-79.65551500000001,0.5887,4,1,20,11,13,0,0,0.0046,,"[""a4f57169cee0acb6a67bd4bc6c10ecf1"", ""f46c78ac8f99d60bd34a7f374d458cfc""]"
1889,175005,St Catherine University,Saint Paul,MN,55105,https://www.stkate.edu,3265.0,44.924541999999995,-93.181925,0.6739,4,2,18,9,13,0,0,0.0052,,"[""7e30edf6ace00ddf13dd8e09947db500""]"
1211,153269,Drake University,Des Moines,IA,50311-4505,www.drake.edu,3269.0,41.603809999999996,-93.654062,0.6687,4,2,18,14,14,0,0,0.0015,,"[""0491f976864a170c692ef2a166034c97"", ""406123f9f9771e5dcd50e5f0910fc808""]"
1002,145619,Benedictine University,Lisle,IL,60532-0900,www.ben.edu,3298.0,41.776395,-88.09594799999999,,4,2,17,13,12,0,0,0.003,,"[""5c97aa2bdef5e8752104ee6c48fe0853"", ""93c595202370658320bb120f7aa9fc46""]"
2750,201195,Baldwin Wallace University,Berea,OH,44017-2088,https://www.bw.edu,3300.0,41.373938,-81.849112,0.6019,4,2,18,13,14,0,0,0.0021,,"[""19ba19a676c868832ce6f5857d6009b9"", ""93c595202370658320bb120f7aa9fc46"", ""f63ea15571b3debc934aafac25267799""]"
1513,161873,University of Baltimore,Baltimore,MD,21201-5720,www.ubalt.edu,3307.0,39.305834000000004,-76.616591,0.5267,4,1,18,7,12,0,0,0.0045,,"[""343052679408b2c8ca3c9e5bbfc496d5""]"
3978,237792,Shepherd University,Shepherdstown,WV,25443,www.shepherd.edu/,3320.0,39.434319,-77.80484399999999,0.8987,4,1,20,13,14,0,0,0.0039,,"[""19ba19a676c868832ce6f5857d6009b9""]"
710,133881,Florida Institute of Technology,Melbourne,FL,32901-6975,www.fit.edu,3320.0,28.064503000000002,-80.624628,0.5736,4,2,17,15,13,0,0,0.0021,,"[""17f000b591d77a210adc52a0895ae256""]"
2473,194578,Pratt Institute-Main,Brooklyn,NY,11205,www.pratt.edu,3356.0,40.691154,-73.962149,0.5739,4,2,30,15,14,0,0,0.0024,,"[""2db0527a5564fbd1b0553ab28ce6379e"", ""4a9b0285e952687b405986f1951007f7""]"
2437,193292,Molloy College,Rockville Centre,NY,11571-5002,www.molloy.edu,3373.0,40.685970000000005,-73.626278,0.7552,4,2,18,13,12,0,0,0.0047,,"[""ace4f71fdfbc99a51d87779edd9ed65e"", ""ef0a1f234837da80573def7258ff2bf6""]"
1067,147828,Olivet Nazarene University,Bourbonnais,IL,60914-2271,www.olivet.edu,3389.0,41.155489,-87.873654,0.7658,4,2,18,13,14,0,0,0.0015,,"[""19ba19a676c868832ce6f5857d6009b9"", ""5c97aa2bdef5e8752104ee6c48fe0853"", ""93c595202370658320bb120f7aa9fc46""]"
3807,232265,Hampton University,Hampton,VA,23668-0099,www.hamptonu.edu,3403.0,37.0199,-76.331108,0.6905,4,2,19,12,14,0,0,0.0015,,"[""4ec0490ae6d3b2a43617ba9de53c4eb3""]"
798,137564,Southeastern University,Lakeland,FL,33801-6034,www.seu.edu/,3412.0,28.031864000000002,-81.91899699999999,0.4648,4,2,22,11,14,0,0,0.0038,,"[""17f000b591d77a210adc52a0895ae256"", ""816cc45dc56caf067c6f50b383fca5d0""]"
3335,217165,Bryant University,Smithfield,RI,02917-1291,www.bryant.edu,3430.0,41.920149,-71.539147,0.7232,4,2,19,14,14,0,0,0.0041,,"[""779f577a99cc550227c6af27fef6f12f"", ""c9123ff8973d332a07ca807f63ed6551"", ""ed1ad3408d7b10f52761a4fb57695ad4""]"
963,144005,Chicago State University,Chicago,IL,60628-1598,www.csu.edu,3437.0,41.718813,-87.610344,0.2118,4,1,18,7,12,0,0,0.0032,,"[""5c97aa2bdef5e8752104ee6c48fe0853"", ""93c595202370658320bb120f7aa9fc46""]"
2410,192448,LIU Post,Brookville,NY,11548-1327,liu.edu/CWPost,3443.0,40.820043,-73.59327900000001,0.8058,4,2,18,11,13,0,0,0.0017,,"[""274dad3c07903231bfcf14c2c585167a""]"
2903,205443,Shawnee State University,Portsmouth,OH,45662,WWW.SHAWNEE.EDU,3446.0,38.730909000000004,-82.995357,,4,1,21,12,12,0,0,0.0096,,"[""189cfaa20f0eb5e43d34b1972b9270ed"", ""19ba19a676c868832ce6f5857d6009b9"", ""1d5e456931db024b1c874a16dce0ce1b"", ""5c97aa2bdef5e8752104ee6c48fe0853""]"
2998,207971,University of Tulsa,Tulsa,OK,74104-3189,https://utulsa.edu,3450.0,36.151887,-95.945175,0.4397,4,2,17,14,14,0,0,0.0313,,"[""189cfaa20f0eb5e43d34b1972b9270ed"", ""3db77b6e93bd15601dd8750b9eaa6add"", ""889a46697fcb74fe7762130797f11df5"", ""b50f701897fab01460714ac7f3ca8729""]"
449,121691,University of Redlands,Redlands,CA,92373-0999,www.redlands.edu,3452.0,34.063571,-117.163847,0.6752,4,2,18,9,13,0,0,0.0081,,"[""43196c30bc0b7a0518b2866a3d1aa515"", ""acf3b3f37dbec4c43881eac7593ba2d2"", ""fb087e8c2a215391c5f6461968ee171c""]"
664,131283,Catholic University of America,Washington,DC,20064,www.cua.edu,3462.0,38.935796,-76.998961,0.7857,4,2,16,14,14,0,0,0.0023,,"[""343052679408b2c8ca3c9e5bbfc496d5"", ""c82ba38461590c1a2192a4ade984b598""]"
4144,243577,Universidad Politecnica de Puerto Rico,Hato Rey,PR,00919,www.pupr.edu,3475.0,18.422503,-66.055398,,4,2,27,5,12,0,0,0.0,,"[""c5e1bbd54f84c3f47c39e590a9eccfdd""]"
2778,201964,Ohio Christian University,Circleville,OH,43113-9487,www.ohiochristian.edu,3485.0,39.610895,-82.905986,,4,2,22,5,9,0,0,0.0046,,"[""19ba19a676c868832ce6f5857d6009b9"", ""5c97aa2bdef5e8752104ee6c48fe0853""]"
2655,199111,University of North Carolina at Asheville,Asheville,NC,28804-8510,https://www.unca.edu,3505.0,35.616618,-82.565259,0.7851,4,1,21,15,13,0,0,0.0057,,"[""7639ca3ea97bd7b15f7b7ebb3d20b2ea""]"
439,121150,Pepperdine University,Malibu,CA,90263,www.pepperdine.edu/,3514.0,34.041911999999996,-118.707677,0.381,4,2,17,14,14,0,0,0.004,,"[""51684727e1284b6fcaea58470a6879ce"", ""acf3b3f37dbec4c43881eac7593ba2d2"", ""c50ae997512aa9e22bf7c534e8336afd""]"
3097,211291,Bucknell University,Lewisburg,PA,17837,www.bucknell.edu,3522.0,40.954489,-76.886275,0.2478,4,2,21,14,14,0,0,0.0003,,"[""19ba19a676c868832ce6f5857d6009b9"", ""cfaa9067fdb1a8acbd533c38a5dce783"", ""f63ea15571b3debc934aafac25267799""]"
991,145336,Governors State University,University Park,IL,60484,www.govst.edu/,3526.0,41.448603000000006,-87.717012,0.3887,4,1,18,5,12,0,0,0.002,,"[""5c97aa2bdef5e8752104ee6c48fe0853"", ""93c595202370658320bb120f7aa9fc46""]"
3709,229018,The University of Texas of the Permian Basin,Odessa,TX,79762-0001,www.utpb.edu,3527.0,31.889509000000004,-102.329634,0.8449,4,1,19,9,12,0,0,0.0099,,"[""2b138b83575305cdd623a27b405ee7e5"", ""b120aa94ce6236ab1054d641932277a8""]"
4138,243212,University of Puerto Rico-Ponce,Ponce,PR,00716-9996,www.uprp.edu,3543.0,17.993314,-66.606215,0.5051,3,1,22,10,12,0,0,0.0,,"[""c5e1bbd54f84c3f47c39e590a9eccfdd""]"
2956,207041,East Central University,Ada,OK,74820-6999,https://www.ecok.edu,3546.0,34.773804999999996,-96.66419599999999,0.46,4,1,18,13,14,0,1,0.1393,,"[""189cfaa20f0eb5e43d34b1972b9270ed"", ""1cc526f7cf94caa4a74c383ccfa4d7a1"", ""9cfa50165033586c4e2b7e353fbd1318""]"
569,127185,Fort Lewis College,Durango,CO,81301-3999,fortlewis.edu/,3559.0,37.275428000000005,-107.867003,0.8596,3,1,21,13,13,0,0,0.2484,,"[""595617f81d7c04fe70726f9601b45f29""]"
1429,159009,Grambling State University,Grambling,LA,71245,www.gram.edu,3567.0,32.522702,-92.71736700000001,0.3823,4,1,19,11,14,0,0,0.0031,,"[""189cfaa20f0eb5e43d34b1972b9270ed"", ""3db77b6e93bd15601dd8750b9eaa6add"", ""889a46697fcb74fe7762130797f11df5""]"
941,143118,Aurora University,Aurora,IL,60506-4892,aurora.edu,3567.0,41.754465,-88.349469,0.7724,4,2,18,13,12,0,0,0.0039,,"[""5c97aa2bdef5e8752104ee6c48fe0853"", ""93c595202370658320bb120f7aa9fc46""]"
1543,163338,University of Maryland Eastern Shore,Princess Anne,MD,21853-1299,www.umes.edu,3572.0,38.211188,-75.68722700000001,0.4906,4,1,20,11,14,0,0,0.0011,,[]
2417,192703,Manhattan College,Riverdale,NY,10471-4098,www.manhattan.edu,3576.0,40.889756,-73.901893,0.6685,4,2,19,14,14,0,0,0.0025,,"[""4a9b0285e952687b405986f1951007f7""]"
3039,209506,Oregon Institute of Technology,Klamath Falls,OR,97601-8801,www.oit.edu,3582.0,42.257152000000005,-121.785177,0.5696,4,1,22,9,9,0,0,0.0117,,"[""2610e64e0ab7dc9f1a5a92bf676848ed"", ""4fcfa9dfc8be5fa2ce01ce7a72e6988e""]"
4271,262086,Brandman University,Irvine,CA,92618,www.brandman.edu/,3595.0,33.655684,-117.768624,0.7451,4,2,18,5,12,0,0,0.0083,,"[""acf3b3f37dbec4c43881eac7593ba2d2""]"
2532,196200,SUNY College at Potsdam,Potsdam,NY,13676-2294,www.potsdam.edu,3595.0,44.662862,-74.976889,0.7391,4,1,18,13,14,0,0,0.0181,,"[""19ba19a676c868832ce6f5857d6009b9"", ""2aeccb0d993843dcf7f74df84332077f""]"
1590,165015,Brandeis University,Waltham,MA,02454-9110,www.brandeis.edu/,3610.0,42.364946999999994,-71.254716,0.3402,4,2,15,14,14,0,0,0.0006,,"[""a77db6a813b8e6f32265756291b9302a"", ""ed1ad3408d7b10f52761a4fb57695ad4""]"
2249,187648,Eastern New Mexico University-Main Campus,Portales,NM,88130,www.enmu.edu,3627.0,34.179015,-103.348046,0.4983,4,1,20,7,12,0,0,0.0207,,"[""2b138b83575305cdd623a27b405ee7e5"", ""4df4246b4504e9874a9d734070f2e278"", ""b120aa94ce6236ab1054d641932277a8""]"
4073,240754,University of Guam,Mangilao,GU,96923,www.uog.edu,3647.0,13.432726,144.802837,,4,1,20,6,12,0,0,0.0008,,[]
2986,207661,Rogers State University,Claremore,OK,74017-3252,www.rsu.edu,3663.0,36.319609,-95.635739,0.8184,3,1,23,7,9,0,1,0.1103,,"[""189cfaa20f0eb5e43d34b1972b9270ed"", ""3db77b6e93bd15601dd8750b9eaa6add"", ""889a46697fcb74fe7762130797f11df5"", ""c797c1122d3f8d407588129887aba1aa""]"
681,132602,Bethune-Cookman University,Daytona Beach,FL,32114-3099,www.cookman.edu,3666.0,29.210193,-81.031429,,4,2,22,10,13,0,0,0.0008,,"[""17f000b591d77a210adc52a0895ae256"", ""9bcff4f77c1f83f2bfd98aa57888a03b""]"
1562,164173,Stevenson University,Stevenson,MD,21153-0641,www.stevenson.edu,3667.0,39.421264,-76.701247,0.5974,4,2,20,13,13,0,0,0.0016,,"[""19ba19a676c868832ce6f5857d6009b9"", ""343052679408b2c8ca3c9e5bbfc496d5""]"
4132,243142,University of Puerto Rico-Carolina,Carolina,PR,00984-4800,www.uprc.edu/,3669.0,18.391471,-65.989694,0.2653,3,1,22,12,12,0,0,0.0,,"[""c5e1bbd54f84c3f47c39e590a9eccfdd""]"
3961,237367,Fairmont State University,Fairmont,WV,26554-2470,www.fairmontstate.edu/,3672.0,39.485925,-80.16184399999999,0.6479,4,1,20,11,12,0,0,0.0025,,"[""189cfaa20f0eb5e43d34b1972b9270ed"", ""19ba19a676c868832ce6f5857d6009b9""]"
4133,243151,University of Puerto Rico-Cayey,Cayey,PR,00737-2230,www.cayey.upr.edu,3681.0,18.117232,-66.163146,0.8164,3,1,22,14,12,0,0,0.0,,"[""c5e1bbd54f84c3f47c39e590a9eccfdd""]"
657,130934,Delaware State University,Dover,DE,19901,www.desu.edu,3686.0,39.187173,-75.54053,0.4443,4,1,19,10,14,0,0,0.0024,,"[""4a9b0285e952687b405986f1951007f7""]"
3542,222178,Abilene Christian University,Abilene,TX,79699,www.acu.edu,3695.0,32.46915,-99.70954,0.4992,4,2,18,12,13,0,0,0.0035,,"[""2b138b83575305cdd623a27b405ee7e5""]"
680,132471,Barry University,Miami,FL,33161-6695,www.barry.edu,3703.0,25.878865,-80.196136,0.5506,4,2,17,11,12,0,0,0.0024,,"[""17f000b591d77a210adc52a0895ae256""]"
2182,184603,Fairleigh Dickinson University-Metropolitan Campus,Teaneck,NJ,07666,www.fdu.edu,3707.0,40.896162,-74.030023,0.7951,4,2,18,7,12,0,0,0.0019,,"[""19ba19a676c868832ce6f5857d6009b9"", ""4a9b0285e952687b405986f1951007f7""]"
434,120883,University of the Pacific,Stockton,CA,95211-0197,www.pacific.edu,3720.0,37.980624,-121.307296,0.6456,4,2,17,14,13,0,0,0.0043,,"[""db8cf5dc7ec07dcbc77263d42d16750e"", ""fb2fbbe5d956646ed9f62a3a841bbf90""]"
2058,180179,Montana State University-Billings,Billings,MT,59101-0298,www.msubillings.edu,3727.0,45.796896000000004,-108.523009,,4,1,19,7,12,0,0,0.0448,,"[""a4bc7c5d2586d2d0fc473ba771ae3b98"", ""fba6a0280e049c6496ffe0106043188a""]"
1293,155025,Emporia State University,Emporia,KS,66801-5415,www.emporia.edu,3730.0,38.414106,-96.18014000000001,0.8698,4,1,18,13,13,0,0,0.0054,,"[""189cfaa20f0eb5e43d34b1972b9270ed"", ""2fe6b23b2fbe281d0e79840b83c217e5""]"
4134,243179,University of Puerto Rico-Humacao,Humacao,PR,00792,www.uprh.edu,3732.0,18.14779,-65.83896700000001,0.4841,3,1,22,10,12,0,0,0.0008,,"[""c5e1bbd54f84c3f47c39e590a9eccfdd""]"
3052,209825,University of Portland,Portland,OR,97203-5798,https://www1.up.edu,3741.0,45.571807,-122.726859,0.6196,4,2,18,14,14,0,0,0.0016,,"[""44468b05a0339405160df36c5f05e9df""]"
1607,165662,Emerson College,Boston,MA,02116-4624,www.emerson.edu,3783.0,42.35532,-71.074037,0.4903,4,2,18,15,14,0,0,0.0013,,"[""a77db6a813b8e6f32265756291b9302a"", ""ed1ad3408d7b10f52761a4fb57695ad4""]"
1713,169080,Calvin College,Grand Rapids,MI,49546,www.calvin.edu,3788.0,42.929916,-85.587548,0.7427,4,2,21,14,14,0,0,0.0024,,"[""19ba19a676c868832ce6f5857d6009b9""]"
3286,215929,University of Scranton,Scranton,PA,18510-4629,www.scranton.edu,3793.0,41.40715,-75.65803100000001,0.7221,4,2,18,14,14,0,0,0.0013,,"[""19ba19a676c868832ce6f5857d6009b9""]"
3174,213367,La Salle University,Philadelphia,PA,19141-1199,www.lasalle.edu,3801.0,40.038503000000006,-75.152996,0.7492,4,2,18,12,14,0,0,0.0024,,"[""4a9b0285e952687b405986f1951007f7""]"
3896,235167,The Evergreen State College,Olympia,WA,98505-0001,www.evergreen.edu,3821.0,47.07382,-122.977492,0.9788,4,1,20,13,12,0,0,0.0207,,"[""38ae5a12f61f3662f71b5e4f46f7346f""]"
3726,229780,Wayland Baptist University,Plainview,TX,79072,www.wbu.edu,3828.0,34.186673,-101.729564,0.9871,4,2,18,5,9,0,0,0.0081,,"[""2b138b83575305cdd623a27b405ee7e5""]"
2502,195544,St. Joseph's College-New York,Brooklyn,NY,11205-3688,www.sjcny.edu,3833.0,40.690484999999995,-73.968037,0.6792,4,2,19,13,12,0,0,0.0063,,"[""2db0527a5564fbd1b0553ab28ce6379e"", ""4a9b0285e952687b405986f1951007f7""]"
4130,243115,University of Puerto Rico-Arecibo,Arecibo,PR,00614-4010,www.upra.edu,3846.0,18.469199,-66.74114,0.8891,3,1,22,10,12,0,0,0.0,,"[""c5e1bbd54f84c3f47c39e590a9eccfdd""]"
617,129242,Fairfield University,Fairfield,CT,06824-5195,fairfield.edu,3863.0,41.160732,-73.25778000000001,0.6497,4,2,18,14,14,0,0,0.0003,,"[""3c40530ef672a9777b0b7ca19ddaa75b"", ""4a9b0285e952687b405986f1951007f7""]"
1640,166656,MCPHS University,Boston,MA,02115-5896,www.mcphs.edu,3877.0,42.337036,-71.100964,0.8656,4,2,26,12,13,0,0,0.0026,,"[""a77db6a813b8e6f32265756291b9302a"", ""ed1ad3408d7b10f52761a4fb57695ad4""]"
3663,227757,Rice University,Houston,TX,77005-1827,www.rice.edu,3879.0,29.716485,-95.403625,0.1596,4,2,15,14,14,0,0,0.001,,[]
550,126669,Colorado Christian University,Lakewood,CO,80226,WWW.CCU.EDU,3885.0,39.711701,-105.09483600000002,,4,2,19,5,12,0,0,0.0059,,"[""595617f81d7c04fe70726f9601b45f29"", ""a4bc7c5d2586d2d0fc473ba771ae3b98""]"
2533,196219,SUNY at Purchase College,Purchase,NY,10577-1400,www.purchase.edu,3914.0,41.047092,-73.700127,0.408,4,1,21,13,14,0,0,0.0038,,"[""4a9b0285e952687b405986f1951007f7""]"
910,141644,Hawaii Pacific University,Honolulu,HI,96813,www.hpu.edu,3940.0,21.310270000000003,-157.859401,0.9129999999999999,4,2,18,9,12,0,0,0.0041,,"[""99b4654bbf6a3cf8e50d2fe2bfaf1bec""]"
594,128106,Colorado State University-Pueblo,Pueblo,CO,81001-4901,www.csupueblo.edu,3944.0,38.309219,-104.57984599999999,0.9589,4,1,20,13,12,0,0,0.0061,,"[""595617f81d7c04fe70726f9601b45f29"", ""a4bc7c5d2586d2d0fc473ba771ae3b98""]"
3340,217402,Providence College,Providence,RI,02918-0001,www.providence.edu,3948.0,41.844064,-71.43791999999999,0.5678,4,2,18,14,14,0,0,0.0025,,"[""779f577a99cc550227c6af27fef6f12f"", ""ed1ad3408d7b10f52761a4fb57695ad4""]"
2461,194091,New York Institute of Technology,Old Westbury,NY,11568-8000,www.nyit.edu,3951.0,40.814402,-73.608885,0.6777,4,2,18,13,12,0,0,0.003,,"[""274dad3c07903231bfcf14c2c585167a""]"
1487,161217,University of Maine at Augusta,Augusta,ME,04330-9410,www.uma.edu/,3964.0,44.337746,-69.796396,,3,1,23,5,9,0,0,0.0177,,"[""2df165e09bd2d7c035936c3e6978724a"", ""d9508a2edf4f8abe6f02d454c3768838""]"
2535,196237,SUNY College at Old Westbury,Old Westbury,NY,11568-0210,www.oldwestbury.edu,3998.0,40.789842,-73.570966,0.5009,4,1,21,13,12,0,0,0.0028,,"[""274dad3c07903231bfcf14c2c585167a""]"
2143,183080,Plymouth State University,Plymouth,NH,03264-1595,www.plymouth.edu,4000.0,43.757386,-71.691164,0.7357,4,1,18,11,13,0,0,0.0038,,"[""2df165e09bd2d7c035936c3e6978724a"", ""d9508a2edf4f8abe6f02d454c3768838""]"
1120,150163,Butler University,Indianapolis,IN,46208,www.butler.edu,4001.0,39.840662,-86.171791,0.7043,4,2,19,14,14,0,0,0.0015,,"[""19ba19a676c868832ce6f5857d6009b9"", ""5c97aa2bdef5e8752104ee6c48fe0853""]"
3666,227845,Saint Edward's University,Austin,TX,78704-6489,https://www.stedwards.edu,4018.0,30.229844,-97.75763,0.7745,4,2,18,15,13,0,0,0.005,,[]
1268,154493,Upper Iowa University,Fayette,IA,52142-1857,www.uiu.edu,4022.0,42.840293,-91.799663,0.66,4,2,19,6,12,0,0,0.0047,,"[""0491f976864a170c692ef2a166034c97"", ""e834ab3323064b2a18f47bb73c0086c4""]"
4112,242635,Inter American University of Puerto Rico-Arecibo,Arecibo,PR,00614,www.arecibo.inter.edu/portal/default.htm,4025.0,18.475089999999998,-66.75901,0.5609,4,2,20,10,12,0,0,0.0015,,"[""c5e1bbd54f84c3f47c39e590a9eccfdd""]"
1536,163046,Loyola University Maryland,Baltimore,MD,21210-2699,www.loyola.edu,4031.0,39.346044,-76.623417,0.6093,4,2,18,14,14,0,0,0.001,,"[""343052679408b2c8ca3c9e5bbfc496d5""]"
2221,186283,Rider University,Lawrenceville,NJ,08648-3099,www.rider.edu,4039.0,40.283122,-74.742822,0.6901,4,2,18,13,14,0,0,0.0015,,"[""4a9b0285e952687b405986f1951007f7""]"
2800,202806,Franklin University,Columbus,OH,43215-5399,www.franklin.edu,4049.0,39.958402,-82.991825,,4,2,29,5,12,0,0,0.003,,"[""19ba19a676c868832ce6f5857d6009b9"", ""5c97aa2bdef5e8752104ee6c48fe0853""]"
2083,181002,Creighton University,Omaha,NE,68178,https://www.creighton.edu,4080.0,41.265325,-95.947029,0.7048,4,2,18,14,14,0,0,0.0044,,"[""dfd83e5a9d56cb46021241b2fc7985d1""]"
4006,238616,Concordia University-Wisconsin,Mequon,WI,53097-2402,www.cuw.edu,4080.0,43.254217,-87.916628,0.667,4,2,18,9,13,0,0,0.0088,,"[""5383948cbc0e947d9efd873b7f97617a"", ""5c97aa2bdef5e8752104ee6c48fe0853"", ""93c595202370658320bb120f7aa9fc46""]"
1152,151360,Indiana University-Northwest,Gary,IN,46408-1197,www.iun.edu,4117.0,41.556723,-87.33845699999999,0.7928,4,1,19,7,12,0,0,0.0022,,"[""19ba19a676c868832ce6f5857d6009b9"", ""5c97aa2bdef5e8752104ee6c48fe0853"", ""93c595202370658320bb120f7aa9fc46""]"
2995,207865,Southwestern Oklahoma State University,Weatherford,OK,73096-3098,www.swosu.edu,4133.0,35.534609,-98.707964,0.9155,4,1,19,13,12,0,0,0.0423,,"[""189cfaa20f0eb5e43d34b1972b9270ed"", ""2b138b83575305cdd623a27b405ee7e5"", ""4df4246b4504e9874a9d734070f2e278"", ""54fd1211f20900fb911ee8ce968d6304"", ""e2d27fa73f8d74a3cc169b64db571cc0""]"
1581,164739,Bentley University,Waltham,MA,02452-4705,www.bentley.edu,4137.0,42.388798,-71.220148,0.4232,4,2,18,14,14,0,0,0.0,,"[""ed1ad3408d7b10f52761a4fb57695ad4""]"
1145,151263,University of Indianapolis,Indianapolis,IN,46227-3697,uindy.edu,4139.0,39.709671,-86.13474699999999,0.7341,4,2,18,13,13,0,0,0.0014,,"[""19ba19a676c868832ce6f5857d6009b9"", ""5c97aa2bdef5e8752104ee6c48fe0853""]"
8,100830,Auburn University at Montgomery,Montgomery,AL,36117-3596,www.aum.edu,4142.0,32.369939,-86.177351,0.7871,4,1,18,9,12,0,0,0.0051,,"[""3db77b6e93bd15601dd8750b9eaa6add"", ""65e2b5937d3213af618235db3d0d0862""]"
3483,220613,Lee University,Cleveland,TN,37311,www.leeuniversity.edu,4151.0,35.166166,-84.870018,0.8547,4,2,19,13,13,0,0,0.0055,,"[""3db77b6e93bd15601dd8750b9eaa6add"", ""7639ca3ea97bd7b15f7b7ebb3d20b2ea"", ""c8210c4dc0690a308150ecbd7ad039c2""]"
1613,165820,Fitchburg State University,Fitchburg,MA,01420-2697,www.fitchburgstate.edu,4156.0,42.589345,-71.789354,0.7476,4,1,18,13,13,0,0,0.0007,,"[""2df165e09bd2d7c035936c3e6978724a"", ""c9123ff8973d332a07ca807f63ed6551""]"
3190,213613,Lock Haven University,Lock Haven,PA,17745-2390,www.lhup.edu,4158.0,41.142097,-77.463565,0.9174,4,1,20,10,13,0,0,0.0048,,"[""19ba19a676c868832ce6f5857d6009b9"", ""cfaa9067fdb1a8acbd533c38a5dce783"", ""f63ea15571b3debc934aafac25267799""]"
4052,240374,University of Wisconsin-Parkside,Kenosha,WI,53141-2000,https://www.uwp.edu,4158.0,42.646074,-87.855407,0.8159,4,1,21,9,12,0,0,0.0017,,"[""5c97aa2bdef5e8752104ee6c48fe0853"", ""93c595202370658320bb120f7aa9fc46""]"
3867,234155,Virginia State University,Petersburg,VA,23806,www.vsu.edu,4176.0,37.236453000000004,-77.419886,0.7698,4,1,20,11,14,0,0,0.0029,,"[""4ec0490ae6d3b2a43617ba9de53c4eb3""]"
1699,168421,Worcester Polytechnic Institute,Worcester,MA,01609-2280,www.wpi.edu,4177.0,42.275067,-71.80879200000001,0.4855,4,2,17,14,14,0,0,0.0024,,"[""c9123ff8973d332a07ca807f63ed6551""]"
2141,183062,Keene State College,Keene,NH,03435-1506,www.keene.edu,4186.0,42.925999,-72.28143299999999,0.7876,4,1,20,12,14,0,0,0.0022,,"[""2df165e09bd2d7c035936c3e6978724a"", ""d9508a2edf4f8abe6f02d454c3768838""]"
665,131399,University of the District of Columbia,Washington,DC,20008,www.udc.edu,4198.0,38.943819,-77.066247,,4,1,20,5,12,0,0,0.0024,,"[""343052679408b2c8ca3c9e5bbfc496d5"", ""c82ba38461590c1a2192a4ade984b598""]"
4111,242626,Inter American University of Puerto Rico-Aguadilla,Aguadilla,PR,00603,www.aguadilla.inter.edu,4198.0,18.467886,-67.12167099999999,0.5258,4,2,20,10,12,0,0,0.0007,,"[""c5e1bbd54f84c3f47c39e590a9eccfdd""]"
2127,182670,Dartmouth College,Hanover,NH,03755-3529,www.dartmouth.edu,4214.0,43.70408,-72.289951,0.1097,4,2,15,14,14,0,0,0.0223,,"[""2df165e09bd2d7c035936c3e6978724a"", ""d9508a2edf4f8abe6f02d454c3768838""]"
212,110097,Biola University,La Mirada,CA,90639-0001,www.biola.edu,4219.0,33.904823,-118.017342,0.6985,4,2,17,13,14,0,0,0.0014,,"[""acf3b3f37dbec4c43881eac7593ba2d2""]"
4110,242617,Inter American University of Puerto Rico-San German,San German,PR,00683,www.sg.inter.edu,4246.0,18.083957,-67.05380799999999,0.6321,4,2,19,10,12,0,0,0.0012,,"[""c5e1bbd54f84c3f47c39e590a9eccfdd""]"
1514,162007,Bowie State University,Bowie,MD,20715-9465,www.bowiestate.edu,4254.0,39.018184999999995,-76.759721,0.5747,4,1,17,11,13,0,0,0.0007,,"[""343052679408b2c8ca3c9e5bbfc496d5"", ""c82ba38461590c1a2192a4ade984b598""]"
3819,232681,University of Mary Washington,Fredericksburg,VA,22401-5300,www.umw.edu,4262.0,38.302206,-77.47439200000001,0.8265,4,1,18,15,14,0,0,0.0016,,"[""4ec0490ae6d3b2a43617ba9de53c4eb3"", ""675c433934dbceb6bfc4a5fca05a6772""]"
1693,168227,Wentworth Institute of Technology,Boston,MA,02115,WWW.WIT.EDU,4288.0,42.336632,-71.094983,0.6667,4,2,22,14,13,0,0,0.0033,,"[""a77db6a813b8e6f32265756291b9302a"", ""ed1ad3408d7b10f52761a4fb57695ad4""]"
1614,165866,Framingham State University,Framingham,MA,01701-9101,www.framingham.edu/,4288.0,42.297289,-71.437175,0.7081,4,1,18,13,14,0,0,0.0021,,"[""ed1ad3408d7b10f52761a4fb57695ad4""]"
3058,210146,Southern Oregon University,Ashland,OR,97520,www.sou.edu,4316.0,42.186467,-122.694034,0.9523,4,1,18,9,13,0,0,0.0111,,"[""9491840818193c9d808a73ebff3cf3df""]"
2626,198695,High Point University,High Point,NC,27268,www.highpoint.edu,4362.0,35.972674,-79.994545,0.7249,4,2,22,12,14,0,0,0.0023,,"[""a4f57169cee0acb6a67bd4bc6c10ecf1"", ""f46c78ac8f99d60bd34a7f374d458cfc""]"
3447,219718,Bethel University,McKenzie,TN,38201,www.bethelu.edu/,4363.0,36.139271,-88.516162,0.8399,4,2,19,7,12,0,0,0.0057,,"[""3db77b6e93bd15601dd8750b9eaa6add""]"
1816,173124,Bemidji State University,Bemidji,MN,56601,www.bemidjistate.edu,4380.0,47.482504999999996,-94.87452900000001,0.938,4,1,20,9,13,0,0,0.0251,,"[""7e30edf6ace00ddf13dd8e09947db500""]"
3814,232566,Longwood University,Farmville,VA,23909,www.longwood.edu,4399.0,37.301072999999995,-78.39578900000001,0.789,4,1,19,12,14,0,0,0.0036,,[]
3114,211644,Clarion University of Pennsylvania,Clarion,PA,16214,www.clarion.edu,4401.0,41.209676,-79.374775,0.9607,4,1,18,11,13,0,0,0.0018,,"[""19ba19a676c868832ce6f5857d6009b9"", ""f63ea15571b3debc934aafac25267799""]"
2594,198136,Campbell University,Buies Creek,NC,27506,www.campbell.edu,4401.0,35.409333000000004,-78.739508,0.735,4,2,18,10,14,0,0,0.0068,,"[""836cc8d0b2c40ee685613c5623eac3d8"", ""a4f57169cee0acb6a67bd4bc6c10ecf1""]"
4141,243443,Universidad del Sagrado Corazon,Santurce,PR,00907,www.sagrado.edu,4415.0,18.440592000000002,-66.075103,0.2233,4,2,19,11,12,0,0,0.0,,"[""c5e1bbd54f84c3f47c39e590a9eccfdd""]"
2003,178387,Missouri Western State University,Saint Joseph,MO,64507,https://www.missouriwestern.edu,4420.0,39.7575,-94.78564300000001,,4,1,22,7,13,0,0,0.0034,,"[""189cfaa20f0eb5e43d34b1972b9270ed"", ""2fe6b23b2fbe281d0e79840b83c217e5""]"
3332,217059,York College Pennsylvania,York,PA,17403-3651,www.ycp.edu,4421.0,39.946709000000006,-76.727266,0.4302,4,2,20,12,14,0,0,0.0009,,"[""19ba19a676c868832ce6f5857d6009b9"", ""cfaa9067fdb1a8acbd533c38a5dce783""]"
949,143358,Bradley University,Peoria,IL,61625-0001,www.bradley.edu,4436.0,40.697604999999996,-89.61462,0.6568,4,2,18,14,14,0,0,0.002,,"[""0491f976864a170c692ef2a166034c97"", ""19ba19a676c868832ce6f5857d6009b9"", ""5c97aa2bdef5e8752104ee6c48fe0853""]"
153,107044,Harding University,Searcy,AR,72149-5615,www.harding.edu,4450.0,35.249604999999995,-91.729008,0.992,4,2,18,14,14,0,0,0.0076,,"[""189cfaa20f0eb5e43d34b1972b9270ed"", ""3db77b6e93bd15601dd8750b9eaa6add"", ""70a60c93a29885e123c5e9949090f138""]"
591,127918,Regis University,Denver,CO,80221-1099,www.regis.edu/,4458.0,39.78976,-105.03138500000001,0.657,4,2,18,5,13,0,0,0.0058,,"[""51c79c21bde415a7f51e05da2793b179"", ""595617f81d7c04fe70726f9601b45f29"", ""a4bc7c5d2586d2d0fc473ba771ae3b98""]"
2941,206622,Xavier University,Cincinnati,OH,45207-1092,www.xavier.edu,4460.0,39.149291,-84.477648,0.7158,4,2,18,14,14,0,0,0.0022,,"[""189cfaa20f0eb5e43d34b1972b9270ed"", ""19ba19a676c868832ce6f5857d6009b9"", ""1d5e456931db024b1c874a16dce0ce1b"", ""5c97aa2bdef5e8752104ee6c48fe0853""]"
1642,166683,Massachusetts Institute of Technology,Cambridge,MA,02139-4307,web.mit.edu/student/,4474.0,42.360095,-71.092115,0.083,4,2,15,14,17,0,0,0.0009,,"[""a77db6a813b8e6f32265756291b9302a"", ""ed1ad3408d7b10f52761a4fb57695ad4""]"
3827,232937,Norfolk State University,Norfolk,VA,23504-8000,www.nsu.edu,4477.0,36.848262,-76.26393,0.7894,4,1,18,11,13,0,0,0.0018,,"[""4ec0490ae6d3b2a43617ba9de53c4eb3""]"
4118,242705,Inter American University of Puerto Rico-Bayamon,Bayamon,PR,00957-6257,bc.inter.edu/,4481.0,18.350898,-66.182599,0.5299,4,2,22,10,12,0,0,0.0054,,"[""c5e1bbd54f84c3f47c39e590a9eccfdd""]"
3278,215655,Robert Morris University,Moon Township,PA,15108-1189,www.rmu.edu,4485.0,40.521088,-80.21178499999999,0.7766,4,2,18,13,14,0,0,0.0009,,"[""189cfaa20f0eb5e43d34b1972b9270ed"", ""19ba19a676c868832ce6f5857d6009b9"", ""f63ea15571b3debc934aafac25267799""]"
0,100654,Alabama A & M University,Normal,AL,35762,www.aamu.edu/,4505.0,34.783367999999996,-86.568502,0.6538,4,1,18,10,13,0,0,0.0022,,"[""3db77b6e93bd15601dd8750b9eaa6add"", ""7639ca3ea97bd7b15f7b7ebb3d20b2ea"", ""c8210c4dc0690a308150ecbd7ad039c2""]"
893,140960,Savannah State University,Savannah,GA,31404-5310,www.savannahstate.edu/,4519.0,32.024781,-81.063377,0.8264,4,1,21,10,14,0,0,0.0035,,"[""65e2b5937d3213af618235db3d0d0862""]"
1031,146612,Lewis University,Romeoville,IL,60446-2200,www.lewisu.edu,4529.0,41.605432,-88.079032,0.6184,4,2,18,13,13,0,0,0.0009,,"[""5c97aa2bdef5e8752104ee6c48fe0853"", ""93c595202370658320bb120f7aa9fc46""]"
556,126775,Colorado School of Mines,Golden,CO,80401,www.mines.edu,4532.0,39.75079,-105.227148,0.3767,4,1,16,14,13,0,0,0.0013,,"[""595617f81d7c04fe70726f9601b45f29"", ""a4bc7c5d2586d2d0fc473ba771ae3b98""]"
3345,217518,Roger Williams University,Bristol,RI,02809-2921,www.rwu.edu,4536.0,41.647314,-71.261836,0.7848,4,2,20,14,14,0,0,0.0018,,"[""ed1ad3408d7b10f52761a4fb57695ad4""]"
2527,196158,SUNY at Fredonia,Fredonia,NY,14063-1136,www.fredonia.edu,4542.0,42.450961,-79.336109,0.5925,4,1,19,13,14,0,0,0.0048,,"[""19ba19a676c868832ce6f5857d6009b9"", ""7e30edf6ace00ddf13dd8e09947db500"", ""f63ea15571b3debc934aafac25267799""]"
882,140447,Mercer University,Macon,GA,31207,www.mercer.edu,4556.0,32.831709000000004,-83.650114,0.6688,4,2,18,15,14,0,0,0.0037,,"[""3db77b6e93bd15601dd8750b9eaa6add"", ""65e2b5937d3213af618235db3d0d0862""]"
766,136215,Nova Southeastern University,Fort Lauderdale,FL,33314-7796,www.nova.edu,4565.0,26.079337,-80.24248,0.5924,4,2,16,9,15,0,0,0.0028,,"[""17f000b591d77a210adc52a0895ae256""]"
3929,236595,Seattle University,Seattle,WA,98122-4340,www.seattleu.edu,4587.0,47.610138,-122.3197,0.7302,4,2,18,15,13,0,0,0.0041,,"[""38ae5a12f61f3662f71b5e4f46f7346f"", ""8e84e648ae98f0415333aa8e8b10cfc7""]"
2707,199999,Winston-Salem State University,Winston-Salem,NC,27110-0001,www.wssu.edu,4647.0,36.089197,-80.224905,0.5853,4,1,19,11,14,0,0,0.0052,,"[""a4f57169cee0acb6a67bd4bc6c10ecf1"", ""f46c78ac8f99d60bd34a7f374d458cfc""]"
2202,185572,Monmouth University,West Long Branch,NJ,07764-1898,www.monmouth.edu,4661.0,40.280066,-74.006447,0.7419,4,2,18,13,13,0,0,0.0013,,"[""4a9b0285e952687b405986f1951007f7""]"
4,100724,Alabama State University,Montgomery,AL,36104-0271,www.alasu.edu,4740.0,32.364317,-86.295677,0.4639,4,1,18,10,13,0,0,0.0008,,"[""3db77b6e93bd15601dd8750b9eaa6add"", ""65e2b5937d3213af618235db3d0d0862""]"
616,129215,Eastern Connecticut State University,Willimantic,CT,06226,www.easternct.edu/,4767.0,41.721672999999996,-72.218753,0.6356,4,1,20,13,14,0,0,0.001,,"[""5c600fd2cea0ead787b7bca645cdaf09""]"
3068,210429,Western Oregon University,Monmouth,OR,97361-1394,www.wou.edu,4781.0,44.851865999999994,-123.23878500000001,0.8777,4,1,19,11,13,0,0,0.018000000000000002,,"[""e31c3d18dae78ec0e51a1a3a5eca79e8""]"
3409,218964,Winthrop University,Rock Hill,SC,29733,www.winthrop.edu,4786.0,34.939066,-81.02892800000001,0.6709999999999999,4,1,18,13,13,0,0,0.0033,,"[""a4f57169cee0acb6a67bd4bc6c10ecf1""]"
856,139463,Dalton State College,Dalton,GA,30720-3797,https://www.daltonstate.edu/index.cms,4794.0,34.77496,-85.00289000000001,,3,1,23,7,12,0,0,0.0044,,"[""3db77b6e93bd15601dd8750b9eaa6add"", ""7639ca3ea97bd7b15f7b7ebb3d20b2ea"", ""c8210c4dc0690a308150ecbd7ad039c2""]"
2276,188429,Adelphi University,Garden City,NY,11530-0701,www.adelphi.edu/,4813.0,40.721439000000004,-73.65332099999999,0.7219,4,2,17,13,12,0,0,0.001,,"[""ace4f71fdfbc99a51d87779edd9ed65e""]"
2089,181215,University of Nebraska at Kearney,Kearney,NE,68849-1212,www.unk.edu,4819.0,40.700787,-99.098237,0.8538,4,1,18,13,13,0,0,0.0019,,"[""3eeee05d1ee1b1ece059a65db6b629da""]"
1524,162584,Frostburg State University,Frostburg,MD,21532-1099,www.frostburg.edu,4850.0,39.651509000000004,-78.933871,0.6346,4,1,18,13,13,0,0,0.0025,,"[""19ba19a676c868832ce6f5857d6009b9""]"
2696,199847,Wake Forest University,Winston-Salem,NC,27106,www.wfu.edu,4866.0,36.135301,-80.279004,0.2939,4,2,16,14,14,0,0,0.0014,,"[""a4f57169cee0acb6a67bd4bc6c10ecf1"", ""f46c78ac8f99d60bd34a7f374d458cfc""]"
4131,243133,University of Puerto Rico-Bayamon,Bayamon,PR,00959,www.uprb.edu/,4876.0,18.371398000000003,-66.143541,0.2426,3,1,22,10,12,0,0,0.0,,"[""c5e1bbd54f84c3f47c39e590a9eccfdd""]"
1336,156082,Washburn University,Topeka,KS,66621-0001,www.washburn.edu,4900.0,39.034977000000005,-95.702325,,4,1,19,9,12,0,0,0.0055,,"[""189cfaa20f0eb5e43d34b1972b9270ed"", ""2fe6b23b2fbe281d0e79840b83c217e5""]"
633,129941,University of New Haven,West Haven,CT,06516-1916,www.newhaven.edu,4942.0,41.291314,-72.961472,0.8212,4,2,18,12,14,0,0,0.0026,,"[""3c40530ef672a9777b0b7ca19ddaa75b""]"
3899,235316,Gonzaga University,Spokane,WA,99258-0001,www.gonzaga.edu,4965.0,47.668144,-117.403062,0.7349,4,2,18,14,14,0,0,0.0054,,"[""14a349f7dd1b8f352444141375d3a0df"", ""3c9e602a35d1b2bbc21d767797a7e4f2"", ""79916304538ad0e216c950e6528050ed""]"
4115,242662,Inter American University of Puerto Rico-Ponce,Mercedita,PR,00715-1602,ponce.inter.edu,5011.0,18.007388,-66.578498,0.5294,4,2,22,10,12,0,0,0.0022,,"[""c5e1bbd54f84c3f47c39e590a9eccfdd""]"
623,129525,University of Hartford,West Hartford,CT,06117-1599,www.hartford.edu,5028.0,41.796485,-72.714965,0.6351,4,2,18,13,14,0,0,0.0042,,"[""0f9c3b77a45c7b7faf13c598d1925f9f"", ""3a31a06b87d6e805e3737171270b2acb"", ""67dfa2e41a1ced4ce3489ac76ff66975"", ""caf51f4137ab52fe04d966812bbf8bd8""]"
2764,201645,Case Western Reserve University,Cleveland,OH,44106,www.case.edu,5039.0,41.500811999999996,-81.605769,0.3627,4,2,15,14,17,0,0,0.0006,,"[""19ba19a676c868832ce6f5857d6009b9"", ""93c595202370658320bb120f7aa9fc46"", ""f63ea15571b3debc934aafac25267799""]"
3791,231712,Christopher Newport University,Newport News,VA,23606-3072,cnu.edu/,5040.0,37.059919,-76.48840799999999,0.601,4,1,20,14,14,0,0,0.0036,,"[""4ec0490ae6d3b2a43617ba9de53c4eb3""]"
1864,174358,Minnesota State University Moorhead,Moorhead,MN,56563,www.mnstate.edu/,5045.0,46.866482,-96.763376,0.773,4,1,19,13,13,0,0,0.0071,,"[""e834ab3323064b2a18f47bb73c0086c4""]"
1700,168430,Worcester State University,Worcester,MA,01602-2597,www.worcester.edu,5049.0,42.267534000000005,-71.84401899999999,0.6857,4,1,19,13,13,0,0,0.0034,,"[""c9123ff8973d332a07ca807f63ed6551""]"
3185,213543,Lehigh University,Bethlehem,PA,18015,www.lehigh.edu,5054.0,40.607158,-75.378887,0.3041,4,2,16,14,14,0,0,0.0014,,"[""19ba19a676c868832ce6f5857d6009b9"", ""4a9b0285e952687b405986f1951007f7""]"
652,130776,Western Connecticut State University,Danbury,CT,06810-6826,www.wcsu.edu,5081.0,41.400365,-73.444264,0.5729,4,1,19,13,13,0,0,0.0012,,"[""3c40530ef672a9777b0b7ca19ddaa75b"", ""4a9b0285e952687b405986f1951007f7""]"
2616,198543,Fayetteville State University,Fayetteville,NC,28301-4298,www.uncfsu.edu,5087.0,35.072485,-78.89470899999999,0.6039,4,1,19,7,13,0,0,0.0291,,"[""50edf56d66368e4ed921b726a6c4d213"", ""836cc8d0b2c40ee685613c5623eac3d8"", ""a4f57169cee0acb6a67bd4bc6c10ecf1"", ""f46c78ac8f99d60bd34a7f374d458cfc""]"
3399,218742,University of South Carolina-Upstate,Spartanburg,SC,29303-4999,www.uscupstate.edu,5094.0,34.996403,-81.97058299999999,0.5604,4,1,22,11,12,0,0,0.0027,,"[""7639ca3ea97bd7b15f7b7ebb3d20b2ea"", ""a4f57169cee0acb6a67bd4bc6c10ecf1""]"
642,130253,Sacred Heart University,Fairfield,CT,06825-1000,www.sacredheart.edu,5109.0,41.221548,-73.24461,0.5897,4,2,18,12,14,0,0,0.0014,,"[""3c40530ef672a9777b0b7ca19ddaa75b"", ""4a9b0285e952687b405986f1951007f7""]"
1582,164748,Berklee College of Music,Boston,MA,02215,www.berklee.edu,5112.0,42.346895,-71.08703,0.2881,4,2,30,11,12,0,0,0.0014,,"[""a77db6a813b8e6f32265756291b9302a"", ""ed1ad3408d7b10f52761a4fb57695ad4""]"
356,117140,University of La Verne,La Verne,CA,91750-4401,www.laverne.edu/,5140.0,34.10086,-117.77263400000001,0.4718,4,2,17,9,13,0,0,0.0031,,"[""acf3b3f37dbec4c43881eac7593ba2d2""]"
3129,212160,Edinboro University of Pennsylvania,Edinboro,PA,16444-0001,www.edinboro.edu/,5141.0,41.869978,-80.126363,0.9570000000000001,4,1,18,11,14,0,0,0.0021,,"[""19ba19a676c868832ce6f5857d6009b9"", ""f63ea15571b3debc934aafac25267799""]"
1150,151342,Indiana University-South Bend,South Bend,IN,46634-7111,https://iusb.edu/,5165.0,41.665746,-86.22295799999999,0.7621,4,1,19,7,12,0,0,0.0023,,"[""19ba19a676c868832ce6f5857d6009b9"", ""5c97aa2bdef5e8752104ee6c48fe0853"", ""93c595202370658320bb120f7aa9fc46""]"
2001,178341,Missouri Southern State University,Joplin,MO,64801-1595,www.mssu.edu,5202.0,37.095721999999995,-94.460893,0.9413,4,1,22,9,12,0,0,0.0321,,"[""189cfaa20f0eb5e43d34b1972b9270ed""]"
2422,192819,Marist College,Poughkeepsie,NY,12601,www.Marist.edu,5206.0,41.721955,-73.934342,0.4496,4,2,18,14,14,0,0,0.0013,,"[""061864fdd6d72b417a8628ce465dec92"", ""19ba19a676c868832ce6f5857d6009b9"", ""4a9b0285e952687b405986f1951007f7""]"
1468,160621,Southern University and A & M College,Baton Rouge,LA,70813,www.subr.edu,5226.0,30.524558000000003,-91.190105,0.7856,4,1,18,11,13,0,0,0.0031,,"[""3db77b6e93bd15601dd8750b9eaa6add""]"
1153,151379,Indiana University-Southeast,New Albany,IN,47150,https://ius.edu/,5228.0,38.342991999999995,-85.819376,0.8456,4,1,18,7,12,0,0,0.0013,,"[""189cfaa20f0eb5e43d34b1972b9270ed"", ""19ba19a676c868832ce6f5857d6009b9"", ""1d5e456931db024b1c874a16dce0ce1b"", ""5c97aa2bdef5e8752104ee6c48fe0853""]"
1691,168148,Tufts University,Medford,MA,02155-5555,www.tufts.edu,5236.0,42.406994,-71.121689,0.161,4,2,15,14,17,0,0,0.0004,,"[""ed1ad3408d7b10f52761a4fb57695ad4""]"
700,133553,Embry-Riddle Aeronautical University-Daytona Beach,Daytona Beach,FL,32114-3900,daytonabeach.erau.edu/,5247.0,29.189244,-81.0495,0.6895,4,2,19,14,13,0,0,0.0034,,"[""17f000b591d77a210adc52a0895ae256""]"
3282,215770,Saint Joseph's University,Philadelphia,PA,19131-1395,www.sju.edu,5248.0,39.994442,-75.238343,0.8185,4,2,18,14,14,0,0,0.0011,,"[""4a9b0285e952687b405986f1951007f7""]"
1448,159966,Nicholls State University,Thibodaux,LA,70310,www.nicholls.edu,5254.0,29.792689000000003,-90.80290600000001,0.902,4,1,19,12,12,0,0,0.0196,,"[""3db77b6e93bd15601dd8750b9eaa6add""]"
2217,186131,Princeton University,Princeton,NJ,08544-0070,www.princeton.edu,5260.0,40.34853,-74.66360300000001,0.0714,4,2,15,14,14,0,0,0.0011,,"[""4a9b0285e952687b405986f1951007f7""]"
2536,196246,SUNY College at Plattsburgh,Plattsburgh,NY,12901-2681,www.plattsburgh.edu,5272.0,44.691103000000005,-73.467342,0.4969,4,1,18,13,13,0,0,0.004,,"[""19ba19a676c868832ce6f5857d6009b9"", ""d9508a2edf4f8abe6f02d454c3768838""]"
4059,240471,University of Wisconsin-River Falls,River Falls,WI,54022-5001,www.uwrf.edu,5286.0,44.852647,-92.625316,0.8978,4,1,19,13,13,0,0,0.0019,,"[""7e30edf6ace00ddf13dd8e09947db500""]"
3635,226833,Midwestern State University,Wichita Falls,TX,76308-2099,www.mwsu.edu,5287.0,33.877143,-98.51774,0.76,4,1,19,9,13,0,0,0.0064,,"[""2b138b83575305cdd623a27b405ee7e5"", ""54fd1211f20900fb911ee8ce968d6304""]"
2014,178624,Northwest Missouri State University,Maryville,MO,64468-6001,www.nwmissouri.edu,5288.0,40.352706,-94.884341,0.7495,4,1,18,12,13,0,0,0.0032,,"[""189cfaa20f0eb5e43d34b1972b9270ed"", ""2fe6b23b2fbe281d0e79840b83c217e5"", ""f17079a760b5d34e9024e678c745ea78""]"
2013,178615,Truman State University,Kirksville,MO,63501-4221,www.truman.edu,5290.0,40.188238,-92.58053100000001,0.7897,4,1,19,14,13,0,0,0.0008,,"[""0491f976864a170c692ef2a166034c97"", ""189cfaa20f0eb5e43d34b1972b9270ed""]"
3546,222831,Angelo State University,San Angelo,TX,76909,www.angelo.edu,5325.0,31.44145,-100.466495,0.7672,4,1,19,11,12,0,0,0.0032,,"[""2b138b83575305cdd623a27b405ee7e5""]"
483,122931,Santa Clara University,Santa Clara,CA,95053,www.scu.edu,5344.0,37.352706,-121.938189,0.488,4,2,18,14,14,0,0,0.0009,,"[""23540e1ecf47fae43de6f2090c69e2aa"", ""a90d3bfb7b242b82fe94437be1101092""]"
1689,168005,Suffolk University,Boston,MA,02108-2770,www.suffolk.edu,5352.0,42.359134000000005,-71.06192,0.8237,4,2,18,13,12,0,0,0.0019,,"[""a77db6a813b8e6f32265756291b9302a"", ""ed1ad3408d7b10f52761a4fb57695ad4""]"
1501,161554,University of Southern Maine,Portland,ME,04103,www.usm.maine.edu,5359.0,43.662637,-70.276002,0.8777,4,1,18,9,12,0,0,0.0084,,"[""2df165e09bd2d7c035936c3e6978724a"", ""d9508a2edf4f8abe6f02d454c3768838""]"
3601,225414,University of Houston-Clear Lake,Houston,TX,77058-1002,www.uhcl.edu/home,5403.0,29.582523,-95.098129,0.6538,4,1,18,5,12,0,0,0.0024,,[]
2219,186201,Ramapo College of New Jersey,Mahwah,NJ,07430-1680,www.ramapo.edu,5425.0,41.007523,-74.116384,0.5324,4,1,19,13,13,0,0,0.0037,,"[""19ba19a676c868832ce6f5857d6009b9"", ""4a9b0285e952687b405986f1951007f7""]"
4089,241410,Pontifical Catholic University of Puerto Rico-Ponce,Ponce,PR,00717-9997,www.pucpr.edu,5427.0,18.000652,-66.61763,0.7677,4,2,17,10,12,0,0,0.0,,"[""c5e1bbd54f84c3f47c39e590a9eccfdd""]"
62,102614,University of Alaska Fairbanks,Fairbanks,AK,99775-7500,www.uaf.edu,5432.0,64.856483,-147.82294299999998,0.731,4,1,16,9,13,0,1,0.136,,"[""64fb4adfc45479f8cccfac4e600ca68f""]"
1695,168263,Westfield State University,Westfield,MA,01086-1630,www.westfield.ma.edu,5459.0,42.131589,-72.795673,0.7961,4,1,19,13,14,0,0,0.0024,,"[""92e0d6065757df7879cfa315280b82b6"", ""ddd44330b3abfeabf49632f0e4cb0e09""]"
4048,240277,University of Wisconsin-Green Bay,Green Bay,WI,54311-7001,www.uwgb.edu,5502.0,44.531102000000004,-87.92049899999999,0.847,4,1,20,9,13,0,0,0.0122,,"[""5383948cbc0e947d9efd873b7f97617a"", ""5c97aa2bdef5e8752104ee6c48fe0853"", ""93c595202370658320bb120f7aa9fc46""]"
2666,199281,University of North Carolina at Pembroke,Pembroke,NC,28372-1510,www.uncp.edu,5508.0,34.687231,-79.201895,0.7437,4,1,19,11,13,0,1,0.1521,,"[""50edf56d66368e4ed921b726a6c4d213"", ""a4f57169cee0acb6a67bd4bc6c10ecf1"", ""f46c78ac8f99d60bd34a7f374d458cfc""]"
653,130794,Yale University,New Haven,CT,06520,www.yale.edu,5528.0,41.311158,-72.926688,0.0673,4,2,15,14,17,0,0,0.0062,,"[""3c40530ef672a9777b0b7ca19ddaa75b"", ""66eed3bcd0ede65a596ff517472c744b""]"
2528,196167,SUNY College at Geneseo,Geneseo,NY,14454-1465,www.geneseo.edu/,5548.0,42.796864,-77.821999,0.7274,4,1,20,15,14,0,0,0.0022,,"[""19ba19a676c868832ce6f5857d6009b9"", ""f63ea15571b3debc934aafac25267799""]"
467,122436,University of San Diego,San Diego,CA,92110-2492,www.sandiego.edu,5551.0,32.77142,-117.188721,0.5168,4,2,17,15,13,0,0,0.0047,,"[""f29d9e2484be90ae59cd10ac88712cd1""]"
1765,171128,Michigan Technological University,Houghton,MI,49931-1295,www.mtu.edu,5623.0,47.1183,-88.546403,0.7544,4,1,16,14,13,0,0,0.0037,,"[""7e30edf6ace00ddf13dd8e09947db500""]"
3697,228705,Texas A & M University-Kingsville,Kingsville,TX,78363,WWW.TAMUK.EDU,5630.0,27.524852000000003,-97.88234200000001,0.8237,4,1,17,7,13,0,0,0.0011,,"[""9cad11ef06f0c9e6523baa0e377b3d06""]"
39,101879,University of North Alabama,Florence,AL,35632-0001,www.una.edu,5698.0,34.80658,-87.680999,0.58,4,1,18,13,12,0,0,0.0104,,"[""3db77b6e93bd15601dd8750b9eaa6add"", ""7639ca3ea97bd7b15f7b7ebb3d20b2ea""]"
1327,155681,Pittsburg State University,Pittsburg,KS,66762,www.pittstate.edu,5700.0,37.3913,-94.704782,0.8135,4,1,18,13,12,0,0,0.0146,,"[""189cfaa20f0eb5e43d34b1972b9270ed""]"
3103,211361,California University of Pennsylvania,California,PA,15419-1394,www.calu.edu,5715.0,40.066472999999995,-79.884477,0.8493,4,1,18,11,13,0,0,0.0023,,"[""189cfaa20f0eb5e43d34b1972b9270ed"", ""19ba19a676c868832ce6f5857d6009b9"", ""f63ea15571b3debc934aafac25267799""]"
188,108092,University of Arkansas-Fort Smith,Fort Smith,AR,72913-3649,uafs.edu/,5754.0,35.385345,-94.374073,0.5581,3,1,23,7,12,0,0,0.0249,,"[""189cfaa20f0eb5e43d34b1972b9270ed"", ""3db77b6e93bd15601dd8750b9eaa6add"", ""889a46697fcb74fe7762130797f11df5""]"
567,127060,University of Denver,Denver,CO,80208,www.du.edu,5758.0,39.695954,-104.964625,0.7275,4,2,16,14,13,0,0,0.0033,,"[""595617f81d7c04fe70726f9601b45f29"", ""a4bc7c5d2586d2d0fc473ba771ae3b98""]"
1724,169479,Davenport University,Grand Rapids,MI,49512-9396,www.davenport.edu,5774.0,42.849713,-85.529655,0.8923,4,2,19,5,12,0,0,0.0047,,"[""19ba19a676c868832ce6f5857d6009b9""]"
2481,194824,Rensselaer Polytechnic Institute,Troy,NY,12180-3590,www.rpi.edu,5781.0,42.728983,-73.678768,0.4187,4,2,15,14,14,0,0,0.0014,,"[""061864fdd6d72b417a8628ce465dec92""]"
2659,199157,North Carolina Central University,Durham,NC,27707,www.nccu.edu,5797.0,35.974237,-78.898602,0.6587,4,1,18,11,13,0,0,0.004,,"[""836cc8d0b2c40ee685613c5623eac3d8"", ""a4f57169cee0acb6a67bd4bc6c10ecf1""]"
2230,186584,Seton Hall University,South Orange,NJ,07079-2697,www.shu.edu,5818.0,40.742859,-74.24875300000001,0.7625,4,2,17,14,13,0,0,0.0017,,"[""4a9b0285e952687b405986f1951007f7""]"
2530,196185,SUNY Oneonta,Oneonta,NY,13820-4015,www.oneonta.edu,5825.0,42.466555,-75.06418599999999,0.4872,4,1,20,15,14,0,0,0.0019,,"[""19ba19a676c868832ce6f5857d6009b9""]"
3,100706,University of Alabama in Huntsville,Huntsville,AL,35899,www.uah.edu,5829.0,34.722818,-86.63842,0.812,4,1,15,9,12,0,0,0.013000000000000001,,"[""3db77b6e93bd15601dd8750b9eaa6add"", ""7639ca3ea97bd7b15f7b7ebb3d20b2ea"", ""c8210c4dc0690a308150ecbd7ad039c2""]"
1533,162928,Johns Hopkins University,Baltimore,MD,21218-2688,www.jhu.edu,5862.0,39.328379999999996,-76.620799,0.1412,4,2,15,14,17,0,0,0.0015,,"[""343052679408b2c8ca3c9e5bbfc496d5""]"
965,144050,University of Chicago,Chicago,IL,60637,WWW.UCHICAGO.EDU,5869.0,41.78917,-87.601196,0.0838,4,2,15,14,17,0,0,0.0024,,"[""5c97aa2bdef5e8752104ee6c48fe0853"", ""93c595202370658320bb120f7aa9fc46""]"
207,109785,Azusa Pacific University,Azusa,CA,91702-7000,www.apu.edu,5883.0,34.130865,-117.88795,0.809,4,2,17,13,14,0,0,0.0012,,"[""acf3b3f37dbec4c43881eac7593ba2d2""]"
2614,198516,Elon University,Elon,NC,27244-2010,www.elon.edu,5903.0,36.104149,-79.50563199999999,0.5720000000000001,4,2,20,14,14,0,0,0.0025,,"[""a4f57169cee0acb6a67bd4bc6c10ecf1""]"
850,139311,Clayton  State University,Morrow,GA,30260-0285,www.clayton.edu,5920.0,33.594079,-84.328174,0.3857,4,1,22,5,12,0,0,0.0019,,"[""3db77b6e93bd15601dd8750b9eaa6add"", ""65e2b5937d3213af618235db3d0d0862""]"
3446,219709,Belmont University,Nashville,TN,37212-3757,www.belmont.edu,5933.0,36.133866,-86.794715,0.8029,4,2,18,15,14,0,0,0.0032,,"[""1d5e456931db024b1c874a16dce0ce1b"", ""3db77b6e93bd15601dd8750b9eaa6add"", ""7639ca3ea97bd7b15f7b7ebb3d20b2ea""]"
867,139861,Georgia College and State University,Milledgeville,GA,31061,www.gcsu.edu/,5933.0,33.082786999999996,-83.231962,0.7566,4,1,18,14,13,0,0,0.0017,,"[""3db77b6e93bd15601dd8750b9eaa6add"", ""65e2b5937d3213af618235db3d0d0862""]"
3126,212106,Duquesne University,Pittsburgh,PA,15282,www.duq.edu,5943.0,40.437496,-79.99304599999999,0.7563,4,2,16,14,14,0,0,0.0005,,"[""189cfaa20f0eb5e43d34b1972b9270ed"", ""19ba19a676c868832ce6f5857d6009b9"", ""f63ea15571b3debc934aafac25267799""]"
3291,216010,Shippensburg University of Pennsylvania,Shippensburg,PA,17257-2299,www.ship.edu/,5953.0,40.057404999999996,-77.5229,0.8914,4,1,18,12,13,0,0,0.0015,,"[""19ba19a676c868832ce6f5857d6009b9"", ""cfaa9067fdb1a8acbd533c38a5dce783"", ""f63ea15571b3debc934aafac25267799""]"
1449,159993,University of Louisiana at Monroe,Monroe,LA,71209-0000,www.ulm.edu,5957.0,32.527957,-92.07385500000001,0.8765,4,1,18,11,13,0,0,0.0045,,"[""189cfaa20f0eb5e43d34b1972b9270ed"", ""3db77b6e93bd15601dd8750b9eaa6add""]"
3106,211440,Carnegie Mellon University,Pittsburgh,PA,15213-3890,www.cmu.edu/,5964.0,40.444615999999996,-79.942914,0.2372,4,2,15,14,17,0,0,0.001,,"[""189cfaa20f0eb5e43d34b1972b9270ed"", ""19ba19a676c868832ce6f5857d6009b9"", ""f63ea15571b3debc934aafac25267799""]"
2549,196592,Touro College,New York,NY,10018,legacy.touro.edu,5965.0,40.753479999999996,-73.98969100000001,0.3412,4,2,18,11,12,0,0,0.002,,"[""4a9b0285e952687b405986f1951007f7""]"
3750,230603,Southern Utah University,Cedar City,UT,84720,https://www.suu.edu/,5977.0,37.674617,-113.070146,0.7214,4,1,18,13,12,0,0,0.0137,,"[""e1b28fe1f115faee195abc1238993ec4""]"
3526,221768,The University of Tennessee-Martin,Martin,TN,38238,www.utm.edu,5988.0,36.340338,-88.864211,0.6965,4,1,19,13,13,0,0,0.0013,,"[""3db77b6e93bd15601dd8750b9eaa6add""]"
2076,180814,Bellevue University,Bellevue,NE,68005-3098,www.bellevue.edu,6002.0,41.150225,-95.91764,,4,2,18,11,12,0,0,0.0055,,"[""f17079a760b5d34e9024e678c745ea78""]"
3703,228802,The University of Texas at Tyler,Tyler,TX,75799-6699,www.uttyler.edu/,6059.0,32.314724,-95.249096,0.6447,4,1,18,9,13,0,0,0.0033,,"[""889a46697fcb74fe7762130797f11df5""]"
1887,174914,University of St Thomas,Saint Paul,MN,55105-1078,www.stthomas.edu,6076.0,44.941662,-93.189422,0.8396,4,2,17,10,13,0,0,0.0016,,"[""7e30edf6ace00ddf13dd8e09947db500""]"
3127,212115,East Stroudsburg University of Pennsylvania,East Stroudsburg,PA,18301-2999,www4.esu.edu/,6105.0,40.99622,-75.172614,0.8404,4,1,18,11,13,0,0,0.0015,,"[""19ba19a676c868832ce6f5857d6009b9"", ""4a9b0285e952687b405986f1951007f7""]"
2485,195030,University of Rochester,Rochester,NY,14627-0011,www.rochester.edu,6125.0,43.126437,-77.63104200000001,0.3382,4,2,15,14,14,0,0,0.002,,"[""19ba19a676c868832ce6f5857d6009b9""]"
380,117946,Loyola Marymount University,Los Angeles,CA,90045-2659,www.lmu.edu,6162.0,33.970633,-118.415655,0.5078,4,2,18,15,14,0,0,0.0015,,"[""acf3b3f37dbec4c43881eac7593ba2d2""]"
829,138789,Armstrong State University,Savannah,GA,31419-1997,www.armstrong.edu,6184.0,31.978109000000003,-81.160409,0.7395,4,1,18,9,12,0,0,0.0023,,"[""65e2b5937d3213af618235db3d0d0862""]"
1447,159939,University of New Orleans,New Orleans,LA,70148,www.uno.edu,6185.0,30.028539000000002,-90.068506,0.5766,4,1,16,9,12,0,0,0.0032,,"[""3db77b6e93bd15601dd8750b9eaa6add""]"
2194,185129,New Jersey City University,Jersey City,NJ,07305,www.njcu.edu,6201.0,40.709937,-74.08726999999999,0.8673,4,1,18,7,12,0,0,0.0027,,"[""4a9b0285e952687b405986f1951007f7""]"
3438,219471,University of South Dakota,Vermillion,SD,57069-2390,WWW.USD.EDU,6205.0,42.784558000000004,-96.924664,0.7354,4,1,16,9,13,0,0,0.0171,,"[""dfd83e5a9d56cb46021241b2fc7985d1"", ""e834ab3323064b2a18f47bb73c0086c4""]"
3609,225627,University of the Incarnate Word,San Antonio,TX,78209,www.uiw.edu,6249.0,29.468052,-98.467709,0.9222,4,2,18,7,12,0,0,0.003,,[]
1767,171146,University of Michigan-Flint,Flint,MI,48502-1950,www.umflint.edu,6255.0,43.018777,-83.688474,0.7358,4,1,18,9,12,0,0,0.0075,,"[""19ba19a676c868832ce6f5857d6009b9"", ""536f31a6e26dfcc840b99c4f49f10829"", ""7e30edf6ace00ddf13dd8e09947db500""]"
2357,190646,CUNY Medgar Evers College,Brooklyn,NY,11225,www.mec.cuny.edu,6257.0,40.666256,-73.957076,0.9916,3,1,23,7,12,0,0,0.0026,,"[""2db0527a5564fbd1b0553ab28ce6379e"", ""4a9b0285e952687b405986f1951007f7""]"
3787,231624,College of William and Mary,Williamsburg,VA,23187-8795,www.wm.edu,6260.0,37.271997,-76.709417,0.3446,4,1,16,14,14,0,0,0.0014,,"[""4ec0490ae6d3b2a43617ba9de53c4eb3""]"
2526,196149,SUNY Cortland,Cortland,NY,13045-0900,www2.cortland.edu,6276.0,42.590158,-76.197909,0.5084,4,1,18,13,14,0,0,0.0013,,"[""19ba19a676c868832ce6f5857d6009b9""]"
2398,191968,Ithaca College,Ithaca,NY,14850-7002,www.ithaca.edu,6279.0,42.42264,-76.49505699999999,0.6703,4,2,18,14,14,0,0,0.001,,"[""19ba19a676c868832ce6f5857d6009b9"", ""cfaa9067fdb1a8acbd533c38a5dce783""]"
271,111948,Chapman University,Orange,CA,92866,www.chapman.edu,6281.0,33.793678,-117.851481,0.4758,4,2,18,15,13,0,0,0.0027,,"[""acf3b3f37dbec4c43881eac7593ba2d2""]"
1547,163453,Morgan State University,Baltimore,MD,21251-0001,www.morgan.edu,6294.0,39.344235,-76.584238,0.6672,4,1,17,11,13,0,0,0.0025,,"[""343052679408b2c8ca3c9e5bbfc496d5""]"
3334,217156,Brown University,Providence,RI,02912,www.brown.edu,6320.0,41.827605,-71.40446700000001,0.0949,4,2,15,14,14,0,0,0.0043,,"[""779f577a99cc550227c6af27fef6f12f"", ""ed1ad3408d7b10f52761a4fb57695ad4""]"
3680,228246,Southern Methodist University,Dallas,TX,75275-0221,www.smu.edu,6348.0,32.845254,-96.78485500000001,0.4895,4,2,16,14,14,0,0,0.0036,,[]
3622,226152,Texas A & M International University,Laredo,TX,78041-1900,www.tamiu.edu/,6349.0,27.573503999999996,-99.435225,0.4801,4,1,18,7,12,0,0,0.0005,,"[""9cad11ef06f0c9e6523baa0e377b3d06""]"
4114,242653,Inter American University of Puerto Rico-Metro,San Juan,PR,00919,www.metro.inter.edu/index.asp,6350.0,18.368988,-66.077711,0.1952,4,2,17,11,12,0,0,0.0027,,"[""c5e1bbd54f84c3f47c39e590a9eccfdd""]"
4717,409698,California State University-Monterey Bay,Seaside,CA,93955-8001,www.csumb.edu,6408.0,36.653724,-121.79921599999999,0.4869,4,1,20,11,13,0,0,0.0039,,"[""17c4f02ac7887f86985b9bfcc84d435d"", ""a90d3bfb7b242b82fe94437be1101092"", ""bd9c28d2ef06c76d8825f29493324b2c""]"
2427,193016,Mercy College,Dobbs Ferry,NY,10522,https://www.mercy.edu,6410.0,41.021436,-73.874571,0.6569,4,2,18,7,12,0,0,0.0019,,"[""4a9b0285e952687b405986f1951007f7""]"
2529,196176,State University of New York at New Paltz,New Paltz,NY,12561-2443,www.newpaltz.edu,6498.0,41.737204999999996,-74.088727,0.4151,4,1,18,15,13,0,0,0.0015,,"[""19ba19a676c868832ce6f5857d6009b9"", ""4a9b0285e952687b405986f1951007f7""]"
2609,198419,Duke University,Durham,NC,27708,WWW.DUKE.EDU,6501.0,36.00159,-78.94226,0.1142,4,2,15,14,17,0,0,0.0068,,"[""836cc8d0b2c40ee685613c5623eac3d8"", ""a4f57169cee0acb6a67bd4bc6c10ecf1""]"
1446,159717,McNeese State University,Lake Charles,LA,70605,www.mcneese.edu,6511.0,30.180761999999998,-93.215648,0.8205,4,1,18,13,12,0,0,0.0051,,[]
2239,187134,The College of New Jersey,Ewing,NJ,08628-7718,www.tcnj.edu,6590.0,40.268741999999996,-74.777412,0.4867,4,1,18,14,14,0,0,0.0026,,"[""4a9b0285e952687b405986f1951007f7""]"
220,110361,California Baptist University,Riverside,CA,92504-3297,www.calbaptist.edu,6604.0,33.928569,-117.42586999999999,0.6541,4,2,18,11,13,0,0,0.0061,,"[""52b961c1d218b20303fe010451eaed70"", ""acf3b3f37dbec4c43881eac7593ba2d2"", ""fb087e8c2a215391c5f6461968ee171c""]"
26,101480,Jacksonville State University,Jacksonville,AL,36265,www.jsu.edu/,6625.0,33.822128,-85.766644,0.6665,4,1,18,13,13,0,0,0.0075,,"[""3db77b6e93bd15601dd8750b9eaa6add"", ""65e2b5937d3213af618235db3d0d0862""]"
472,122612,University of San Francisco,San Francisco,CA,94117-1080,https://www.usfca.edu,6682.0,37.775564,-122.45097700000001,0.6436,4,2,17,15,16,0,0,0.0027,,"[""1e5e11124e896b3baea07044c58b8260"", ""a90d3bfb7b242b82fe94437be1101092""]"
3712,229063,Texas Southern University,Houston,TX,77004,www.tsu.edu,6696.0,29.722468,-95.361961,0.509,4,1,17,11,12,0,0,0.0099,,[]
2390,191649,Hofstra University,Hempstead,NY,11549,www.hofstra.edu,6716.0,40.715959000000005,-73.60078,0.6106,4,2,17,14,13,0,0,0.0042,,"[""ace4f71fdfbc99a51d87779edd9ed65e""]"
853,139366,Columbus State University,Columbus,GA,31907-5645,www.columbusstate.edu,6743.0,32.501556,-84.94079599999999,0.5569,4,1,18,7,12,0,0,0.0034,,"[""3db77b6e93bd15601dd8750b9eaa6add"", ""65e2b5937d3213af618235db3d0d0862""]"
2006,178411,Missouri University of Science and Technology,Rolla,MO,65409,www.mst.edu/,6747.0,37.955853000000005,-91.7759,0.8808,4,1,16,15,13,0,0,0.0037,,"[""189cfaa20f0eb5e43d34b1972b9270ed""]"
2447,193654,The New School,New York,NY,10011-8603,www.newschool.edu/,6752.0,40.735275,-73.994636,0.6662,4,2,17,15,13,0,0,0.0007,,"[""4a9b0285e952687b405986f1951007f7""]"
861,139658,Emory University,Atlanta,GA,30322,www.emory.edu,6770.0,33.798836,-84.32578199999999,0.2367,4,2,15,14,17,0,0,0.0016,,"[""3db77b6e93bd15601dd8750b9eaa6add"", ""65e2b5937d3213af618235db3d0d0862""]"
1146,151290,Indiana Institute of Technology,Fort Wayne,IN,46803-1228,www.indianatech.edu,6783.0,41.078338,-85.11795,0.696,4,2,29,7,12,0,0,0.0025,,"[""19ba19a676c868832ce6f5857d6009b9"", ""5c97aa2bdef5e8752104ee6c48fe0853"", ""93c595202370658320bb120f7aa9fc46""]"
2966,207263,Northeastern State University,Tahlequah,OK,74464-2399,www.nsuok.edu,6788.0,35.920499,-94.968528,0.9275,4,1,18,9,12,0,1,0.19,,"[""189cfaa20f0eb5e43d34b1972b9270ed"", ""3db77b6e93bd15601dd8750b9eaa6add"", ""889a46697fcb74fe7762130797f11df5"", ""c797c1122d3f8d407588129887aba1aa""]"
670,131520,Howard University,Washington,DC,20059-0001,www.howard.edu,6796.0,38.920739000000005,-77.019478,0.4904,4,2,16,12,14,0,0,0.0074,,"[""343052679408b2c8ca3c9e5bbfc496d5"", ""c82ba38461590c1a2192a4ade984b598""]"
3316,216597,Villanova University,Villanova,PA,19085-1699,www.villanova.edu,6835.0,40.039388,-75.345457,0.4789,4,2,18,14,14,0,0,0.0004,,"[""4a9b0285e952687b405986f1951007f7""]"
1452,160038,Northwestern State University of Louisiana,Natchitoches,LA,71497-0002,www.nsula.edu/,6836.0,31.750675,-93.09771500000001,0.8397,4,1,18,9,12,0,0,0.0151,,"[""020de0a8383a5f2d1f622d5c06c6aa75"", ""189cfaa20f0eb5e43d34b1972b9270ed"", ""3db77b6e93bd15601dd8750b9eaa6add"", ""889a46697fcb74fe7762130797f11df5""]"
1766,171137,University of Michigan-Dearborn,Dearborn,MI,48128-1491,umdearborn.edu/,6845.0,42.317287,-83.23141700000001,0.6227,4,1,18,7,12,0,0,0.0045,,"[""19ba19a676c868832ce6f5857d6009b9"", ""536f31a6e26dfcc840b99c4f49f10829"", ""5c97aa2bdef5e8752104ee6c48fe0853"", ""7e30edf6ace00ddf13dd8e09947db500"", ""93c595202370658320bb120f7aa9fc46""]"
3536,221999,Vanderbilt University,Nashville,TN,37240,www.vanderbilt.edu,6857.0,36.14443,-86.804875,0.1168,4,2,15,14,17,0,0,0.0038,,"[""1d5e456931db024b1c874a16dce0ce1b"", ""3db77b6e93bd15601dd8750b9eaa6add"", ""7639ca3ea97bd7b15f7b7ebb3d20b2ea""]"
3660,227526,Prairie View A & M University,Prairie View,TX,77446,www.pvamu.edu,6925.0,30.094590999999998,-95.99206600000001,0.8595,4,1,18,11,13,0,0,0.0019,,[]
641,130226,Quinnipiac University,Hamden,CT,06518,www.quinnipiac.edu,6931.0,41.419527,-72.895542,0.7371,4,2,18,14,14,0,0,0.0013,,"[""66eed3bcd0ede65a596ff517472c744b""]"
3204,214041,Millersville University of Pennsylvania,Millersville,PA,17551-0302,www.millersville.edu,6952.0,39.998129999999996,-76.355091,0.7305,4,1,18,13,13,0,0,0.0014,,"[""19ba19a676c868832ce6f5857d6009b9"", ""cfaa9067fdb1a8acbd533c38a5dce783""]"
4150,243744,Stanford University,Stanford,CA,94305,www.stanford.edu/,6994.0,37.426967,-122.168826,0.0504,4,2,15,14,17,0,0,0.0102,,"[""1e5e11124e896b3baea07044c58b8260"", ""a90d3bfb7b242b82fe94437be1101092""]"
2524,196121,SUNY College at Brockport,Brockport,NY,14420-2919,www.brockport.edu,6997.0,43.209862,-77.94982399999999,0.5267,4,1,18,13,13,0,0,0.0021,,"[""19ba19a676c868832ce6f5857d6009b9""]"
2044,179867,Washington University in St Louis,Saint Louis,MO,63130-4899,www.wustl.edu,7032.0,38.648125,-90.311639,0.1674,4,2,15,14,17,0,0,0.0007,,"[""189cfaa20f0eb5e43d34b1972b9270ed"", ""19ba19a676c868832ce6f5857d6009b9"", ""3db77b6e93bd15601dd8750b9eaa6add"", ""5c97aa2bdef5e8752104ee6c48fe0853""]"
1383,157386,Morehead State University,Morehead,KY,40351,www.moreheadstate.edu,7038.0,38.188462,-83.429742,0.8539,4,1,18,13,14,0,0,0.0014,,"[""189cfaa20f0eb5e43d34b1972b9270ed"", ""19ba19a676c868832ce6f5857d6009b9"", ""1d5e456931db024b1c874a16dce0ce1b"", ""7639ca3ea97bd7b15f7b7ebb3d20b2ea""]"
2531,196194,SUNY College at Oswego,Oswego,NY,13126,www.oswego.edu/,7046.0,43.453047,-76.543885,0.5101,4,1,18,15,14,0,0,0.0013,,"[""19ba19a676c868832ce6f5857d6009b9""]"
2210,185828,New Jersey Institute of Technology,Newark,NJ,07102,www.njit.edu/,7049.0,40.741997,-74.177113,0.6076,4,1,16,15,12,0,0,0.0006,,"[""4a9b0285e952687b405986f1951007f7""]"
1687,167987,University of Massachusetts-Dartmouth,North Dartmouth,MA,02747-2300,www.umassd.edu,7054.0,41.628861,-71.005528,0.7626,4,1,18,13,14,0,0,0.0024,,"[""ed1ad3408d7b10f52761a4fb57695ad4""]"
805,137847,The University of Tampa,Tampa,FL,33606-1490,www.ut.edu,7061.0,27.947225,-82.465582,0.5074,4,2,18,15,14,0,0,0.0027,,"[""17f000b591d77a210adc52a0895ae256"", ""816cc45dc56caf067c6f50b383fca5d0""]"
983,144892,Eastern Illinois University,Charleston,IL,61920,https://www.eiu.edu/,7063.0,39.483017,-88.175505,0.5021,4,1,18,13,13,0,0,0.0023,,"[""19ba19a676c868832ce6f5857d6009b9"", ""5c97aa2bdef5e8752104ee6c48fe0853""]"
1679,167729,Salem State University,Salem,MA,01970,www.salemstate.edu,7091.0,42.502879,-70.889321,0.7490000000000001,4,1,18,13,13,0,0,0.0021,,"[""ed1ad3408d7b10f52761a4fb57695ad4""]"
669,131496,Georgetown University,Washington,DC,20057-0001,www.georgetown.edu,7168.0,38.908809000000005,-77.073463,0.1724,4,2,15,14,17,0,0,0.0006,,"[""c82ba38461590c1a2192a4ade984b598""]"
3341,217420,Rhode Island College,Providence,RI,02908,www.ric.edu,7216.0,41.842659999999995,-71.466915,0.7162,4,1,18,7,12,0,0,0.0046,,"[""779f577a99cc550227c6af27fef6f12f"", ""ed1ad3408d7b10f52761a4fb57695ad4""]"
1178,152248,Purdue University-Calumet Campus,Hammond,IN,46323-2094,www.pnw.edu/,7242.0,41.584742,-87.47376,0.6463,4,1,18,7,12,0,0,0.0028,,"[""19ba19a676c868832ce6f5857d6009b9"", ""5c97aa2bdef5e8752104ee6c48fe0853"", ""93c595202370658320bb120f7aa9fc46""]"
1851,174020,Metropolitan State University,Saint Paul,MN,55106-5000,www.metrostate.edu,7244.0,44.957017,-93.07415300000001,1.0,4,1,19,5,12,0,0,0.008,,"[""7e30edf6ace00ddf13dd8e09947db500""]"
3529,221838,Tennessee State University,Nashville,TN,37209-1561,www.tnstate.edu,7255.0,36.16899,-86.82937,,4,1,17,11,13,0,0,0.0017,,"[""1d5e456931db024b1c874a16dce0ce1b"", ""3db77b6e93bd15601dd8750b9eaa6add"", ""7639ca3ea97bd7b15f7b7ebb3d20b2ea""]"
2362,190691,CUNY York College,Jamaica,NY,11451,www.york.cuny.edu,7264.0,40.702661,-73.794586,0.405,4,1,22,7,12,0,0,0.01,,"[""ef0a1f234837da80573def7258ff2bf6""]"
3728,229814,West Texas A & M University,Canyon,TX,79016-0001,www.wtamu.edu,7266.0,34.981996,-101.9158,0.6689,4,1,18,7,13,0,0,0.0051,,"[""2b138b83575305cdd623a27b405ee7e5""]"
1775,171456,Northern Michigan University,Marquette,MI,49855,www.nmu.edu,7278.0,46.558037,-87.40385699999999,0.6988,4,1,19,13,13,0,0,0.021,,"[""7e30edf6ace00ddf13dd8e09947db500""]"
663,131159,American University,Washington,DC,20016-8001,WWW.AMERICAN.EDU,7300.0,38.937802000000005,-77.090106,0.3502,4,2,17,14,16,0,0,0.001,,"[""343052679408b2c8ca3c9e5bbfc496d5"", ""c82ba38461590c1a2192a4ade984b598""]"
1621,166027,Harvard University,Cambridge,MA,02138,www.harvard.edu,7333.0,42.374429,-71.118177,0.0558,4,2,15,14,17,0,0,0.0025,,"[""a77db6a813b8e6f32265756291b9302a"", ""ed1ad3408d7b10f52761a4fb57695ad4""]"
1918,175856,Jackson State University,Jackson,MS,39217,www.jsums.edu,7436.0,32.296781,-90.20663,0.6752,4,1,16,11,13,0,0,0.0036,,"[""020de0a8383a5f2d1f622d5c06c6aa75"", ""3db77b6e93bd15601dd8750b9eaa6add"", ""9cfa50165033586c4e2b7e353fbd1318""]"
3292,216038,Slippery Rock University of Pennsylvania,Slippery Rock,PA,16057-1383,www.sru.edu,7461.0,41.060814,-80.05181400000001,0.6836,4,1,18,13,13,0,0,0.0017,,"[""189cfaa20f0eb5e43d34b1972b9270ed"", ""19ba19a676c868832ce6f5857d6009b9"", ""f63ea15571b3debc934aafac25267799""]"
2025,179159,Saint Louis University,Saint Louis,MO,63103-2097,www.slu.edu,7502.0,38.636516,-90.23343,0.6333,4,2,16,15,17,0,0,0.0007,,"[""189cfaa20f0eb5e43d34b1972b9270ed"", ""19ba19a676c868832ce6f5857d6009b9"", ""3db77b6e93bd15601dd8750b9eaa6add"", ""5c97aa2bdef5e8752104ee6c48fe0853""]"
1556,163851,Salisbury University,Salisbury,MD,21801-6862,www.salisbury.edu,7612.0,38.345447,-75.605705,0.6063,4,1,18,15,13,0,0,0.0053,,[]
1444,159647,Louisiana Tech University,Ruston,LA,71272,www.latech.edu,7629.0,32.525518,-92.64964,0.6384,4,1,16,12,12,0,0,0.0033,,"[""189cfaa20f0eb5e43d34b1972b9270ed"", ""3db77b6e93bd15601dd8750b9eaa6add"", ""889a46697fcb74fe7762130797f11df5""]"
701,133650,Florida Agricultural and Mechanical University,Tallahassee,FL,32307,www.famu.edu,7705.0,30.428554,-84.28564399999999,0.5141,4,1,17,11,13,0,0,0.0009,,[]
2235,186876,Stockton University,Galloway,NJ,08205-9441,www.stockton.edu,7765.0,39.492036,-74.531087,0.6442,4,1,19,13,13,0,0,0.0012,,"[""4a9b0285e952687b405986f1951007f7""]"
4058,240462,University of Wisconsin-Platteville,Platteville,WI,53818-3001,www.uwplatt.edu,7785.0,42.733936,-90.49270899999999,0.9431,4,1,18,13,13,0,0,0.0018,,"[""0491f976864a170c692ef2a166034c97"", ""5c97aa2bdef5e8752104ee6c48fe0853"", ""940c8b2796d69930a08670e10bb5c9a5""]"
1987,177968,Lindenwood University,Saint Charles,MO,63301-1695,www.lindenwood.edu,7787.0,38.788203,-90.502825,0.5539,4,2,18,13,14,0,0,0.0033,,"[""189cfaa20f0eb5e43d34b1972b9270ed"", ""19ba19a676c868832ce6f5857d6009b9"", ""3db77b6e93bd15601dd8750b9eaa6add"", ""5c97aa2bdef5e8752104ee6c48fe0853""]"
926,142285,University of Idaho,Moscow,ID,83844-2282,www.uidaho.edu,7826.0,46.726894,-117.02429599999999,0.7205,4,1,16,13,12,0,0,0.0061,,"[""69fdd0e435f4f80f668621817e0a3a06"", ""af42c39856f4565fa2b3b9b13c4ef010""]"
1899,175272,Winona State University,Winona,MN,55987-5838,www.winona.edu,7833.0,44.04585,-91.64483800000001,0.6246,4,1,19,11,13,0,0,0.0018,,"[""0491f976864a170c692ef2a166034c97"", ""e834ab3323064b2a18f47bb73c0086c4""]"
1473,160755,Tulane University of Louisiana,New Orleans,LA,70118-5698,tulane.edu,7841.0,29.939696,-90.120409,0.305,4,2,15,8,16,0,0,0.0023,,"[""3db77b6e93bd15601dd8750b9eaa6add""]"
3583,224554,Texas A & M University-Commerce,Commerce,TX,75429-3011,www.tamuc.edu/,7857.0,33.243814,-95.906913,0.4744,4,1,17,7,13,0,0,0.0066,,"[""889a46697fcb74fe7762130797f11df5""]"
125,106245,University of Arkansas at Little Rock,Little Rock,AR,72204,ualr.edu/www/,7888.0,34.726644,-92.341835,0.8983,4,1,17,5,12,0,0,0.0028,,"[""189cfaa20f0eb5e43d34b1972b9270ed"", ""3db77b6e93bd15601dd8750b9eaa6add"", ""70a60c93a29885e123c5e9949090f138""]"
1384,157401,Murray State University,Murray,KY,42071-3318,www.murraystate.edu,7891.0,36.61241,-88.323493,0.9059999999999999,4,1,18,13,13,0,0,0.0016,,"[""189cfaa20f0eb5e43d34b1972b9270ed"", ""1d5e456931db024b1c874a16dce0ce1b"", ""3db77b6e93bd15601dd8750b9eaa6add""]"
1147,151306,University of Southern Indiana,Evansville,IN,47712,www.usi.edu,7950.0,37.966188,-87.67666,0.6933,4,1,18,13,13,0,0,0.0025,,"[""189cfaa20f0eb5e43d34b1972b9270ed"", ""19ba19a676c868832ce6f5857d6009b9"", ""1d5e456931db024b1c874a16dce0ce1b"", ""3db77b6e93bd15601dd8750b9eaa6add"", ""5c97aa2bdef5e8752104ee6c48fe0853""]"
2516,196042,Farmingdale State College,Farmingdale,NY,11735-1021,www.farmingdale.edu/,7977.0,40.75408,-73.426371,0.4401,3,1,22,9,12,0,0,0.002,,"[""239f90fcc9c4a1caa2aa7901aad75cf7""]"
2005,178402,University of Missouri-Kansas City,Kansas City,MO,64110,www.umkc.edu/,7977.0,39.035365999999996,-94.578039,0.6271,4,1,16,15,16,0,0,0.0029,,"[""189cfaa20f0eb5e43d34b1972b9270ed"", ""2fe6b23b2fbe281d0e79840b83c217e5""]"
1064,147776,Northeastern Illinois University,Chicago,IL,60625-4699,www.neiu.edu/,7979.0,41.980567,-87.72013000000001,0.6704,4,1,18,5,12,0,0,0.0023,,"[""5c97aa2bdef5e8752104ee6c48fe0853"", ""93c595202370658320bb120f7aa9fc46""]"
227,110486,California State University-Bakersfield,Bakersfield,CA,93311-1099,www.csub.edu,8068.0,35.350004999999996,-119.10471100000001,0.6875,4,1,18,11,12,0,0,0.0059,,"[""db8cf5dc7ec07dcbc77263d42d16750e""]"
228,110495,California State University-Stanislaus,Turlock,CA,95382-0299,www.csustan.edu,8093.0,37.52577,-120.852511,0.7063,4,1,18,11,12,0,0,0.0037,,"[""db8cf5dc7ec07dcbc77263d42d16750e""]"
2331,190150,Columbia University in the City of New York,New York,NY,10027,www.columbia.edu,8102.0,40.808285999999995,-73.961885,0.0661,4,2,15,15,17,0,0,0.0046,,"[""4a9b0285e952687b405986f1951007f7""]"
646,130493,Southern Connecticut State University,New Haven,CT,06515-1355,www.southernct.edu,8106.0,41.331852000000005,-72.948806,0.6459999999999999,4,1,18,11,13,0,0,0.0041,,"[""3c40530ef672a9777b0b7ca19ddaa75b""]"
4018,239105,Marquette University,Milwaukee,WI,53233,www.marquette.edu,8143.0,43.03903,-87.927961,0.7421,4,2,17,14,17,0,0,0.0023,,"[""5383948cbc0e947d9efd873b7f97617a"", ""5c97aa2bdef5e8752104ee6c48fe0853"", ""93c595202370658320bb120f7aa9fc46""]"
4054,240417,University of Wisconsin-Stout,Menomonie,WI,54751,www.uwstout.edu,8220.0,44.88861,-91.929461,0.9305,4,1,18,13,13,0,0,0.0026,,"[""7e30edf6ace00ddf13dd8e09947db500""]"
340,115755,Humboldt State University,Arcata,CA,95521-8299,www.humboldt.edu,8227.0,40.8741,-124.0814,0.77,4,1,19,13,13,0,0,0.0105,,"[""c318ce418fae74d87e7aaa9abebb934e""]"
3172,213349,Kutztown University of Pennsylvania,Kutztown,PA,19530-0730,www.kutztown.edu/,8244.0,40.513705,-75.785426,0.8225,4,1,18,11,13,0,0,0.0012,,"[""19ba19a676c868832ce6f5857d6009b9"", ""4a9b0285e952687b405986f1951007f7""]"
2007,178420,University of Missouri-St Louis,Saint Louis,MO,63121-4400,www.umsl.edu/,8275.0,38.711296999999995,-90.308886,0.7588,4,1,16,9,15,0,0,0.0047,,"[""189cfaa20f0eb5e43d34b1972b9270ed"", ""19ba19a676c868832ce6f5857d6009b9"", ""3db77b6e93bd15601dd8750b9eaa6add"", ""5c97aa2bdef5e8752104ee6c48fe0853""]"
2468,194310,Pace University-New York,New York,NY,10038-1598,www.pace.edu,8371.0,40.711014,-74.004719,0.8383,4,2,17,13,16,0,0,0.0025,,"[""4a9b0285e952687b405986f1951007f7""]"
1175,152080,University of Notre Dame,Notre Dame,IN,46556,www.nd.edu,8425.0,41.703058,-86.238959,0.198,4,2,15,14,17,0,0,0.0018,,"[""19ba19a676c868832ce6f5857d6009b9"", ""5c97aa2bdef5e8752104ee6c48fe0853"", ""93c595202370658320bb120f7aa9fc46""]"
1788,172051,Saginaw Valley State University,University Center,MI,48710,www.svsu.edu,8434.0,43.55187,-83.96434,0.7614,4,1,18,13,13,0,0,0.0028,,"[""19ba19a676c868832ce6f5857d6009b9"", ""536f31a6e26dfcc840b99c4f49f10829"", ""7e30edf6ace00ddf13dd8e09947db500""]"
3336,217235,Johnson & Wales University-Providence,Providence,RI,02903-3703,www1.jwu.edu/providence/,8467.0,41.820558,-71.413322,0.8192,4,2,18,11,13,0,0,0.0011,,"[""779f577a99cc550227c6af27fef6f12f"", ""ed1ad3408d7b10f52761a4fb57695ad4""]"
973,144281,Columbia College Chicago,Chicago,IL,60605-1996,www.colum.edu,8492.0,41.873589,-87.624554,0.8806,4,2,19,13,13,0,0,0.0028,,"[""5c97aa2bdef5e8752104ee6c48fe0853"", ""93c595202370658320bb120f7aa9fc46""]"
412,119605,National University,La Jolla,CA,92037-1011,www.nu.edu,8555.0,32.909469,-117.244243,,4,2,18,5,15,0,0,0.006,,"[""f29d9e2484be90ae59cd10ac88712cd1""]"
2792,202480,University of Dayton,Dayton,OH,45469,https://www.udayton.edu,8556.0,39.73686,-84.173662,0.5752,4,2,16,14,17,0,0,0.0009,,"[""189cfaa20f0eb5e43d34b1972b9270ed"", ""19ba19a676c868832ce6f5857d6009b9"", ""5c97aa2bdef5e8752104ee6c48fe0853""]"
1063,147767,Northwestern University,Evanston,IL,60208,www.northwestern.edu,8576.0,42.058377,-87.673653,0.1304,4,2,15,14,16,0,0,0.0003,,"[""5c97aa2bdef5e8752104ee6c48fe0853"", ""93c595202370658320bb120f7aa9fc46""]"
502,123572,Sonoma State University,Rohnert Park,CA,94928-3609,www.sonoma.edu,8589.0,38.341023,-122.67326100000001,0.7655,4,1,18,13,13,0,0,0.0051,,"[""2bef0ead04cc4349b2e443960e8a79ab"", ""8ce661813ffadfa668e4a63e5b0433ee""]"
2708,200004,Western Carolina University,Cullowhee,NC,28723-9646,www.wcu.edu,8601.0,35.311102000000005,-83.18210400000001,0.4027,4,1,18,13,13,0,0,0.0073,,"[""3db77b6e93bd15601dd8750b9eaa6add"", ""7639ca3ea97bd7b15f7b7ebb3d20b2ea""]"
576,127556,Colorado Mesa University,Grand Junction,CO,81501-3122,www.coloradomesa.edu,8625.0,39.076353999999995,-108.54028100000001,0.8306,4,1,21,11,12,0,0,0.0082,,"[""595617f81d7c04fe70726f9601b45f29""]"
662,131113,Wilmington University,New Castle,DE,19720,www.wilmu.edu,8674.0,39.682299,-75.586998,,4,2,17,5,12,0,0,0.0137,,"[""4a9b0285e952687b405986f1951007f7""]"
1491,161253,University of Maine,Orono,ME,04469,www.umaine.edu/,8677.0,44.895129,-68.67358,0.9121,4,1,16,12,13,0,0,0.0093,,"[""096a6e290004cad42d8421fb5bc5aec5"", ""2df165e09bd2d7c035936c3e6978724a""]"
902,141264,Valdosta State University,Valdosta,GA,31698,www.valdosta.edu,8692.0,30.849235999999998,-83.289925,0.5043,4,1,18,13,13,0,0,0.0026,,"[""65e2b5937d3213af618235db3d0d0862"", ""9bcff4f77c1f83f2bfd98aa57888a03b""]"
2377,191241,Fordham University,Bronx,NY,10458,www.fordham.edu,8701.0,40.861183000000004,-73.889578,0.4757,4,2,16,14,17,0,0,0.001,,"[""4a9b0285e952687b405986f1951007f7""]"
4060,240480,University of Wisconsin-Stevens Point,Stevens Point,WI,54481-3897,www.uwsp.edu,8733.0,44.529582,-89.570934,0.9007,4,1,19,13,13,0,0,0.0052,,"[""5383948cbc0e947d9efd873b7f97617a"", ""7e30edf6ace00ddf13dd8e09947db500""]"
1142,151102,Indiana University-Purdue University-Fort Wayne,Fort Wayne,IN,46805-1499,www.ipfw.edu,8746.0,41.115418,-85.111747,0.9216,4,1,18,9,12,0,0,0.0023,,"[""19ba19a676c868832ce6f5857d6009b9"", ""5c97aa2bdef5e8752104ee6c48fe0853"", ""93c595202370658320bb120f7aa9fc46""]"
3966,237525,Marshall University,Huntington,WV,25755,www.marshall.edu/,8780.0,38.42261,-82.43065,0.879,4,1,18,13,15,0,0,0.0031,,"[""189cfaa20f0eb5e43d34b1972b9270ed"", ""19ba19a676c868832ce6f5857d6009b9"", ""1d5e456931db024b1c874a16dce0ce1b""]"
138,106467,Arkansas Tech University,Russellville,AR,72801-2222,www.atu.edu,8799.0,35.295227000000004,-93.13233000000001,0.8911,4,1,18,7,13,0,0,0.0084,,"[""189cfaa20f0eb5e43d34b1972b9270ed"", ""3db77b6e93bd15601dd8750b9eaa6add"", ""889a46697fcb74fe7762130797f11df5"", ""9cfa50165033586c4e2b7e353fbd1318""]"
3835,233277,Radford University,Radford,VA,24142,www.radford.edu,8839.0,37.136914000000004,-80.54973100000001,0.8308,4,1,18,13,13,0,0,0.0023,,"[""19ba19a676c868832ce6f5857d6009b9""]"
3705,228875,Texas Christian University,Fort Worth,TX,76129,www.tcu.edu/,8851.0,32.709568,-97.361537,0.4328,4,2,17,14,13,0,0,0.0076,,[]
3094,211158,Bloomsburg University of Pennsylvania,Bloomsburg,PA,17815,www.bloomu.edu,8892.0,41.007989,-76.446383,0.8772,4,1,18,10,13,0,0,0.001,,"[""19ba19a676c868832ce6f5857d6009b9"", ""cfaa9067fdb1a8acbd533c38a5dce783"", ""f63ea15571b3debc934aafac25267799""]"
137,106458,Arkansas State University-Main Campus,Jonesboro,AR,72401,www.astate.edu/edu,8909.0,35.842779,-90.68047800000001,0.7024,4,1,18,13,13,0,0,0.0037,,"[""189cfaa20f0eb5e43d34b1972b9270ed"", ""3db77b6e93bd15601dd8750b9eaa6add"", ""70a60c93a29885e123c5e9949090f138""]"
584,127741,University of Northern Colorado,Greeley,CO,80639,www.unco.edu,8915.0,40.403178000000004,-104.70172099999999,0.8935,4,1,17,13,16,0,0,0.0035,,"[""51c79c21bde415a7f51e05da2793b179"", ""595617f81d7c04fe70726f9601b45f29"", ""a4bc7c5d2586d2d0fc473ba771ae3b98""]"
3444,219602,Austin Peay State University,Clarksville,TN,37044,www.apsu.edu,8915.0,36.533319,-87.35408100000001,0.8771,4,1,18,9,12,0,0,0.0038,,"[""19ba19a676c868832ce6f5857d6009b9"", ""1d5e456931db024b1c874a16dce0ce1b"", ""3db77b6e93bd15601dd8750b9eaa6add"", ""7639ca3ea97bd7b15f7b7ebb3d20b2ea""]"
1860,174233,University of Minnesota-Duluth,Duluth,MN,55812,www.d.umn.edu/,8929.0,46.818896,-92.085177,0.7596,4,1,19,14,16,0,0,0.0047,,"[""7e30edf6ace00ddf13dd8e09947db500""]"
925,142276,Idaho State University,Pocatello,ID,83209,www.isu.edu/,8969.0,42.864108,-112.429084,,4,1,16,6,15,0,0,0.0108,,"[""02cc730ca35824944341d5e6d5747d50""]"
3617,226091,Lamar University,Beaumont,TX,77705,www.lamar.edu,9008.0,30.044273999999998,-94.073389,0.7911,4,1,17,7,12,0,0,0.0043,,[]
2525,196130,SUNY Buffalo State,Buffalo,NY,14222,suny.buffalostate.edu/,9018.0,42.934199,-78.88067,0.6231,4,1,18,11,13,0,0,0.0041,,"[""19ba19a676c868832ce6f5857d6009b9"", ""7e30edf6ace00ddf13dd8e09947db500""]"
1952,176965,University of Central Missouri,Warrensburg,MO,64093,www.ucmo.edu,9019.0,38.755882,-93.737445,0.7945,4,1,18,13,16,0,0,0.0019,,"[""189cfaa20f0eb5e43d34b1972b9270ed""]"
2654,199102,North Carolina A & T State University,Greensboro,NC,27411,www.ncat.edu,9036.0,36.076737,-79.770152,0.6048,4,1,17,11,13,0,0,0.0032,,"[""a4f57169cee0acb6a67bd4bc6c10ecf1""]"
2039,179557,Southeast Missouri State University,Cape Girardeau,MO,63701,www.semo.edu,9098.0,37.31575,-89.529119,0.8429,4,1,18,13,13,0,0,0.0044,,"[""189cfaa20f0eb5e43d34b1972b9270ed"", ""19ba19a676c868832ce6f5857d6009b9"", ""3db77b6e93bd15601dd8750b9eaa6add""]"
1112,149772,Western Illinois University,Macomb,IL,61455,www.wiu.edu,9141.0,40.465621,-90.68523499999999,0.6007,4,1,18,13,16,0,0,0.0014,,"[""0491f976864a170c692ef2a166034c97"", ""19ba19a676c868832ce6f5857d6009b9"", ""5c97aa2bdef5e8752104ee6c48fe0853""]"
2242,187444,William Paterson University of New Jersey,Wayne,NJ,07470,www.wpunj.edu,9279.0,40.946256,-74.199465,0.7429,4,1,18,13,12,0,0,0.0006,,"[""19ba19a676c868832ce6f5857d6009b9"", ""4a9b0285e952687b405986f1951007f7""]"
3397,218724,Coastal Carolina University,Conway,SC,29526,www.coastal.edu,9289.0,33.794722,-79.012635,0.5965,4,1,20,13,13,0,0,0.0031,,"[""a4f57169cee0acb6a67bd4bc6c10ecf1"", ""f46c78ac8f99d60bd34a7f374d458cfc""]"
143,106704,University of Central Arkansas,Conway,AR,72035-0001,www.uca.edu,9340.0,35.078196000000005,-92.45931,0.9218,4,1,18,13,13,0,0,0.0051,,"[""189cfaa20f0eb5e43d34b1972b9270ed"", ""3db77b6e93bd15601dd8750b9eaa6add""]"
3715,229179,Texas Woman's University,Denton,TX,76204,www.twu.edu,9395.0,33.227002,-97.129088,0.8592,4,1,17,7,15,0,0,0.0035,,[]
892,140951,Savannah College of Art and Design,Savannah,GA,31402-3146,www.scad.edu,9421.0,32.072966,-81.093905,0.6991,4,2,30,13,13,0,0,0.0053,,"[""65e2b5937d3213af618235db3d0d0862""]"
4049,240329,University of Wisconsin-La Crosse,La Crosse,WI,54601-9959,www.uwlax.edu,9462.0,43.815295,-91.230149,0.8,4,1,18,15,16,0,0,0.0018,,"[""0491f976864a170c692ef2a166034c97"", ""940c8b2796d69930a08670e10bb5c9a5"", ""e834ab3323064b2a18f47bb73c0086c4""]"
3530,221847,Tennessee Technological University,Cookeville,TN,38505-0001,www.tntech.edu,9475.0,36.174659000000005,-85.503957,0.6832,4,1,18,13,16,0,0,0.0011,,"[""1d5e456931db024b1c874a16dce0ce1b"", ""3db77b6e93bd15601dd8750b9eaa6add"", ""7639ca3ea97bd7b15f7b7ebb3d20b2ea""]"
1587,164924,Boston College,Chestnut Hill,MA,02467,www.bc.edu,9491.0,42.337688,-71.171488,0.2851,4,2,16,14,17,0,0,0.0007,,"[""a77db6a813b8e6f32265756291b9302a"", ""ed1ad3408d7b10f52761a4fb57695ad4""]"
1591,165024,Bridgewater State University,Bridgewater,MA,02325,www.bridgew.edu,9497.0,41.987784999999995,-70.96605799999999,0.8071,4,1,18,13,13,0,0,0.0021,,"[""ed1ad3408d7b10f52761a4fb57695ad4""]"
547,126580,University of Colorado Colorado Springs,Colorado Springs,CO,80918,www.uccs.edu,9514.0,38.892734999999995,-104.800296,0.9206,4,1,18,9,12,0,0,0.0042,,"[""595617f81d7c04fe70726f9601b45f29"", ""a4bc7c5d2586d2d0fc473ba771ae3b98""]"
3572,224147,Texas A & M University-Corpus Christi,Corpus Christi,TX,78412-5503,www.tamucc.edu,9552.0,27.718601,-97.33193299999999,0.8377,4,1,17,9,12,0,0,0.0025,,"[""9cad11ef06f0c9e6523baa0e377b3d06""]"
608,128771,Central Connecticut State University,New Britain,CT,06050,www.ccsu.edu,9693.0,41.690258,-72.770094,0.5867,4,1,18,9,12,0,0,0.0013,,"[""3a31a06b87d6e805e3737171270b2acb"", ""66eed3bcd0ede65a596ff517472c744b"", ""caf51f4137ab52fe04d966812bbf8bd8""]"
816,138354,The University of West Florida,Pensacola,FL,32514-5750,uwf.edu,9783.0,30.542855,-87.218125,0.4154,4,1,17,9,12,0,0,0.0046,,"[""17f000b591d77a210adc52a0895ae256"", ""3db77b6e93bd15601dd8750b9eaa6add""]"
2538,196264,SUNY Empire State College,Saratoga Springs,NY,12866-4391,www.esc.edu,9825.0,43.078303999999996,-73.779915,,4,1,19,5,12,0,0,0.005,,"[""061864fdd6d72b417a8628ce465dec92""]"
3431,219356,South Dakota State University,Brookings,SD,57007-1898,www.sdstate.edu/,9825.0,44.31942,-96.783415,0.917,4,1,16,12,16,0,0,0.009000000000000001,,"[""e834ab3323064b2a18f47bb73c0086c4""]"
4070,240727,University of Wyoming,Laramie,WY,82071,www.uwyo.edu,9842.0,41.311943,-105.57203999999999,0.9566,4,1,16,15,15,0,0,0.0061,,"[""51c79c21bde415a7f51e05da2793b179"", ""a4bc7c5d2586d2d0fc473ba771ae3b98""]"
4047,240268,University of Wisconsin-Eau Claire,Eau Claire,WI,54701,www.uwec.edu,9844.0,44.798431,-91.50043199999999,0.852,4,1,19,14,13,0,0,0.0025,,"[""5383948cbc0e947d9efd873b7f97617a"", ""7e30edf6ace00ddf13dd8e09947db500""]"
2356,190637,CUNY Lehman College,Bronx,NY,10468,www.lehman.cuny.edu,9874.0,40.873928,-73.894627,0.2995,4,1,18,9,12,0,0,0.0017,,"[""4a9b0285e952687b405986f1951007f7""]"
1250,154095,University of Northern Iowa,Cedar Falls,IA,50614-0005,www.uni.edu,9934.0,42.514922999999996,-92.459703,0.7953,4,1,18,13,17,0,0,0.0015,,"[""0491f976864a170c692ef2a166034c97"", ""406123f9f9771e5dcd50e5f0910fc808"", ""e834ab3323064b2a18f47bb73c0086c4""]"
4051,240365,University of Wisconsin-Oshkosh,Oshkosh,WI,54901,www.uwosh.edu,9955.0,44.024985,-88.54928199999999,0.8149,4,1,18,13,16,0,0,0.006999999999999999,,"[""5383948cbc0e947d9efd873b7f97617a"", ""5c97aa2bdef5e8752104ee6c48fe0853""]"
3524,221740,The University of Tennessee-Chattanooga,Chattanooga,TN,37403-2598,www.utc.edu,9976.0,35.048246999999996,-85.299812,0.7922,4,1,18,13,16,0,0,0.0027,,"[""3db77b6e93bd15601dd8750b9eaa6add"", ""7639ca3ea97bd7b15f7b7ebb3d20b2ea"", ""c8210c4dc0690a308150ecbd7ad039c2""]"
1168,151801,Indiana Wesleyan University-Marion,Marion,IN,46953-4974,https://www.indwes.edu,10000.0,40.518495,-85.661991,0.9521,4,2,18,13,17,0,0,0.0026,,"[""19ba19a676c868832ce6f5857d6009b9"", ""5c97aa2bdef5e8752104ee6c48fe0853""]"
3359,217819,College of Charleston,Charleston,SC,29424-0001,www.cofc.edu,10033.0,32.783142,-79.937251,0.7715,4,1,19,15,16,0,0,0.0021,,[]
3780,231174,University of Vermont,Burlington,VT,05405-0160,www.uvm.edu,10081.0,44.479262,-73.198128,0.7085,4,1,16,14,17,0,0,0.0014,,"[""2df165e09bd2d7c035936c3e6978724a"", ""d9508a2edf4f8abe6f02d454c3768838""]"
3883,234827,Central Washington University,Ellensburg,WA,98926-7501,www.cwu.edu,10101.0,47.004957,-120.53771599999999,0.8162,4,1,19,13,16,0,0,0.0072,,"[""d292f4315668be3e2ea3719d3c823e6d""]"
2017,178721,Park University,Parkville,MO,64152-3795,www.park.edu,10105.0,39.189477000000004,-94.677086,0.4038,4,2,19,5,12,0,0,0.0067,,"[""189cfaa20f0eb5e43d34b1972b9270ed"", ""2fe6b23b2fbe281d0e79840b83c217e5""]"
2070,180489,The University of Montana,Missoula,MT,59812,www.umt.edu,10175.0,46.861074,-113.98293999999999,0.9102,4,1,16,13,16,0,0,0.0317,,"[""14a349f7dd1b8f352444141375d3a0df"", ""79916304538ad0e216c950e6528050ed""]"
2943,206695,Youngstown State University,Youngstown,OH,44555-0001,www.ysu.edu,10196.0,41.105583,-80.64651500000001,0.711,4,1,18,11,15,0,0,0.0022,,"[""189cfaa20f0eb5e43d34b1972b9270ed"", ""19ba19a676c868832ce6f5857d6009b9"", ""93c595202370658320bb120f7aa9fc46"", ""f63ea15571b3debc934aafac25267799""]"
1036,146719,Loyola University Chicago,Chicago,IL,60660,www.luc.edu,10276.0,41.999161,-87.657399,0.7126,4,2,16,14,16,0,0,0.0006,,"[""5c97aa2bdef5e8752104ee6c48fe0853"", ""93c595202370658320bb120f7aa9fc46""]"
904,141334,University of West Georgia,Carrollton,GA,30118-0001,www.westga.edu,10309.0,33.574421,-85.099007,0.5688,4,1,18,13,16,0,0,0.0014,,"[""3db77b6e93bd15601dd8750b9eaa6add"", ""65e2b5937d3213af618235db3d0d0862""]"
3685,228431,Stephen F Austin State University,Nacogdoches,TX,75961,www.sfasu.edu,10562.0,31.585620000000002,-94.58546,0.6157,4,1,18,13,16,0,0,0.0046,,"[""889a46697fcb74fe7762130797f11df5""]"
1881,174783,Saint Cloud State University,Saint Cloud,MN,56301-4498,www.stcloudstate.edu,10610.0,45.552417999999996,-94.15299999999999,0.862,4,1,18,11,15,0,0,0.0034,,"[""7e30edf6ace00ddf13dd8e09947db500""]"
4043,240189,University of Wisconsin-Whitewater,Whitewater,WI,53190-1790,www.uww.edu,10614.0,42.835563,-88.742368,0.805,4,1,18,13,16,0,0,0.0017,,"[""0491f976864a170c692ef2a166034c97"", ""5c97aa2bdef5e8752104ee6c48fe0853"", ""93c595202370658320bb120f7aa9fc46""]"
3251,215062,University of Pennsylvania,Philadelphia,PA,19104-6303,www.upenn.edu,10666.0,39.951002,-75.193618,0.1016,4,2,15,14,16,0,0,0.0009,,"[""4a9b0285e952687b405986f1951007f7""]"
1148,151324,Indiana State University,Terre Haute,IN,47809,www.indstate.edu,10737.0,39.46873,-87.407085,0.8549,4,1,17,11,16,0,0,0.0032,,"[""19ba19a676c868832ce6f5857d6009b9"", ""5c97aa2bdef5e8752104ee6c48fe0853""]"
3690,228529,Tarleton State University,Stephenville,TX,76401-0000,www.tarleton.edu,10749.0,32.215665,-98.22008000000001,0.4967,4,1,18,7,13,0,0,0.0065,,[]
3892,235097,Eastern Washington University,Cheney,WA,99004-2496,www.ewu.edu,10761.0,47.491293,-117.589371,0.8208,4,1,18,11,15,0,0,0.0115,,"[""14a349f7dd1b8f352444141375d3a0df"", ""3c9e602a35d1b2bbc21d767797a7e4f2"", ""79916304538ad0e216c950e6528050ed""]"
757,135726,University of Miami,Coral Gables,FL,33146,www.miami.edu/,10768.0,25.720406,-80.27645,0.3779,4,2,15,15,16,0,0,0.0012,,"[""17f000b591d77a210adc52a0895ae256""]"
2723,200280,University of North Dakota,Grand Forks,ND,58202-8193,und.edu,10809.0,47.919774,-97.073451,0.8189,4,1,16,13,16,0,0,0.0142,,"[""7e30edf6ace00ddf13dd8e09947db500"", ""821cf91c2f03ff2aaf63c73b7862d7ef""]"
546,126562,University of Colorado Denver/Anschutz Medical Campus,Denver,CO,80217-3364,www.ucdenver.edu/,10855.0,39.74603,-104.99918100000001,0.6742,4,1,16,9,15,0,0,0.0031,,"[""51c79c21bde415a7f51e05da2793b179"", ""595617f81d7c04fe70726f9601b45f29"", ""a4bc7c5d2586d2d0fc473ba771ae3b98""]"
668,131469,George Washington University,Washington,DC,20052,www.gwu.edu,10901.0,38.89865,-77.047871,0.4646,4,2,15,14,17,0,0,0.0009,,"[""343052679408b2c8ca3c9e5bbfc496d5"", ""c82ba38461590c1a2192a4ade984b598""]"
3462,220075,East Tennessee State University,Johnson City,TN,37614,www.etsu.edu,10960.0,36.304077,-82.366734,0.7922,4,1,17,13,15,0,0,0.0024,,"[""7639ca3ea97bd7b15f7b7ebb3d20b2ea""]"
1467,160612,Southeastern Louisiana University,Hammond,LA,70402,www.southeastern.edu,11024.0,30.513579999999997,-90.468558,0.8795,4,1,18,12,15,0,0,0.0019,,"[""3db77b6e93bd15601dd8750b9eaa6add""]"
1338,156125,Wichita State University,Wichita,KS,67260-0124,www.wichita.edu,11048.0,37.716484,-97.29673299999999,0.9473,4,1,16,9,15,0,0,0.0074,,"[""189cfaa20f0eb5e43d34b1972b9270ed"", ""2fe6b23b2fbe281d0e79840b83c217e5"", ""54fd1211f20900fb911ee8ce968d6304""]"
1540,163268,University of Maryland-Baltimore County,Baltimore,MD,21250,umbc.edu,11144.0,39.256686,-76.711607,0.5942,4,1,16,15,16,0,0,0.0014,,"[""343052679408b2c8ca3c9e5bbfc496d5""]"
2508,195809,St John's University-New York,Queens,NY,11439,www.stjohns.edu,11244.0,40.721979,-73.795301,0.6493,4,2,17,14,16,0,0,0.0022,,"[""ef0a1f234837da80573def7258ff2bf6""]"
1,100663,University of Alabama at Birmingham,Birmingham,AL,35294-0110,www.uab.edu,11269.0,33.50223,-86.80917,0.6043,4,1,15,9,15,0,0,0.0023,,"[""3db77b6e93bd15601dd8750b9eaa6add"", ""65e2b5937d3213af618235db3d0d0862""]"
3163,213020,Indiana University of Pennsylvania-Main Campus,Indiana,PA,15705-1098,www.iup.edu,11297.0,40.615589,-79.159869,0.8834,4,1,17,10,16,0,0,0.001,,"[""189cfaa20f0eb5e43d34b1972b9270ed"", ""19ba19a676c868832ce6f5857d6009b9"", ""f63ea15571b3debc934aafac25267799""]"
1386,157447,Northern Kentucky University,Highland Heights,KY,41099,www.nku.edu,11302.0,39.029221,-84.465959,0.9189,4,1,18,13,15,0,0,0.0034,,"[""189cfaa20f0eb5e43d34b1972b9270ed"", ""19ba19a676c868832ce6f5857d6009b9"", ""1d5e456931db024b1c874a16dce0ce1b"", ""5c97aa2bdef5e8752104ee6c48fe0853"", ""7639ca3ea97bd7b15f7b7ebb3d20b2ea""]"
50,102094,University of South Alabama,Mobile,AL,36688-0002,www.southalabama.edu,11379.0,30.695081,-88.18189,0.7816,4,1,16,13,16,0,0,0.0067,,"[""3db77b6e93bd15601dd8750b9eaa6add""]"
1295,155061,Fort Hays State University,Hays,KS,67601-4099,www.fhsu.edu,11503.0,38.872436,-99.34049300000001,0.8588,4,1,18,5,12,0,0,0.0042,,"[""189cfaa20f0eb5e43d34b1972b9270ed"", ""2fe6b23b2fbe281d0e79840b83c217e5"", ""3eeee05d1ee1b1ece059a65db6b629da""]"
4136,243197,University of Puerto Rico-Mayaguez,Mayaguez,PR,00681,www.uprm.edu,11518.0,18.212964000000003,-67.143911,0.7734,4,1,17,10,15,0,0,0.0,,"[""c5e1bbd54f84c3f47c39e590a9eccfdd""]"
784,137032,Saint Leo University,Saint Leo,FL,33574-6665,www.saintleo.edu,11575.0,28.336776,-82.257287,0.7252,4,2,18,9,16,0,0,0.0029,,"[""17f000b591d77a210adc52a0895ae256"", ""816cc45dc56caf067c6f50b383fca5d0""]"
4093,241739,Universidad Metropolitana,San Juan,PR,00926-2602,umet.suagm.edu/,11589.0,18.387176999999998,-66.061615,,4,2,18,7,15,0,0,0.0,,"[""c5e1bbd54f84c3f47c39e590a9eccfdd""]"
2784,202134,Cleveland State University,Cleveland,OH,44115-2214,www.csuohio.edu/,11658.0,41.502918,-81.673052,0.6408,4,1,16,9,15,0,0,0.0027,,"[""19ba19a676c868832ce6f5857d6009b9"", ""93c595202370658320bb120f7aa9fc46"", ""f63ea15571b3debc934aafac25267799""]"
1100,149231,Southern Illinois University-Edwardsville,Edwardsville,IL,62026-1259,www.siue.edu,11717.0,38.793949,-89.99777900000001,0.8822,4,1,18,13,16,0,0,0.0025,,"[""189cfaa20f0eb5e43d34b1972b9270ed"", ""19ba19a676c868832ce6f5857d6009b9"", ""3db77b6e93bd15601dd8750b9eaa6add"", ""5c97aa2bdef5e8752104ee6c48fe0853""]"
2726,200332,North Dakota State University-Main Campus,Fargo,ND,58108-6050,https://www.ndsu.edu,11719.0,46.894523,-96.805689,0.9364,4,1,15,13,16,0,0,0.0075,,"[""e834ab3323064b2a18f47bb73c0086c4""]"
1936,176372,University of Southern Mississippi,Hattiesburg,MS,39406-0001,www.usm.edu,11737.0,31.327499,-89.33791,0.5804,4,1,16,13,16,0,0,0.0037,,"[""3db77b6e93bd15601dd8750b9eaa6add"", ""9cfa50165033586c4e2b7e353fbd1318""]"
2196,185262,Kean University,Union,NJ,07083,www.kean.edu,11755.0,40.679429,-74.234668,0.7427,4,1,18,7,15,0,0,0.0017,,"[""4a9b0285e952687b405986f1951007f7""]"
4140,243346,Universidad del Este,Carolina,PR,00985-0985,suagm.edu/une,11825.0,18.415027,-65.98342199999999,,4,2,18,6,15,0,0,0.0,,"[""c5e1bbd54f84c3f47c39e590a9eccfdd""]"
2262,188030,New Mexico State University-Main Campus,Las Cruces,NM,88003-8001,www.nmsu.edu/,11887.0,32.282875,-106.747841,0.6576,4,1,16,11,15,0,0,0.0221,,[]
2939,206604,Wright State University-Main Campus,Dayton,OH,45435-0001,www.wright.edu,12040.0,39.780634,-84.064881,0.9597,4,1,16,13,15,0,0,0.0018,,"[""189cfaa20f0eb5e43d34b1972b9270ed"", ""19ba19a676c868832ce6f5857d6009b9"", ""5c97aa2bdef5e8752104ee6c48fe0853""]"
4357,366711,California State University-San Marcos,San Marcos,CA,92096-0001,www.csusm.edu,12103.0,33.129115000000006,-117.15801299999998,0.5404,4,1,19,11,17,0,0,0.0032,,"[""52b961c1d218b20303fe010451eaed70"", ""f29d9e2484be90ae59cd10ac88712cd1""]"
1845,173920,Minnesota State University-Mankato,Mankato,MN,56001,www.mnsu.edu,12259.0,44.147253000000006,-93.998494,0.6663,4,1,18,13,15,0,0,0.0031,,"[""e834ab3323064b2a18f47bb73c0086c4""]"
2238,187046,Thomas Edison State University,Trenton,NJ,08608,www.tesu.edu,12283.0,40.22011,-74.76965200000001,,4,1,20,5,12,0,0,0.0062,,"[""4a9b0285e952687b405986f1951007f7""]"
2096,181394,University of Nebraska at Omaha,Omaha,NE,68182-0225,www.unomaha.edu,12287.0,41.257746000000004,-96.010797,0.7594,4,1,17,9,15,0,0,0.0031,,"[""dfd83e5a9d56cb46021241b2fc7985d1""]"
2348,190558,College of Staten Island CUNY,Staten Island,NY,10314,www.csi.cuny.edu,12321.0,40.603949,-74.148701,0.9758,4,1,18,9,15,0,0,0.0018,,"[""4a9b0285e952687b405986f1951007f7""]"
60,102553,University of Alaska Anchorage,Anchorage,AK,99508,www.uaa.alaska.edu,12348.0,61.189554,-149.82613500000002,0.706,4,1,18,5,15,0,0,0.0633,,"[""5e7093b01f5e6c6c3ea668d3660f6cf7""]"
1638,166638,University of Massachusetts-Boston,Boston,MA,02125-3393,www.umb.edu,12397.0,42.314541,-71.038653,0.6905,4,1,16,9,15,0,0,0.0018,,"[""a77db6a813b8e6f32265756291b9302a"", ""ed1ad3408d7b10f52761a4fb57695ad4""]"
2349,190567,CUNY City College,New York,NY,10031,www.ccny.cuny.edu,12468.0,40.819794,-73.95055,0.4297,4,1,18,9,15,0,0,0.0012,,"[""4a9b0285e952687b405986f1951007f7""]"
2353,190600,CUNY John Jay College of Criminal Justice,New York,NY,10019,www.jjay.cuny.edu,12545.0,40.770917,-73.988874,0.3655,4,1,18,13,15,0,0,0.0028,,"[""4a9b0285e952687b405986f1951007f7""]"
1734,169910,Ferris State University,Big Rapids,MI,49307-2251,www.ferris.edu/,12571.0,43.687464,-85.483509,0.7818,4,1,18,9,16,0,0,0.0055,,"[""19ba19a676c868832ce6f5857d6009b9""]"
232,110547,California State University-Dominguez Hills,Carson,CA,90747-0005,www.csudh.edu,12584.0,33.86524,-118.259316,0.5277,4,1,18,7,15,0,0,0.0012,,"[""acf3b3f37dbec4c43881eac7593ba2d2""]"
4139,243221,University of Puerto Rico-Rio Piedras,San Juan,PR,00931-0000,www.uprrp.edu,12653.0,18.403026999999998,-66.045875,0.2939,4,1,16,14,15,0,0,0.0015,,"[""c5e1bbd54f84c3f47c39e590a9eccfdd""]"
2518,196060,SUNY at Albany,Albany,NY,12222,www.albany.edu,12698.0,42.686917,-73.825014,0.5644,4,1,15,15,17,0,0,0.0019,,"[""061864fdd6d72b417a8628ce465dec92""]"
2140,183044,University of New Hampshire-Main Campus,Durham,NH,03824-3547,www.unh.edu,12789.0,43.134235,-70.934512,0.7861,4,1,16,14,17,0,0,0.002,,"[""2df165e09bd2d7c035936c3e6978724a"", ""d9508a2edf4f8abe6f02d454c3768838""]"
1099,149222,Southern Illinois University-Carbondale,Carbondale,IL,62901-4512,www.siu.edu,12858.0,37.713239,-89.218724,0.8064,4,1,16,13,16,0,0,0.0022,,"[""189cfaa20f0eb5e43d34b1972b9270ed"", ""19ba19a676c868832ce6f5857d6009b9"", ""3db77b6e93bd15601dd8750b9eaa6add"", ""5c97aa2bdef5e8752104ee6c48fe0853""]"
2484,195003,Rochester Institute of Technology,Rochester,NY,14623-5603,www.rit.edu/,12873.0,43.090325,-77.67520999999999,0.5727,4,2,18,14,17,0,0,0.0018,,"[""19ba19a676c868832ce6f5857d6009b9""]"
2187,184782,Rowan University,Glassboro,NJ,08028,www.rowan.edu,12912.0,39.709768,-75.117974,0.7109,4,1,18,15,16,0,0,0.0018,,"[""4a9b0285e952687b405986f1951007f7""]"
2663,199218,University of North Carolina Wilmington,Wilmington,NC,28403-5963,www.uncw.edu,12971.0,34.225223,-77.875527,0.6096,4,1,18,15,16,0,0,0.0052,,"[""a4f57169cee0acb6a67bd4bc6c10ecf1""]"
235,110574,California State University-East Bay,Hayward,CA,94542,www.csueastbay.edu,12981.0,37.657070000000004,-122.058073,0.7403,4,1,18,11,15,0,0,0.0025,,"[""3bb96657bc7a59da08c353224c835e36"", ""a90d3bfb7b242b82fe94437be1101092""]"
1634,166513,University of Massachusetts-Lowell,Lowell,MA,01854-5104,www.uml.edu,13092.0,42.65372,-71.32508100000001,0.5679,4,1,16,9,16,0,0,0.0021,,"[""2df165e09bd2d7c035936c3e6978724a""]"
3603,225432,University of Houston-Downtown,Houston,TX,77002-1014,www.uhd.edu,13101.0,29.763831,-95.35953,0.7763,4,1,22,5,12,0,0,0.0046,,[]
2347,190549,CUNY Brooklyn College,Brooklyn,NY,11210,www.brooklyn.cuny.edu,13172.0,40.631912,-73.95312,0.3731,4,1,18,9,15,0,0,0.0024,,"[""2db0527a5564fbd1b0553ab28ce6379e"", ""4a9b0285e952687b405986f1951007f7""]"
908,141574,University of Hawaii at Manoa,Honolulu,HI,96822-2217,www.manoa.hawaii.edu,13320.0,21.292648,-157.816607,0.8142,4,1,15,13,16,0,0,0.0017,,"[""99b4654bbf6a3cf8e50d2fe2bfaf1bec""]"
3343,217484,University of Rhode Island,Kingston,RI,02881,web.uri.edu/,13342.0,41.484691,-71.52735600000001,0.7355,4,1,16,12,16,0,0,0.0022,,"[""779f577a99cc550227c6af27fef6f12f""]"
1957,177065,Columbia College,Columbia,MO,65216,www.ccis.edu,13418.0,38.957899,-92.326544,,4,2,19,5,16,0,0,0.0104,,"[""189cfaa20f0eb5e43d34b1972b9270ed""]"
2519,196079,SUNY at Binghamton,Vestal,NY,13850-6000,www.binghamton.edu,13465.0,42.088049,-75.97114300000001,0.4249,4,1,16,15,17,0,0,0.001,,"[""16afe121bade8b41bd8b9603cbece35c"", ""19ba19a676c868832ce6f5857d6009b9""]"
2069,180461,Montana State University,Bozeman,MT,59717,www.montana.edu/,13488.0,45.666829,-111.04991799999999,0.8286,4,1,15,15,16,0,0,0.0162,,"[""4ec97c812882a6d1a164ea2e32692988"", ""a4bc7c5d2586d2d0fc473ba771ae3b98"", ""fba6a0280e049c6496ffe0106043188a""]"
1358,156620,Eastern Kentucky University,Richmond,KY,40475-3102,www.eku.edu,13493.0,37.740396000000004,-84.30135600000001,0.7063,4,1,18,13,16,0,0,0.0027,,"[""19ba19a676c868832ce6f5857d6009b9"", ""1d5e456931db024b1c874a16dce0ce1b"", ""7639ca3ea97bd7b15f7b7ebb3d20b2ea""]"
765,136172,University of North Florida,Jacksonville,FL,32224-7699,www.unf.edu,13562.0,30.270916999999997,-81.507853,0.5660000000000001,4,1,18,9,15,0,0,0.0013,,"[""9bcff4f77c1f83f2bfd98aa57888a03b""]"
1669,167358,Northeastern University,Boston,MA,02115-5005,www.northeastern.edu,13620.0,42.339991999999995,-71.088782,0.2848,4,2,16,14,16,0,0,0.0007,,"[""a77db6a813b8e6f32265756291b9302a"", ""ed1ad3408d7b10f52761a4fb57695ad4""]"
2755,201441,Bowling Green State University-Main Campus,Bowling Green,OH,43403,www.bgsu.edu,13900.0,41.377036,-83.63753100000001,0.7268,4,1,16,12,16,0,0,0.0023,,"[""19ba19a676c868832ce6f5857d6009b9"", ""5c97aa2bdef5e8752104ee6c48fe0853""]"
3322,216764,West Chester University of Pennsylvania,West Chester,PA,19383,www.wcupa.edu,13966.0,39.949084,-75.594631,0.5868,4,1,18,15,16,0,0,0.001,,"[""4a9b0285e952687b405986f1951007f7""]"
56,102368,Troy University,Troy,AL,36082-0001,www.troy.edu,14065.0,31.800128000000004,-85.950191,0.9187,4,1,18,5,16,0,0,0.0073,,"[""3db77b6e93bd15601dd8750b9eaa6add"", ""65e2b5937d3213af618235db3d0d0862""]"
3557,223232,Baylor University,Waco,TX,76798,www.baylor.edu,14139.0,31.545956,-97.119359,0.4367,4,2,16,14,16,0,0,0.0037,,[]
2339,190415,Cornell University,Ithaca,NY,14853,www.cornell.edu,14226.0,42.447199,-76.483489,0.1507,4,2,15,14,17,0,0,0.0037,,"[""19ba19a676c868832ce6f5857d6009b9"", ""cfaa9067fdb1a8acbd533c38a5dce783""]"
2953,206941,University of Central Oklahoma,Edmond,OK,73034,www.uco.edu,14270.0,35.658239,-97.470985,0.6991,4,1,18,9,15,0,0,0.0378,,"[""189cfaa20f0eb5e43d34b1972b9270ed"", ""54fd1211f20900fb911ee8ce968d6304""]"
3943,237011,Western Washington University,Bellingham,WA,98225-9008,www.wwu.edu,14336.0,48.737235999999996,-122.484873,0.8238,4,1,18,15,16,0,0,0.0038,,"[""38ae5a12f61f3662f71b5e4f46f7346f""]"
865,139755,Georgia Institute of Technology-Main Campus,Atlanta,GA,30332-0530,www.gatech.edu,14463.0,33.773732,-84.396019,0.3217,4,1,15,14,17,0,0,0.0006,,"[""3db77b6e93bd15601dd8750b9eaa6add"", ""65e2b5937d3213af618235db3d0d0862""]"
2542,196413,Syracuse University,Syracuse,NY,13244,syr.edu/,14620.0,43.040005,-76.13663299999999,0.4833,4,2,16,14,17,0,0,0.0068,,"[""19ba19a676c868832ce6f5857d6009b9""]"
4146,243601,Universidad del Turabo,Gurabo,PR,00778-3030,ut.suagm.edu,14696.0,18.239647,-66.006259,,4,2,17,6,15,0,0,0.0,,"[""c5e1bbd54f84c3f47c39e590a9eccfdd""]"
1378,157289,University of Louisville,Louisville,KY,40292-0001,www.louisville.edu,14844.0,38.215752,-85.758843,0.7169,4,1,15,15,15,0,0,0.0006,,"[""189cfaa20f0eb5e43d34b1972b9270ed"", ""19ba19a676c868832ce6f5857d6009b9"", ""1d5e456931db024b1c874a16dce0ce1b"", ""7639ca3ea97bd7b15f7b7ebb3d20b2ea""]"
2344,190512,CUNY Bernard M Baruch College,New York,NY,10010,www.baruch.cuny.edu,14896.0,40.740238,-73.983417,0.3244,4,1,18,9,15,0,0,0.0016,,"[""4a9b0285e952687b405986f1951007f7""]"
1061,147703,Northern Illinois University,Dekalb,IL,60115-2828,www.niu.edu,14952.0,41.933791,-88.766065,0.5035,4,1,16,13,16,0,0,0.0015,,"[""0491f976864a170c692ef2a166034c97"", ""5c97aa2bdef5e8752104ee6c48fe0853"", ""93c595202370658320bb120f7aa9fc46""]"
2919,206084,University of Toledo,Toledo,OH,43606-3390,www.utoledo.edu/,14989.0,41.65795,-83.615225,0.932,4,1,16,13,15,0,0,0.0023,,"[""19ba19a676c868832ce6f5857d6009b9"", ""5c97aa2bdef5e8752104ee6c48fe0853""]"
1471,160658,University of Louisiana at Lafayette,Lafayette,LA,70503,www.louisiana.edu,15091.0,30.215283000000003,-92.01941,0.5527,4,1,16,13,15,0,0,0.0044,,"[""3db77b6e93bd15601dd8750b9eaa6add""]"
1409,157951,Western Kentucky University,Bowling Green,KY,42101-1000,www.wku.edu,15119.0,36.985718,-86.455898,0.927,4,1,18,13,16,0,0,0.0022,,"[""19ba19a676c868832ce6f5857d6009b9"", ""1d5e456931db024b1c874a16dce0ce1b"", ""3db77b6e93bd15601dd8750b9eaa6add"", ""7639ca3ea97bd7b15f7b7ebb3d20b2ea""]"
2359,190664,CUNY Queens College,Queens,NY,11367,qc.cuny.edu,15148.0,40.737771,-73.815387,0.4044,4,1,18,9,15,0,0,0.0031,,"[""274dad3c07903231bfcf14c2c585167a"", ""ef0a1f234837da80573def7258ff2bf6""]"
2658,199148,University of North Carolina at Greensboro,Greensboro,NC,27402-6170,www.uncg.edu,15158.0,36.067503,-79.809844,0.586,4,1,16,13,16,0,0,0.0034,,"[""a4f57169cee0acb6a67bd4bc6c10ecf1""]"
2352,190594,CUNY Hunter College,New York,NY,10065,www.hunter.cuny.edu,15465.0,40.768669,-73.964795,0.3866,4,1,18,9,15,0,0,0.0016,,"[""4a9b0285e952687b405986f1951007f7""]"
3493,220862,University of Memphis,Memphis,TN,38152,www.memphis.edu,15553.0,35.118874,-89.938062,0.3978,4,1,16,9,15,0,0,0.0023,,"[""3db77b6e93bd15601dd8750b9eaa6add"", ""70a60c93a29885e123c5e9949090f138""]"
3701,228787,The University of Texas at Dallas,Richardson,TX,75080-3021,www.utdallas.edu,15559.0,32.989432,-96.74837099999999,0.6148,4,1,16,15,16,0,0,0.0019,,[]
979,144740,DePaul University,Chicago,IL,60604,www.depaul.edu,15683.0,41.923332,-87.654116,0.7198,4,2,17,15,15,0,0,0.0007,,"[""5c97aa2bdef5e8752104ee6c48fe0853"", ""93c595202370658320bb120f7aa9fc46""]"
1118,150136,Ball State University,Muncie,IN,47306,www.bsu.edu,15689.0,40.198941999999995,-85.408863,0.605,4,1,16,12,16,0,0,0.0004,,"[""19ba19a676c868832ce6f5857d6009b9"", ""5c97aa2bdef5e8752104ee6c48fe0853""]"
3863,234076,University of Virginia-Main Campus,Charlottesville,VA,22903-2628,www.virginia.edu/,15788.0,38.037796,-78.505153,0.2979,4,1,15,14,16,0,0,0.0011,,"[""675c433934dbceb6bfc4a5fca05a6772""]"
231,110538,California State University-Chico,Chico,CA,95929-0150,www.csuchico.edu,15903.0,39.728003,-121.846333,0.6345,4,1,18,13,15,0,0,0.0057,,"[""b68fc0090ea516dbf4fed17986f1b58a"", ""eab449845f4307cca2fce8069ea231e8""]"
923,142115,Boise State University,Boise,ID,83725,www.boisestate.edu,15959.0,43.604403000000005,-116.205789,0.7957,4,1,18,9,15,0,0,0.0051,,"[""02cc730ca35824944341d5e6d5747d50""]"
2846,204024,Miami University-Oxford,Oxford,OH,45056,www.miamioh.edu,15975.0,39.509642,-84.731821,0.6549,4,1,16,14,16,0,0,0.0021,,"[""189cfaa20f0eb5e43d34b1972b9270ed"", ""19ba19a676c868832ce6f5857d6009b9"", ""5c97aa2bdef5e8752104ee6c48fe0853""]"
2582,197869,Appalachian State University,Boone,NC,28608,www.appstate.edu/,16126.0,36.214844,-81.680234,0.6638,4,1,18,15,16,0,0,0.002,,"[""7639ca3ea97bd7b15f7b7ebb3d20b2ea"", ""c47770bc7c0750dbe498d0459d9c4832""]"
2203,185590,Montclair State University,Montclair,NJ,07043-1624,www.montclair.edu,16129.0,40.859233,-74.199455,0.7007,4,1,18,13,16,0,0,0.0006,,"[""19ba19a676c868832ce6f5857d6009b9"", ""4a9b0285e952687b405986f1951007f7""]"
3124,212054,Drexel University,Philadelphia,PA,19104,www.drexel.edu,16227.0,39.954855,-75.188745,0.7474,4,2,16,15,16,0,0,0.0012,,"[""4a9b0285e952687b405986f1951007f7""]"
248,110714,University of California-Santa Cruz,Santa Cruz,CA,95064-1011,www.ucsc.edu/,16231.0,36.997258,-122.06799299999999,0.5029,4,1,15,15,17,0,0,0.001,,"[""a90d3bfb7b242b82fe94437be1101092"", ""b0d3bce365617940481c7c1e39293e20""]"
2358,190655,CUNY New York City College of Technology,Brooklyn,NY,11201,www.citytech.cuny.edu,16297.0,40.695483,-73.98785600000001,0.7371,3,1,23,7,15,0,0,0.0039,,"[""2db0527a5564fbd1b0553ab28ce6379e"", ""4a9b0285e952687b405986f1951007f7""]"
1780,171571,Oakland University,Rochester Hills,MI,48309-4401,www.oakland.edu,16392.0,42.674490000000006,-83.220523,0.8039,4,1,17,9,15,0,0,0.0033,,"[""19ba19a676c868832ce6f5857d6009b9"", ""536f31a6e26dfcc840b99c4f49f10829"", ""7e30edf6ace00ddf13dd8e09947db500""]"
1589,164988,Boston University,Boston,MA,02215,www.bu.edu,16456.0,42.349581,-71.09984,0.3262,4,2,15,14,17,0,0,0.0007,,"[""a77db6a813b8e6f32265756291b9302a"", ""ed1ad3408d7b10f52761a4fb57695ad4""]"
2521,196097,Stony Brook University,Stony Brook,NY,11794,www.stonybrook.edu,16583.0,40.913138000000004,-73.123595,0.4099,4,1,15,15,17,0,0,0.0014,,"[""7a6108636e6f619bf1ed847d375689da""]"
2040,179566,Missouri State University-Springfield,Springfield,MO,65897,www.missouristate.edu,16617.0,37.197983,-93.276821,0.8585,4,1,18,13,16,0,0,0.0049,,"[""189cfaa20f0eb5e43d34b1972b9270ed""]"
1929,176080,Mississippi State University,Mississippi State,MS,39762,www.msstate.edu,16712.0,33.454809000000004,-88.788979,0.6524,4,1,15,13,16,0,0,0.0055,,"[""3db77b6e93bd15601dd8750b9eaa6add"", ""9cfa50165033586c4e2b7e353fbd1318""]"
1802,172644,Wayne State University,Detroit,MI,48202,www.wayne.edu,16728.0,42.35861,-83.072864,0.7987,4,1,15,9,15,0,0,0.003,,"[""19ba19a676c868832ce6f5857d6009b9"", ""536f31a6e26dfcc840b99c4f49f10829"", ""5c97aa2bdef5e8752104ee6c48fe0853"", ""7e30edf6ace00ddf13dd8e09947db500"", ""93c595202370658320bb120f7aa9fc46""]"
3758,230782,Weber State University,Ogden,UT,84408-1031,www.weber.edu,16846.0,41.192021000000004,-111.948388,,4,1,19,7,15,0,0,0.0064,,"[""90c530bbd09f81c0954d9b978dd38d18""]"
868,139931,Georgia Southern University,Statesboro,GA,30460-8126,www.georgiasouthern.edu,17173.0,32.427756,-81.782201,0.6023,4,1,17,15,16,0,0,0.0045,,"[""65e2b5937d3213af618235db3d0d0862""]"
2738,200800,University of Akron Main Campus,Akron,OH,44325-4702,www.uakron.edu,17240.0,41.077768,-81.510328,0.966,4,1,16,12,15,0,0,0.0016,,"[""19ba19a676c868832ce6f5857d6009b9"", ""93c595202370658320bb120f7aa9fc46"", ""f63ea15571b3debc934aafac25267799""]"
1733,169798,Eastern Michigan University,Ypsilanti,MI,48197,www.emich.edu,17275.0,42.245751,-83.624499,0.7478,4,1,18,9,16,0,0,0.0027,,"[""19ba19a676c868832ce6f5857d6009b9"", ""536f31a6e26dfcc840b99c4f49f10829"", ""7e30edf6ace00ddf13dd8e09947db500"", ""93c595202370658320bb120f7aa9fc46""]"
2119,182290,University of Nevada-Reno,Reno,NV,89557,www.unr.edu/,17295.0,39.545052,-119.818424,0.7852,4,1,16,13,15,0,0,0.0071,,"[""63d9dd472cdb3e46600c63f57b484320""]"
1001,145600,University of Illinois at Chicago,Chicago,IL,60607,www.uic.edu,17368.0,41.872651,-87.651145,0.7665,4,1,15,15,15,0,0,0.0009,,"[""5c97aa2bdef5e8752104ee6c48fe0853"", ""93c595202370658320bb120f7aa9fc46""]"
3669,227881,Sam Houston State University,Huntsville,TX,77340,www.shsu.edu/,17401.0,30.7247,-95.5519,0.7271,4,1,17,13,15,0,0,0.0055,,[]
229,110510,California State University-San Bernardino,San Bernardino,CA,92407-2397,www.csusb.edu,17518.0,34.182987,-117.32250800000001,0.6459,4,1,18,11,15,0,0,0.0021,,"[""43196c30bc0b7a0518b2866a3d1aa515"", ""acf3b3f37dbec4c43881eac7593ba2d2""]"
3364,217882,Clemson University,Clemson,SC,29634,www.clemson.edu,17740.0,34.677329,-82.834463,0.5127,4,1,16,15,16,0,0,0.0017,,"[""3db77b6e93bd15601dd8750b9eaa6add"", ""7639ca3ea97bd7b15f7b7ebb3d20b2ea""]"
2656,199120,University of North Carolina at Chapel Hill,Chapel Hill,NC,27599,www.unc.edu,17951.0,35.912165,-79.050969,0.3054,4,1,15,14,17,0,0,0.0057,,"[""a4f57169cee0acb6a67bd4bc6c10ecf1""]"
1805,172699,Western Michigan University,Kalamazoo,MI,49008-5200,https://wmich.edu/,18179.0,42.282589,-85.61511999999999,0.8238,4,1,16,13,16,0,0,0.0039,,"[""19ba19a676c868832ce6f5857d6009b9"", ""93c595202370658320bb120f7aa9fc46""]"
1011,145813,Illinois State University,Normal,IL,61790-1000,illinoisstate.edu/,18343.0,40.509724,-88.99234,0.8772,4,1,17,15,16,0,0,0.001,,"[""19ba19a676c868832ce6f5857d6009b9"", ""5c97aa2bdef5e8752104ee6c48fe0853""]"
658,130943,University of Delaware,Newark,DE,19716,www.udel.edu/,18353.0,39.679574,-75.75291700000001,0.6659,4,1,15,14,16,0,0,0.0009,,"[""4a9b0285e952687b405986f1951007f7""]"
613,129020,University of Connecticut,Storrs,CT,06269,uconn.edu/,18451.0,41.806261,-72.247969,0.5317,4,1,15,14,17,0,0,0.0017,,"[""5c600fd2cea0ead787b7bca645cdaf09"", ""c9123ff8973d332a07ca807f63ed6551""]"
1923,176017,University of Mississippi,University,MS,38677-1848,www.olemiss.edu,18472.0,34.362144,-89.539377,0.7873,4,1,16,13,16,0,0,0.0034,,"[""3db77b6e93bd15601dd8750b9eaa6add""]"
511,123961,University of Southern California,Los Angeles,CA,90089,www.usc.edu/,18519.0,34.021058000000004,-118.28385800000001,0.1768,4,2,15,15,16,0,0,0.0015,,"[""acf3b3f37dbec4c43881eac7593ba2d2""]"
244,110671,University of California-Riverside,Riverside,CA,92521,WWW.UCR.EDU,18597.0,33.97588,-117.331098,0.556,4,1,15,15,16,0,0,0.0015,,"[""52b961c1d218b20303fe010451eaed70"", ""acf3b3f37dbec4c43881eac7593ba2d2"", ""fb087e8c2a215391c5f6461968ee171c""]"
3261,215293,University of Pittsburgh-Pittsburgh Campus,Pittsburgh,PA,15260,www.pitt.edu,18655.0,40.444502,-79.95469200000001,0.5389,4,1,15,14,16,0,0,0.0007,,"[""189cfaa20f0eb5e43d34b1972b9270ed"", ""19ba19a676c868832ce6f5857d6009b9"", ""f63ea15571b3debc934aafac25267799""]"
1310,155317,University of Kansas,Lawrence,KS,66045,www.ku.edu,18784.0,38.958551,-95.247618,0.9347,4,1,15,15,16,0,0,0.0038,,"[""189cfaa20f0eb5e43d34b1972b9270ed"", ""2fe6b23b2fbe281d0e79840b83c217e5""]"
1560,164076,Towson University,Towson,MD,21252-0001,www.towson.edu,18806.0,39.393008,-76.612268,0.7338,4,1,18,13,16,0,0,0.0014,,"[""343052679408b2c8ca3c9e5bbfc496d5""]"
3810,232423,James Madison University,Harrisonburg,VA,22807,www.jmu.edu/,19019.0,38.435332,-78.871663,0.7257,4,1,18,14,16,0,0,0.0017,,"[""19ba19a676c868832ce6f5857d6009b9"", ""675c433934dbceb6bfc4a5fca05a6772""]"
1313,155399,Kansas State University,Manhattan,KS,66506,www.k-state.edu,19443.0,39.188615999999996,-96.58107700000001,0.9492,4,1,16,15,15,0,0,0.0039,,"[""189cfaa20f0eb5e43d34b1972b9270ed"", ""2fe6b23b2fbe281d0e79840b83c217e5""]"
3495,220978,Middle Tennessee State University,Murfreesboro,TN,37132,www.mtsu.edu,19446.0,35.849139,-86.362094,0.726,4,1,17,13,16,0,0,0.0027,,"[""1d5e456931db024b1c874a16dce0ce1b"", ""3db77b6e93bd15601dd8750b9eaa6add"", ""7639ca3ea97bd7b15f7b7ebb3d20b2ea""]"
3051,209807,Portland State University,Portland,OR,97201,www.pdx.edu,19648.0,45.511229,-122.683553,0.8568,4,1,16,9,15,0,0,0.013999999999999999,,"[""44468b05a0339405160df36c5f05e9df""]"
577,127565,Metropolitan State University of Denver,Denver,CO,80217-3362,www.msudenver.edu/,19649.0,39.742248,-105.00239099999999,0.6522,4,1,22,9,15,0,0,0.0062,,"[""51c79c21bde415a7f51e05da2793b179"", ""595617f81d7c04fe70726f9601b45f29"", ""a4bc7c5d2586d2d0fc473ba771ae3b98""]"
2520,196088,University at Buffalo,Buffalo,NY,14260-1660,www.buffalo.edu,19692.0,43.001433,-78.790103,0.5999,4,1,15,15,16,0,0,0.0022,,"[""19ba19a676c868832ce6f5857d6009b9"", ""7e30edf6ace00ddf13dd8e09947db500""]"
3829,232982,Old Dominion University,Norfolk,VA,23529,www.odu.edu,19870.0,36.884919000000004,-76.309653,0.8311,4,1,16,9,15,0,0,0.0038,,"[""4ec0490ae6d3b2a43617ba9de53c4eb3""]"
2258,187985,University of New Mexico-Main Campus,Albuquerque,NM,87106,www.unm.edu,19886.0,35.083868,-106.62015500000001,0.5788,4,1,15,9,15,0,0,0.0568,,"[""80d88c390d5b9fd4158ae21daa7940ea""]"
1717,169248,Central Michigan University,Mount Pleasant,MI,48859,www.cmich.edu,19954.0,43.591136999999996,-84.775275,0.6875,4,1,17,13,16,0,0,0.0067,,"[""19ba19a676c868832ce6f5857d6009b9"", ""536f31a6e26dfcc840b99c4f49f10829"", ""7e30edf6ace00ddf13dd8e09947db500""]"
225,110422,California Polytechnic State University-San Luis Obispo,San Luis Obispo,CA,93407,calpoly.edu,19972.0,35.29889,-120.65856000000001,0.3129,4,1,18,14,16,0,0,0.0015,,"[""c50ae997512aa9e22bf7c534e8336afd"", ""cc8142d3fd5e52cacce6ce34ba399705""]"
3702,228796,The University of Texas at El Paso,El Paso,TX,79968-0691,www.utep.edu,20004.0,31.771696999999996,-106.50356000000001,0.9999,4,1,16,7,15,0,0,0.0017,,"[""30ff9eafa9091041e294cc31360160e9""]"
2101,181464,University of Nebraska-Lincoln,Lincoln,NE,68588,www.unl.edu/,20182.0,40.822272,-96.702177,0.7636,4,1,15,14,16,0,0,0.0019,,"[""3eeee05d1ee1b1ece059a65db6b629da""]"
3042,209551,University of Oregon,Eugene,OR,97403,www.uoregon.edu,20220.0,44.044515000000004,-123.07398,0.7422,4,1,15,15,15,0,0,0.0049,,"[""0cea0560fc3f2553a0eba7244bb39a77"", ""e31c3d18dae78ec0e51a1a3a5eca79e8""]"
247,110705,University of California-Santa Barbara,Santa Barbara,CA,93106,www.ucsb.edu,20606.0,34.416281,-119.846404,0.3264,4,1,15,15,16,0,0,0.0013,,"[""75e2eabb23f7530dda8ad767cf23abc6"", ""c50ae997512aa9e22bf7c534e8336afd""]"
2980,207500,University of Oklahoma-Norman Campus,Norman,OK,73019-3072,www.ou.edu,20689.0,35.208152,-97.44569200000001,0.7764,4,1,15,15,16,0,0,0.0393,,"[""189cfaa20f0eb5e43d34b1972b9270ed"", ""54fd1211f20900fb911ee8ce968d6304"", ""9cfa50165033586c4e2b7e353fbd1318""]"
2975,207388,Oklahoma State University-Main Campus,Stillwater,OK,74078-1015,www.okstate.edu/,20805.0,36.123084999999996,-97.069743,0.7513,4,1,16,15,16,0,0,0.0484,,"[""189cfaa20f0eb5e43d34b1972b9270ed"", ""54fd1211f20900fb911ee8ce968d6304""]"
4057,240453,University of Wisconsin-Milwaukee,Milwaukee,WI,53201-0413,www.uwm.edu,20921.0,43.076848,-87.880488,0.8578,4,1,16,13,15,0,0,0.0043,,"[""5383948cbc0e947d9efd873b7f97617a"", ""5c97aa2bdef5e8752104ee6c48fe0853"", ""93c595202370658320bb120f7aa9fc46""]"
233,110556,California State University-Fresno,Fresno,CA,93740,www.csufresno.edu,21076.0,36.814477000000004,-119.748258,0.5219,4,1,18,11,15,0,0,0.003,,"[""db8cf5dc7ec07dcbc77263d42d16750e""]"
1143,151111,Indiana University-Purdue University-Indianapolis,Indianapolis,IN,46202-5143,www.iupui.edu,21217.0,39.772948,-86.172217,0.6967,4,1,16,9,15,0,0,0.0009,,"[""19ba19a676c868832ce6f5857d6009b9"", ""5c97aa2bdef5e8752104ee6c48fe0853""]"
9,100858,Auburn University,Auburn,AL,36849,www.auburn.edu,21551.0,32.604684999999996,-85.482782,0.7766,4,1,16,15,15,0,0,0.0063,,"[""3db77b6e93bd15601dd8750b9eaa6add"", ""65e2b5937d3213af618235db3d0d0862""]"
3992,238032,West Virginia University,Morgantown,WV,26506,www.wvu.edu,21580.0,39.634679999999996,-79.953926,0.8581,4,1,16,12,15,0,0,0.0012,,"[""189cfaa20f0eb5e43d34b1972b9270ed"", ""19ba19a676c868832ce6f5857d6009b9""]"
3525,221759,The University of Tennessee-Knoxville,Knoxville,TN,37996,www.utk.edu,21661.0,35.955093,-83.92969599999999,0.763,4,1,15,15,16,0,0,0.0023,,"[""3db77b6e93bd15601dd8750b9eaa6add"", ""7639ca3ea97bd7b15f7b7ebb3d20b2ea"", ""c8210c4dc0690a308150ecbd7ad039c2""]"
2611,198464,East Carolina University,Greenville,NC,27858-4353,www.ecu.edu,21697.0,35.606347,-77.366199,0.6904,4,1,17,13,16,0,0,0.0066,,"[""836cc8d0b2c40ee685613c5623eac3d8""]"
134,106397,University of Arkansas,Fayetteville,AR,72701,www.uark.edu,21815.0,36.06153,-94.178214,0.6006,4,1,15,15,16,0,0,0.0112,,"[""189cfaa20f0eb5e43d34b1972b9270ed"", ""3db77b6e93bd15601dd8750b9eaa6add"", ""889a46697fcb74fe7762130797f11df5""]"
1742,170082,Grand Valley State University,Allendale,MI,49401-9403,www.gvsu.edu,21889.0,42.965208000000004,-85.887519,0.8114,4,1,18,13,16,0,0,0.0038,,"[""19ba19a676c868832ce6f5857d6009b9""]"
1235,153658,University of Iowa,Iowa City,IA,52242-1316,www.uiowa.edu,21970.0,41.660695000000004,-91.535698,0.8074,4,1,15,15,16,0,0,0.0014,,"[""0491f976864a170c692ef2a166034c97"", ""406123f9f9771e5dcd50e5f0910fc808""]"
230,110529,California State Polytechnic University-Pomona,Pomona,CA,91768,www.cpp.edu,22034.0,34.054272999999995,-117.819019,0.3931,4,1,18,13,15,0,0,0.002,,"[""acf3b3f37dbec4c43881eac7593ba2d2""]"
1373,157085,University of Kentucky,Lexington,KY,40506-0032,www.uky.edu,22247.0,38.035818,-84.50565300000001,0.8911,4,1,15,14,16,0,0,0.0018,,"[""189cfaa20f0eb5e43d34b1972b9270ed"", ""19ba19a676c868832ce6f5857d6009b9"", ""1d5e456931db024b1c874a16dce0ce1b"", ""7639ca3ea97bd7b15f7b7ebb3d20b2ea""]"
3754,230728,Utah State University,Logan,UT,84322-1400,www.usu.edu,22265.0,41.740747999999996,-111.81391,0.9667,4,1,16,9,15,0,0,0.0195,,"[""02cc730ca35824944341d5e6d5747d50"", ""90c530bbd09f81c0954d9b978dd38d18""]"
3804,232186,George Mason University,Fairfax,VA,22030-4444,https://www2.gmu.edu/,22308.0,38.83088,-77.30794,0.6887,4,1,16,15,16,0,0,0.0023,,[]
3862,234030,Virginia Commonwealth University,Richmond,VA,23284-2512,www.vcu.edu/,22389.0,37.547631,-77.453597,0.7895,4,1,15,13,16,0,0,0.0023,,"[""4ec0490ae6d3b2a43617ba9de53c4eb3""]"
1637,166629,University of Massachusetts-Amherst,Amherst,MA,01003,www.umass.edu,22405.0,42.386162,-72.52617,0.5832,4,1,15,15,17,0,0,0.0012,,"[""2df165e09bd2d7c035936c3e6978724a"", ""92e0d6065757df7879cfa315280b82b6"", ""c9123ff8973d332a07ca807f63ed6551""]"
2661,199193,North Carolina State University at Raleigh,Raleigh,NC,27695-7001,www.ncsu.edu,22458.0,35.785111,-78.67451700000001,0.5043,4,1,15,15,16,0,0,0.0036,,"[""836cc8d0b2c40ee685613c5623eac3d8"", ""a4f57169cee0acb6a67bd4bc6c10ecf1""]"
2657,199139,University of North Carolina at Charlotte,Charlotte,NC,28223-0001,www.uncc.edu,22686.0,35.306834,-80.73579000000001,0.6331,4,1,17,13,15,0,0,0.0033,,"[""a4f57169cee0acb6a67bd4bc6c10ecf1""]"
558,126818,Colorado State University-Fort Collins,Fort Collins,CO,80523-0100,www.colostate.edu,22727.0,40.574759,-105.08083,0.8082,4,1,15,15,16,0,0,0.0066,,"[""51c79c21bde415a7f51e05da2793b179"", ""595617f81d7c04fe70726f9601b45f29"", ""a4bc7c5d2586d2d0fc473ba771ae3b98""]"
3757,230764,University of Utah,Salt Lake City,UT,84112-9008,www.utah.edu,22761.0,40.762484,-111.84604399999999,0.8143,4,1,15,9,15,0,0,0.005,,"[""595617f81d7c04fe70726f9601b45f29"", ""90c530bbd09f81c0954d9b978dd38d18"", ""9e373de976e38d2afca82c56e896d221""]"
2826,203517,Kent State University at Kent,Kent,OH,44242-0001,www.kent.edu,22779.0,41.146856,-81.342253,0.8476,4,1,16,12,16,0,0,0.0019,,"[""19ba19a676c868832ce6f5857d6009b9"", ""93c595202370658320bb120f7aa9fc46"", ""f63ea15571b3debc934aafac25267799""]"
2118,182281,University of Nevada-Las Vegas,Las Vegas,NV,89154,www.unlv.edu/,23325.0,36.106994,-115.141153,0.8841,4,1,16,9,15,0,0,0.0023,,"[""e1b28fe1f115faee195abc1238993ec4""]"
2885,204857,Ohio University-Main Campus,Athens,OH,45701-2979,www.ohio.edu,23335.0,39.326799,-82.10106400000001,0.7442,4,1,16,9,16,0,0,0.0014,,"[""189cfaa20f0eb5e43d34b1972b9270ed"", ""19ba19a676c868832ce6f5857d6009b9""]"
237,110592,California State University-Los Angeles,Los Angeles,CA,90032-8506,www.calstatela.edu,23424.0,34.066927,-118.16896499999999,0.6813,4,1,18,11,15,0,0,0.0011,,"[""acf3b3f37dbec4c43881eac7593ba2d2""]"
3041,209542,Oregon State University,Corvallis,OR,97331,oregonstate.edu,23656.0,44.562740000000005,-123.274721,0.7836,4,1,15,9,15,0,0,0.006,,"[""e31c3d18dae78ec0e51a1a3a5eca79e8""]"
3710,229027,The University of Texas at San Antonio,San Antonio,TX,78249-1644,www.utsa.edu/,23921.0,29.582418,-98.621386,0.7795,4,1,16,13,15,0,0,0.0017,,[]
2774,201885,University of Cincinnati-Main Campus,Cincinnati,OH,45221-0063,www.uc.edu,24066.0,39.131159000000004,-84.51428,0.8558,4,1,15,15,15,0,0,0.0017,,"[""189cfaa20f0eb5e43d34b1972b9270ed"", ""19ba19a676c868832ce6f5857d6009b9"", ""1d5e456931db024b1c874a16dce0ce1b"", ""5c97aa2bdef5e8752104ee6c48fe0853""]"
3939,236939,Washington State University,Pullman,WA,99164-5910,wsu.edu/,24100.0,46.730447999999996,-117.15816799999999,0.7964,4,1,15,13,16,0,0,0.0062,,"[""af42c39856f4565fa2b3b9b13c4ef010""]"
702,133669,Florida Atlantic University,Boca Raton,FL,33431-0991,www.fau.edu/,24228.0,26.372536,-80.102293,0.6768,4,1,16,9,15,0,0,0.002,,"[""17f000b591d77a210adc52a0895ae256""]"
869,139940,Georgia State University,Atlanta,GA,30303-3083,www.gsu.edu,24421.0,33.7527,-84.38667,0.5665,4,1,15,9,15,0,0,0.0016,,"[""3db77b6e93bd15601dd8750b9eaa6add"", ""65e2b5937d3213af618235db3d0d0862""]"
3655,227368,The University of Texas Rio Grande Valley,Edinburg,TX,78539-2999,www.utrgv.edu,24473.0,26.306628999999997,-98.172112,0.8224,4,1,18,7,15,0,0,0.0004,,"[""9cad11ef06f0c9e6523baa0e377b3d06""]"
1436,159391,Louisiana State University and Agricultural & Mechanical College,Baton Rouge,LA,70803-2750,www.lsu.edu,24904.0,30.414983000000003,-91.178921,0.7734,4,1,15,14,16,0,0,0.0033,,"[""3db77b6e93bd15601dd8750b9eaa6add""]"
3392,218663,University of South Carolina-Columbia,Columbia,SC,29208,www.sc.edu/,24941.0,33.998973,-81.026971,0.6453,4,1,15,15,16,0,0,0.0022,,"[""7639ca3ea97bd7b15f7b7ebb3d20b2ea""]"
104,105330,Northern Arizona University,Flagstaff,AZ,86011-4092,nau.edu/,24992.0,35.180095,-111.657653,0.7706,4,1,16,13,16,0,0,0.0273,,"[""43c1b688e30f99200b924c758365e7be"", ""8e14dae85a291f86b92abcafec482c1b"", ""e63ce91bd974a2f62147a6f20979bae5""]"
242,110653,University of California-Irvine,Irvine,CA,92697,www.uci.edu/,25245.0,33.648434,-117.841248,0.3868,4,1,15,15,16,0,0,0.0005,,"[""acf3b3f37dbec4c43881eac7593ba2d2""]"
2455,193900,New York University,New York,NY,10012-1091,www.nyu.edu,25314.0,40.729452,-73.997264,0.3207,4,2,15,14,16,0,0,0.0016,,"[""4a9b0285e952687b405986f1951007f7""]"
3860,233921,Virginia Polytechnic Institute and State University,Blacksburg,VA,24061-0131,WWW.VT.EDU,25327.0,37.228572,-80.423229,0.7341,4,1,15,14,16,0,0,0.0015,,"[""19ba19a676c868832ce6f5857d6009b9""]"
3755,230737,Utah Valley University,Orem,UT,84058-5999,www.uvu.edu,25751.0,40.278512,-111.71705800000001,,4,1,22,7,15,0,0,0.0066,,"[""595617f81d7c04fe70726f9601b45f29"", ""9e373de976e38d2afca82c56e896d221""]"
470,122597,San Francisco State University,San Francisco,CA,94132,www.sfsu.edu,25867.0,37.721345,-122.477905,0.6788,4,1,18,13,15,0,0,0.0017,,"[""1e5e11124e896b3baea07044c58b8260"", ""a90d3bfb7b242b82fe94437be1101092""]"
549,126614,University of Colorado Boulder,Boulder,CO,80309-0017,www.colorado.edu,26496.0,40.004415,-105.26706100000001,0.7962,4,1,15,14,16,0,0,0.0028,,"[""51c79c21bde415a7f51e05da2793b179"", ""595617f81d7c04fe70726f9601b45f29"", ""a4bc7c5d2586d2d0fc473ba771ae3b98""]"
245,110680,University of California-San Diego,La Jolla,CA,92093,www.ucsd.edu,26584.0,32.876598,-117.237793,0.3374,4,1,15,15,16,0,0,0.0012,,"[""f29d9e2484be90ae59cd10ac88712cd1""]"
478,122755,San Jose State University,San Jose,CA,95192-0001,www.sjsu.edu,26670.0,37.335201,-121.88121399999999,0.5522,4,1,18,13,15,0,0,0.0015,,"[""23540e1ecf47fae43de6f2090c69e2aa"", ""a90d3bfb7b242b82fe94437be1101092""]"
1541,163286,University of Maryland-College Park,College Park,MD,20742,www.umd.edu,26889.0,38.985378999999995,-76.939494,0.4488,4,1,15,15,16,0,0,0.0013,,"[""343052679408b2c8ca3c9e5bbfc496d5"", ""c82ba38461590c1a2192a4ade984b598""]"
239,110617,California State University-Sacramento,Sacramento,CA,95819-2694,www.csus.edu,27323.0,38.55745,-121.42193999999999,0.6725,4,1,18,11,15,0,0,0.0038,,"[""b6cd6147e3181316f2a92a8fea694c1f""]"
870,139959,University of Georgia,Athens,GA,30602,www.uga.edu,27335.0,33.956428,-83.374049,0.5288,4,1,15,15,16,0,0,0.0009,,"[""3db77b6e93bd15601dd8750b9eaa6add"", ""65e2b5937d3213af618235db3d0d0862"", ""7639ca3ea97bd7b15f7b7ebb3d20b2ea""]"
2004,178396,University of Missouri-Columbia,Columbia,MO,65211-1050,missouri.edu/,27393.0,38.941015,-92.326429,0.7813,4,1,15,14,15,0,0,0.0017,,"[""189cfaa20f0eb5e43d34b1972b9270ed""]"
240,110635,University of California-Berkeley,Berkeley,CA,94720,www.berkeley.edu,27496.0,37.871969,-122.260423,0.1688,4,1,15,15,16,0,0,0.0016,,"[""3bb96657bc7a59da08c353224c835e36"", ""a90d3bfb7b242b82fe94437be1101092""]"
3302,216339,Temple University,Philadelphia,PA,19122-6096,www.temple.edu,27983.0,39.980942999999996,-75.15826700000001,0.5568,4,1,16,15,15,0,0,0.0014,,"[""4a9b0285e952687b405986f1951007f7""]"
1762,170976,University of Michigan-Ann Arbor,Ann Arbor,MI,48109,www.umich.edu,28120.0,42.276061,-83.743121,0.2628,4,1,15,14,16,0,0,0.0019,,"[""19ba19a676c868832ce6f5857d6009b9"", ""536f31a6e26dfcc840b99c4f49f10829"", ""7e30edf6ace00ddf13dd8e09947db500"", ""93c595202370658320bb120f7aa9fc46""]"
241,110644,University of California-Davis,Davis,CA,95616-8678,www.ucdavis.edu,28239.0,38.539895,-121.751958,0.3795,4,1,15,15,16,0,0,0.0018,,"[""be5288372ab6ef37be7d283627081630""]"
935,142522,Brigham Young University-Idaho,Rexburg,ID,83460-1690,www.byui.edu,28457.0,43.815384,-111.784728,0.9959,3,2,22,9,15,0,0,0.0031,,"[""02cc730ca35824944341d5e6d5747d50"", ""90c530bbd09f81c0954d9b978dd38d18""]"
466,122409,San Diego State University,San Diego,CA,92182,www.sdsu.edu,28649.0,32.77525,-117.071228,0.3441,4,1,16,15,15,0,0,0.0028,,"[""f29d9e2484be90ae59cd10ac88712cd1""]"
3713,229115,Texas Tech University,Lubbock,TX,79409-5005,www.ttu.edu,28868.0,33.580309,-101.876917,0.6306,4,1,16,15,16,0,0,0.0032,,"[""2b138b83575305cdd623a27b405ee7e5""]"
1232,153603,Iowa State University,Ames,IA,50011-2103,www.iastate.edu,29520.0,42.026368,-93.648353,0.8715,4,1,15,13,16,0,0,0.0024,,"[""406123f9f9771e5dcd50e5f0910fc808"", ""e834ab3323064b2a18f47bb73c0086c4""]"
4056,240444,University of Wisconsin-Madison,Madison,WI,53706-1380,www.wisc.edu,29579.0,43.073858,-89.40535600000001,0.5761,4,1,15,14,16,0,0,0.0021,,"[""0491f976864a170c692ef2a166034c97"", ""5c97aa2bdef5e8752104ee6c48fe0853"", ""940c8b2796d69930a08670e10bb5c9a5""]"
243,110662,University of California-Los Angeles,Los Angeles,CA,90095-1405,www.ucla.edu/,29581.0,34.068892,-118.443901,0.1728,4,1,15,15,16,0,0,0.0016,,"[""acf3b3f37dbec4c43881eac7593ba2d2"", ""c50ae997512aa9e22bf7c534e8336afd""]"
3940,236948,University of Washington-Seattle Campus,Seattle,WA,98195-4550,www.washington.edu,30022.0,47.656213,-122.313115,0.5333,4,1,15,15,15,0,0,0.0044,,"[""38ae5a12f61f3662f71b5e4f46f7346f"", ""8e84e648ae98f0415333aa8e8b10cfc7""]"
3734,230038,Brigham Young University-Provo,Provo,UT,84602,www.byu.edu,30221.0,40.250851000000004,-111.649281,0.4805,4,2,16,14,15,0,0,0.0034,,"[""595617f81d7c04fe70726f9601b45f29"", ""9e373de976e38d2afca82c56e896d221""]"
4151,243780,Purdue University-Main Campus,West Lafayette,IN,47907-2040,www.purdue.edu,30233.0,40.428206,-86.914435,0.5897,4,1,15,14,16,0,0,0.0012,,"[""19ba19a676c868832ce6f5857d6009b9"", ""5c97aa2bdef5e8752104ee6c48fe0853"", ""93c595202370658320bb120f7aa9fc46""]"
795,137351,University of South Florida-Main Campus,Tampa,FL,33620-9951,www.usf.edu,30282.0,28.056646999999998,-82.415876,0.4464,4,1,15,9,15,0,0,0.0018,,"[""17f000b591d77a210adc52a0895ae256"", ""816cc45dc56caf067c6f50b383fca5d0""]"
3699,228769,The University of Texas at Arlington,Arlington,TX,76013,WWW.UTA.EDU,30358.0,32.728437,-97.115087,0.6636,4,1,16,5,15,0,0,0.0031,,[]
1852,174066,University of Minnesota-Twin Cities,Minneapolis,MN,55455-0213,twin-cities.umn.edu/,30511.0,44.977886,-93.235352,0.4458,4,1,15,15,15,0,0,0.0023,,"[""7e30edf6ace00ddf13dd8e09947db500""]"
3646,227216,University of North Texas,Denton,TX,76203-1277,www.unt.edu,30533.0,33.210958000000005,-97.151211,0.7015,4,1,16,9,15,0,0,0.0034,,[]
5,100751,The University of Alabama,Tuscaloosa,AL,35487-0166,www.ua.edu/,31005.0,33.2144,-87.545766,0.5359,4,1,16,14,16,0,0,0.0035,,"[""3db77b6e93bd15601dd8750b9eaa6add""]"
236,110583,California State University-Long Beach,Long Beach,CA,90840-0115,www.csulb.edu,32025.0,33.782752,-118.1123,0.3382,4,1,18,13,15,0,0,0.0016,,"[""acf3b3f37dbec4c43881eac7593ba2d2""]"
1004,145637,University of Illinois at Urbana-Champaign,Champaign,IL,61820-5711,www.illinois.edu/,32170.0,40.108864000000004,-88.23030899999999,0.6556,4,1,15,14,16,0,0,0.0006,,"[""19ba19a676c868832ce6f5857d6009b9"", ""5c97aa2bdef5e8752104ee6c48fe0853""]"
718,134097,Florida State University,Tallahassee,FL,32306-1037,www.fsu.edu,32229.0,30.4421,-84.294801,0.5589999999999999,4,1,15,15,15,0,0,0.0022,,[]
720,134130,University of Florida,Gainesville,FL,32611,www.ufl.edu/,32376.0,29.649428000000004,-82.339958,0.4754,4,1,15,15,15,0,0,0.002,,"[""17f000b591d77a210adc52a0895ae256"", ""9bcff4f77c1f83f2bfd98aa57888a03b""]"
1151,151351,Indiana University-Bloomington,Bloomington,IN,47405-7000,www.iub.edu,32694.0,39.166383,-86.526904,0.7799,4,1,15,14,16,0,0,0.0013,,"[""19ba19a676c868832ce6f5857d6009b9"", ""5c97aa2bdef5e8752104ee6c48fe0853""]"
81,104179,University of Arizona,Tucson,AZ,85721-0066,www.arizona.edu,32964.0,32.232071000000005,-110.950769,0.7643,4,1,15,13,15,0,0,0.0116,,"[""dcbae39f9c7f4dc53f5f1fbb0815cdb6"", ""e5c4eb16bd2dc009c9949b64bbec9454""]"
234,110565,California State University-Fullerton,Fullerton,CA,92831-3599,www.fullerton.edu,33009.0,33.883627000000004,-117.885349,0.4186,4,1,18,13,15,0,0,0.0013,,"[""acf3b3f37dbec4c43881eac7593ba2d2""]"
3605,225511,University of Houston,Houston,TX,77204-2018,www.uh.edu/,33300.0,29.719988,-95.344851,0.5972,4,1,15,9,15,0,0,0.0015,,[]
3686,228459,Texas State University,San Marcos,TX,78666,www.txstate.edu,33480.0,29.889202,-97.936392,0.7084,4,1,18,13,15,0,0,0.003,,[]
2224,186380,Rutgers University-New Brunswick,New Brunswick,NJ,08901-1281,newbrunswick.rutgers.edu/,35102.0,40.503796,-74.45051,0.5845,4,1,15,15,16,0,0,0.0006,,"[""4a9b0285e952687b405986f1951007f7""]"
1538,163204,University of Maryland-University College,Adelphi,MD,20783-8010,www.umuc.edu,36119.0,38.986299,-76.954104,,4,1,18,5,15,0,0,0.0051,,"[""343052679408b2c8ca3c9e5bbfc496d5"", ""c82ba38461590c1a2192a4ade984b598""]"
238,110608,California State University-Northridge,Northridge,CA,91330,www.csun.edu,36979.0,34.236709999999995,-118.526817,0.456,4,1,18,11,15,0,0,0.0014,,"[""acf3b3f37dbec4c43881eac7593ba2d2"", ""c50ae997512aa9e22bf7c534e8336afd"", ""c9d38fbea7a0c436f41cba0b5a38212d""]"
1764,171100,Michigan State University,East Lansing,MI,48824-1046,https://www.msu.edu,38853.0,42.73212,-84.476111,0.6628,4,1,15,14,16,0,0,0.0022,,"[""19ba19a676c868832ce6f5857d6009b9"", ""7e30edf6ace00ddf13dd8e09947db500""]"
3700,228778,The University of Texas at Austin,Austin,TX,78712,www.utexas.edu,39057.0,30.286597999999998,-97.73924,0.3924,4,1,15,15,15,0,0,0.0016,,[]
3236,214777,Pennsylvania State University-Main Campus,University Park,PA,16802-1503,www.psu.edu/,40179.0,40.800732,-77.861644,0.5132,4,1,15,14,16,0,0,0.0007,,"[""19ba19a676c868832ce6f5857d6009b9"", ""cfaa9067fdb1a8acbd533c38a5dce783"", ""f63ea15571b3debc934aafac25267799""]"
712,133951,Florida International University,Miami,FL,33199,www.fiu.edu,40208.0,25.757111,-80.37759100000001,0.504,4,1,16,9,15,0,0,0.0009,,"[""17f000b591d77a210adc52a0895ae256""]"
79,104151,Arizona State University-Tempe,Tempe,AZ,85287,www.asu.edu/,41222.0,33.422247,-111.934629,0.8291,4,1,15,15,15,0,0,0.0124,,"[""8c811ba2e5930bd38aac7068dd182be6"", ""e63ce91bd974a2f62147a6f20979bae5""]"
2138,183026,Southern New Hampshire University,Manchester,NH,03106-1045,www.snhu.edu,42247.0,43.039892,-71.453938,0.9171,4,2,18,5,15,0,0,0.005,,"[""2df165e09bd2d7c035936c3e6978724a"", ""d9508a2edf4f8abe6f02d454c3768838""]"
2880,204796,Ohio State University-Main Campus,Columbus,OH,43210,www.osu.edu/,44131.0,39.998389,-83.009001,0.4938,4,1,15,15,16,0,0,0.0012,,"[""19ba19a676c868832ce6f5857d6009b9"", ""5c97aa2bdef5e8752104ee6c48fe0853""]"
3698,228723,Texas A & M University-College Station,College Station,TX,77843-1248,www.tamu.edu,48707.0,30.613226,-96.340322,0.6664,4,1,15,14,15,0,0,0.0025,,[]
3813,232557,Liberty University,Lynchburg,VA,24515,www.liberty.edu,49542.0,37.350345000000004,-79.179688,0.2156,4,2,18,5,16,0,0,0.0046,,"[""19ba19a676c868832ce6f5857d6009b9""]"
691,132903,University of Central Florida,Orlando,FL,32816,www.ucf.edu/,54091.0,28.601059999999997,-81.19880500000001,0.4857,4,1,15,9,15,0,0,0.0019,,"[""17f000b591d77a210adc52a0895ae256""]"
